{
"type": "FeatureCollection",
"name": "2025_NATURAL",
"crs": { "type": "name", "properties": { "name": "urn:ogc:def:crs:OGC:1.3:CRS84" } },
"features": [
{ "type": "Feature", "properties": { "OBJECTID_1": 2462, "OBJECTID": 37, "ID": 0, "TAHUN": 2025, "DATE": "2025-01-01", "NAMA_TITIK": "T41", "SHAPE_LENG": 200.043617568, "TRANSECTID": 45, "TRANSORDER": 45, "SHORELINEI": "2025-01-01", "BASELINEID": 1, "DISTANCE": 205.65, "INTERSECTX": 297801.228546998, "INTERSECTY": 9242402.2610599902, "UNCERTAINT": 10, "NAMA_TITI2": "T41", "D_TAHUN": null, "LRR": -2.12, "SKOR_SHORE": 5, "RASTERVALU": 9.05717, "SKOR_SLOPE": 2, "RASTERVA_1": -1.62402, "SKOR_ELEV": 5, "GEOM_LAP": "Tambak", "SKOR_GEOM": 5, "KATEGORI": "Abrasi Tinggi", "GELOMBANG": 0.25286520228666398, "PASUT": 0.888, "SLR": 4.69, "SKOR_GEL": 2, "SKOR_PASUT": 2, "SKOR_SLR": 5, "CVI": 43.301270189219998, "KELAS_CVI": 3, "KELAS_CV_1": "Sedang", "LAHAN": "Tambak", "JENIS": "Natural", "SKOR_LAHAN": 3 }, "geometry": { "type": "MultiLineString", "coordinates": [ [ [ 109.170216414770408, -6.850412427164565 ], [ 109.168655416982276, -6.849497409014738 ] ] ] } },
{ "type": "Feature", "properties": { "OBJECTID_1": 2463, "OBJECTID": 37, "ID": 0, "TAHUN": 2025, "DATE": "2025-01-01", "NAMA_TITIK": "T42", "SHAPE_LENG": 256.65481116699999, "TRANSECTID": 46, "TRANSORDER": 46, "SHORELINEI": "2025-01-01", "BASELINEID": 1, "DISTANCE": 212.71, "INTERSECTX": 297980.921829, "INTERSECTY": 9242297.7908100002, "UNCERTAINT": 10, "NAMA_TITI2": "T42", "D_TAHUN": null, "LRR": -1.48, "SKOR_SHORE": 4, "RASTERVALU": 10.6361, "SKOR_SLOPE": 2, "RASTERVA_1": -1.41562, "SKOR_ELEV": 5, "GEOM_LAP": "Tambak", "SKOR_GEOM": 5, "KATEGORI": "Abrasi Sedang", "GELOMBANG": 0.25286520228666398, "PASUT": 0.888, "SLR": 4.69, "SKOR_GEL": 2, "SKOR_PASUT": 2, "SKOR_SLR": 5, "CVI": 38.729833462069998, "KELAS_CVI": 3, "KELAS_CV_1": "Sedang", "LAHAN": "Tambak", "JENIS": "Natural", "SKOR_LAHAN": 3 }, "geometry": { "type": "MultiLineString", "coordinates": [ [ [ 109.172219176137546, -6.851586384748003 ], [ 109.170216414770408, -6.850412427164565 ] ] ] } },
{ "type": "Feature", "properties": { "OBJECTID_1": 2471, "OBJECTID": 37, "ID": 0, "TAHUN": 2025, "DATE": "2025-01-01", "NAMA_TITIK": "T40", "SHAPE_LENG": 201.96811917599999, "TRANSECTID": 44, "TRANSORDER": 44, "SHORELINEI": "2025-01-01", "BASELINEID": 1, "DISTANCE": 201.47, "INTERSECTX": 297628.288325998, "INTERSECTY": 9242502.8052200004, "UNCERTAINT": 10, "NAMA_TITI2": "T40", "D_TAHUN": null, "LRR": -2.39, "SKOR_SHORE": 5, "RASTERVALU": 1.31742, "SKOR_SLOPE": 5, "RASTERVA_1": -2.87668, "SKOR_ELEV": 5, "GEOM_LAP": "Tambak", "SKOR_GEOM": 5, "KATEGORI": "Abrasi Tinggi", "GELOMBANG": 0.25286520228666398, "PASUT": 0.888, "SLR": 4.69, "SKOR_GEL": 2, "SKOR_PASUT": 2, "SKOR_SLR": 5, "CVI": 68.465319688150004, "KELAS_CVI": 4, "KELAS_CV_1": "Tinggi", "LAHAN": "Tambak", "JENIS": "Natural", "SKOR_LAHAN": 3 }, "geometry": { "type": "MultiLineString", "coordinates": [ [ [ 109.168655416982276, -6.849497409014738 ], [ 109.167631475385932, -6.848897197004849 ], [ 109.16717919457902, -6.848444608124874 ] ] ] } },
{ "type": "Feature", "properties": { "OBJECTID_1": 2477, "OBJECTID": 37, "ID": 0, "TAHUN": 2025, "DATE": "2025-01-01", "NAMA_TITIK": "T51", "SHAPE_LENG": 217.410688002, "TRANSECTID": 20, "TRANSORDER": 20, "SHORELINEI": "2025-01-01", "BASELINEID": 1, "DISTANCE": 285.18, "INTERSECTX": 292995.40751200001, "INTERSECTY": 9242655.4432699904, "UNCERTAINT": 10, "NAMA_TITI2": "T51", "D_TAHUN": null, "LRR": 0.72, "SKOR_SHORE": 3, "RASTERVALU": 2.59289, "SKOR_SLOPE": 4, "RASTERVA_1": -2.65623, "SKOR_ELEV": 5, "GEOM_LAP": "Aluvial", "SKOR_GEOM": 4, "KATEGORI": "Stabil", "GELOMBANG": 0.25286520228666398, "PASUT": 0.888, "SLR": 4.69, "SKOR_GEL": 2, "SKOR_PASUT": 2, "SKOR_SLR": 5, "CVI": 48.989794855660001, "KELAS_CVI": 3, "KELAS_CV_1": "Sedang", "LAHAN": "Muara", "JENIS": "Natural", "SKOR_LAHAN": 4 }, "geometry": { "type": "MultiLineString", "coordinates": [ [ [ 109.126751041612209, -6.84795583140787 ], [ 109.12662710980112, -6.847994640002272 ], [ 109.126508241870141, -6.848031863469805 ], [ 109.126453151294726, -6.84804911468167 ], [ 109.126258296836539, -6.848110132373832 ], [ 109.126223002629899, -6.848121185175179 ], [ 109.126216775784158, -6.848123135515683 ], [ 109.126215504149087, -6.848123533799359 ], [ 109.126204736010919, -6.848126905807378 ], [ 109.126054369716499, -6.848173992439975 ], [ 109.126021640513372, -6.848184241509347 ], [ 109.1259965818777, -6.848192088379379 ], [ 109.125981584012251, -6.848196784711654 ], [ 109.125968413895819, -6.84820090862387 ], [ 109.125951485933726, -6.848206209524133 ], [ 109.125799524628235, -6.848253796155872 ], [ 109.125792930060172, -6.848255860784406 ], [ 109.12573424010678, -6.848274239777639 ], [ 109.125719583696764, -6.848278828936525 ], [ 109.125659249853982, -6.848297722286135 ], [ 109.125656500079288, -6.848298583141903 ], [ 109.125649013372566, -6.848300927280992 ], [ 109.12563811661721, -6.848304339458323 ], [ 109.125620700463017, -6.848309793951072 ], [ 109.125607422561018, -6.848313951788181 ], [ 109.125578960207619, -6.848322864887214 ], [ 109.125543500238535, -6.848333968518912 ], [ 109.125541514893811, -6.848334590048946 ], [ 109.125511483826514, -6.848343994295546 ], [ 109.125419242741501, -6.848359084257533 ], [ 109.125412211192653, -6.848360234909665 ], [ 109.125350567475579, -6.848370319604427 ], [ 109.125296651401371, -6.848379139723217 ], [ 109.125253136908725, -6.848386259060355 ], [ 109.125218624572142, -6.848391905424866 ], [ 109.125200576813853, -6.84839485752078 ], [ 109.124852511575583, -6.84845179775358 ] ] ] } },
{ "type": "Feature", "properties": { "OBJECTID_1": 2492, "OBJECTID": 37, "ID": 0, "TAHUN": 2025, "DATE": "2025-01-01", "NAMA_TITIK": "T38", "SHAPE_LENG": 180.99226727499999, "TRANSECTID": 42, "TRANSORDER": 42, "SHORELINEI": "2025-01-01", "BASELINEID": 1, "DISTANCE": 263.01, "INTERSECTX": 297318.787323998, "INTERSECTY": 9242763.5643899906, "UNCERTAINT": 10, "NAMA_TITI2": "T38", "D_TAHUN": null, "LRR": -4.04, "SKOR_SHORE": 5, "RASTERVALU": 0.000344, "SKOR_SLOPE": 5, "RASTERVA_1": -2.94192, "SKOR_ELEV": 5, "GEOM_LAP": "Pasir_Halus", "SKOR_GEOM": 3, "KATEGORI": "Abrasi Tinggi", "GELOMBANG": 0.25286520228666398, "PASUT": 0.888, "SLR": 4.69, "SKOR_GEL": 2, "SKOR_PASUT": 2, "SKOR_SLR": 5, "CVI": 43.301270189219998, "KELAS_CVI": 3, "KELAS_CV_1": "Sedang", "LAHAN": "Pantai", "JENIS": "Natural", "SKOR_LAHAN": 2 }, "geometry": { "type": "MultiLineString", "coordinates": [ [ [ 109.165864598690845, -6.847129113970626 ], [ 109.165320777727572, -6.8465849182733 ], [ 109.165316863871965, -6.846581001934221 ], [ 109.165307611388315, -6.84657174249651 ], [ 109.165270245951376, -6.846551511511434 ], [ 109.164781785544037, -6.846287032545642 ], [ 109.164632454937035, -6.846206176786507 ], [ 109.164561010264862, -6.846167492182499 ] ] ] } },
{ "type": "Feature", "properties": { "OBJECTID_1": 2493, "OBJECTID": 37, "ID": 0, "TAHUN": 2025, "DATE": "2025-01-01", "NAMA_TITIK": "T39", "SHAPE_LENG": 205.637396483, "TRANSECTID": 43, "TRANSORDER": 43, "SHORELINEI": "2025-01-01", "BASELINEID": 1, "DISTANCE": 215.19, "INTERSECTX": 297464.66040499799, "INTERSECTY": 9242618.6237400007, "UNCERTAINT": 10, "NAMA_TITI2": "T39", "D_TAHUN": null, "LRR": -3.6, "SKOR_SHORE": 5, "RASTERVALU": 0.000339, "SKOR_SLOPE": 5, "RASTERVA_1": -2.9425, "SKOR_ELEV": 5, "GEOM_LAP": "Pasir_Halus", "SKOR_GEOM": 3, "KATEGORI": "Abrasi Tinggi", "GELOMBANG": 0.25286520228666398, "PASUT": 0.888, "SLR": 4.69, "SKOR_GEL": 2, "SKOR_PASUT": 2, "SKOR_SLR": 5, "CVI": 43.301270189219998, "KELAS_CVI": 3, "KELAS_CV_1": "Sedang", "LAHAN": "Pantai", "JENIS": "Natural", "SKOR_LAHAN": 2 }, "geometry": { "type": "MultiLineString", "coordinates": [ [ [ 109.16717919457902, -6.848444608124874 ], [ 109.167093879468666, -6.848359234831033 ], [ 109.16643158961034, -6.847696493341795 ], [ 109.165864598690845, -6.847129113970626 ] ] ] } },
{ "type": "Feature", "properties": { "OBJECTID_1": 2503, "OBJECTID": 37, "ID": 0, "TAHUN": 2025, "DATE": "2025-01-01", "NAMA_TITIK": "T37", "SHAPE_LENG": 221.73918243, "TRANSECTID": 41, "TRANSORDER": 41, "SHORELINEI": "2025-01-01", "BASELINEID": 1, "DISTANCE": 275.77, "INTERSECTX": 297174.27979300002, "INTERSECTY": 9242869.3706800006, "UNCERTAINT": 10, "NAMA_TITI2": "T37", "D_TAHUN": null, "LRR": -4.54, "SKOR_SHORE": 5, "RASTERVALU": 0.000345, "SKOR_SLOPE": 5, "RASTERVA_1": -2.94128, "SKOR_ELEV": 5, "GEOM_LAP": "Pasir_Halus", "SKOR_GEOM": 3, "KATEGORI": "Abrasi Tinggi", "GELOMBANG": 0.25286520228666398, "PASUT": 0.888, "SLR": 4.69, "SKOR_GEL": 2, "SKOR_PASUT": 2, "SKOR_SLR": 5, "CVI": 43.301270189219998, "KELAS_CVI": 3, "KELAS_CV_1": "Sedang", "LAHAN": "Pantai", "JENIS": "Natural", "SKOR_LAHAN": 2 }, "geometry": { "type": "MultiLineString", "coordinates": [ [ [ 109.164561010264862, -6.846167492182499 ], [ 109.16444113599249, -6.846102584999799 ], [ 109.164385662128979, -6.84607254805165 ], [ 109.164244258476913, -6.845876092771706 ], [ 109.164138518732983, -6.84572918535952 ], [ 109.164080085099911, -6.845648002994289 ], [ 109.163739700586831, -6.84517509859768 ], [ 109.163736780577167, -6.845171041383829 ], [ 109.163730078502354, -6.845161729284388 ], [ 109.163645261427732, -6.845043890536197 ], [ 109.163550831309948, -6.8449126960658 ], [ 109.163450740396073, -6.844933309894059 ], [ 109.16336373980927, -6.84495122780444 ], [ 109.16331903314547, -6.844960435758365 ], [ 109.163282274472948, -6.844968006820149 ], [ 109.163181667504745, -6.844988727112618 ] ] ] } },
{ "type": "Feature", "properties": { "OBJECTID_1": 2516, "OBJECTID": 37, "ID": 0, "TAHUN": 2025, "DATE": "2025-01-01", "NAMA_TITIK": "T04", "SHAPE_LENG": 200.41883173799999, "TRANSECTID": 4, "TRANSORDER": 4, "SHORELINEI": "2025-01-01", "BASELINEID": 1, "DISTANCE": 215.32, "INTERSECTX": 290059.06913000002, "INTERSECTY": 9243551.1198800001, "UNCERTAINT": 10, "NAMA_TITI2": "T04", "D_TAHUN": null, "LRR": -3.32, "SKOR_SHORE": 5, "RASTERVALU": 6.89058, "SKOR_SLOPE": 3, "RASTERVA_1": -2.22393, "SKOR_ELEV": 5, "GEOM_LAP": "Pasir_Halus", "SKOR_GEOM": 3, "KATEGORI": "Abrasi Tinggi", "GELOMBANG": 0.25286520228666398, "PASUT": 0.888, "SLR": 4.69, "SKOR_GEL": 2, "SKOR_PASUT": 2, "SKOR_SLR": 5, "CVI": 33.541019662499998, "KELAS_CVI": 2, "KELAS_CV_1": "Rendah", "LAHAN": "Pantai", "JENIS": "Natural", "SKOR_LAHAN": 2 }, "geometry": { "type": "MultiLineString", "coordinates": [ [ [ 109.100221098555906, -6.839753738928196 ], [ 109.098953952293343, -6.838964089486826 ], [ 109.0987134252087, -6.838753629484383 ] ] ] } },
{ "type": "Feature", "properties": { "OBJECTID_1": 2517, "OBJECTID": 37, "ID": 0, "TAHUN": 2025, "DATE": "2025-01-01", "NAMA_TITIK": "T44", "SHAPE_LENG": 139.85629694799999, "TRANSECTID": 5, "TRANSORDER": 5, "SHORELINEI": "2025-01-01", "BASELINEID": 1, "DISTANCE": 194.32, "INTERSECTX": 290183.672379, "INTERSECTY": 9243491.7168300003, "UNCERTAINT": 10, "NAMA_TITI2": "T44", "D_TAHUN": null, "LRR": -2.33, "SKOR_SHORE": 5, "RASTERVALU": 0.013365, "SKOR_SLOPE": 5, "RASTERVA_1": -2.91714, "SKOR_ELEV": 5, "GEOM_LAP": "Aluvial", "SKOR_GEOM": 4, "KATEGORI": "Abrasi Tinggi", "GELOMBANG": 0.25286520228666398, "PASUT": 0.888, "SLR": 4.69, "SKOR_GEL": 2, "SKOR_PASUT": 2, "SKOR_SLR": 5, "CVI": 70.710678118649994, "KELAS_CVI": 4, "KELAS_CV_1": "Tinggi", "LAHAN": "Muara", "JENIS": "Natural", "SKOR_LAHAN": 4 }, "geometry": { "type": "MultiLineString", "coordinates": [ [ [ 109.101346104816741, -6.840295252756311 ], [ 109.100957545000099, -6.840212668836735 ], [ 109.100558362782152, -6.839963911331855 ], [ 109.100221098555906, -6.839753738928196 ] ] ] } },
{ "type": "Feature", "properties": { "OBJECTID_1": 2518, "OBJECTID": 37, "ID": 0, "TAHUN": 2025, "DATE": "2025-01-01", "NAMA_TITIK": "T05", "SHAPE_LENG": 201.067896899, "TRANSECTID": 6, "TRANSORDER": 6, "SHORELINEI": "2025-01-01", "BASELINEID": 1, "DISTANCE": 215.02, "INTERSECTX": 290380.506525998, "INTERSECTY": 9243450.6719799805, "UNCERTAINT": 10, "NAMA_TITI2": "T05", "D_TAHUN": null, "LRR": -1.47, "SKOR_SHORE": 4, "RASTERVALU": 6.15341, "SKOR_SLOPE": 3, "RASTERVA_1": -2.46219, "SKOR_ELEV": 5, "GEOM_LAP": "Pasir_Halus", "SKOR_GEOM": 3, "KATEGORI": "Abrasi Sedang", "GELOMBANG": 0.25286520228666398, "PASUT": 0.888, "SLR": 4.69, "SKOR_GEL": 2, "SKOR_PASUT": 2, "SKOR_SLR": 5, "CVI": 42.426406871189997, "KELAS_CVI": 3, "KELAS_CV_1": "Sedang", "LAHAN": "Muara", "JENIS": "Natural", "SKOR_LAHAN": 4 }, "geometry": { "type": "MultiLineString", "coordinates": [ [ [ 109.103436567146417, -6.839710452381862 ], [ 109.101346104816741, -6.840295252756311 ] ] ] } },
{ "type": "Feature", "properties": { "OBJECTID_1": 2519, "OBJECTID": 37, "ID": 0, "TAHUN": 2025, "DATE": "2025-01-01", "NAMA_TITIK": "T03", "SHAPE_LENG": 201.29064730299999, "TRANSECTID": 3, "TRANSORDER": 3, "SHORELINEI": "2025-01-01", "BASELINEID": 1, "DISTANCE": 211.35, "INTERSECTX": 289891.961912998, "INTERSECTY": 9243661.0786600001, "UNCERTAINT": 10, "NAMA_TITI2": "T03", "D_TAHUN": null, "LRR": -3.26, "SKOR_SHORE": 5, "RASTERVALU": 6.99672, "SKOR_SLOPE": 3, "RASTERVA_1": -1.58426, "SKOR_ELEV": 5, "GEOM_LAP": "Pasir_Halus", "SKOR_GEOM": 3, "KATEGORI": "Abrasi Tinggi", "GELOMBANG": 0.25286520228666398, "PASUT": 0.888, "SLR": 4.69, "SKOR_GEL": 2, "SKOR_PASUT": 2, "SKOR_SLR": 5, "CVI": 33.541019662499998, "KELAS_CVI": 2, "KELAS_CV_1": "Rendah", "LAHAN": "Pantai", "JENIS": "Natural", "SKOR_LAHAN": 2 }, "geometry": { "type": "MultiLineString", "coordinates": [ [ [ 109.0987134252087, -6.838753629484383 ], [ 109.098427063423884, -6.838503063487528 ], [ 109.097704004966673, -6.837870387754755 ], [ 109.097343420755081, -6.837554876601388 ] ] ] } },
{ "type": "Feature", "properties": { "OBJECTID_1": 2520, "OBJECTID": 37, "ID": 0, "TAHUN": 2025, "DATE": "2025-01-01", "NAMA_TITIK": "T01", "SHAPE_LENG": 49.258549956300001, "TRANSECTID": 1, "TRANSORDER": 1, "SHORELINEI": "2025-01-01", "BASELINEID": 1, "DISTANCE": 267.54, "INTERSECTX": 289594.058370999, "INTERSECTY": 9243933.86369, "UNCERTAINT": 10, "NAMA_TITI2": "T01", "D_TAHUN": null, "LRR": -0.96, "SKOR_SHORE": 3, "RASTERVALU": 0.111227, "SKOR_SLOPE": 5, "RASTERVA_1": -2.91494, "SKOR_ELEV": 5, "GEOM_LAP": "Pasir_Halus", "SKOR_GEOM": 3, "KATEGORI": "Stabil", "GELOMBANG": 0.25286520228666398, "PASUT": 0.888, "SLR": 4.69, "SKOR_GEL": 2, "SKOR_PASUT": 2, "SKOR_SLR": 5, "CVI": 33.541019662499998, "KELAS_CVI": 2, "KELAS_CV_1": "Sedang", "LAHAN": "Pantai", "JENIS": "Natural", "SKOR_LAHAN": 2 }, "geometry": { "type": "MultiLineString", "coordinates": [ [ [ 109.096028446612948, -6.836276725694234 ], [ 109.095924501992769, -6.836168545995821 ], [ 109.095875285897108, -6.836117324948703 ], [ 109.095761303002917, -6.835998698274109 ], [ 109.095719809157785, -6.835955513693552 ] ] ] } },
{ "type": "Feature", "properties": { "OBJECTID_1": 2521, "OBJECTID": 37, "ID": 0, "TAHUN": 2025, "DATE": "2025-01-01", "NAMA_TITIK": "T02", "SHAPE_LENG": 202.95791283299999, "TRANSECTID": 2, "TRANSORDER": 2, "SHORELINEI": "2025-01-01", "BASELINEID": 1, "DISTANCE": 234.1, "INTERSECTX": 289739.986149, "INTERSECTY": 9243793.0683399905, "UNCERTAINT": 10, "NAMA_TITI2": "T02", "D_TAHUN": null, "LRR": -2.19, "SKOR_SHORE": 5, "RASTERVALU": 6.56471, "SKOR_SLOPE": 3, "RASTERVA_1": -1.78074, "SKOR_ELEV": 5, "GEOM_LAP": "Pasir_Halus", "SKOR_GEOM": 3, "KATEGORI": "Abrasi Tinggi", "GELOMBANG": 0.25286520228666398, "PASUT": 0.888, "SLR": 4.69, "SKOR_GEL": 2, "SKOR_PASUT": 2, "SKOR_SLR": 5, "CVI": 33.541019662499998, "KELAS_CVI": 2, "KELAS_CV_1": "Rendah", "LAHAN": "Pantai", "JENIS": "Natural", "SKOR_LAHAN": 2 }, "geometry": { "type": "MultiLineString", "coordinates": [ [ [ 109.097343420755081, -6.837554876601388 ], [ 109.096797994801165, -6.837077627068475 ], [ 109.096528571115527, -6.836797227470674 ], [ 109.096348020099569, -6.836609320253218 ], [ 109.096028446612948, -6.836276725694234 ] ] ] } }
]
}
