{
"type": "FeatureCollection",
"name": "DSAS",
"crs": { "type": "name", "properties": { "name": "urn:ogc:def:crs:OGC:1.3:CRS84" } },
"features": [
{ "type": "Feature", "properties": { "ID": 0, "TAHUN": 2025, "DATE": "2025-01-01", "JENIS_AKAB": "Buatan", "NAMA_TITIK": "T29", "KATEGORI": "Akresi Tinggi", "FID_1": 28, "LRR": 2.53, "LR2": 0.77, "LCI": 0.47, "LSE": 15.64, "EPR": 1.81, "EPRUNC": 0.38, "NSM": 66.79, "SCE": 118.27, "WLR": 2.53, "WR2": 0.77, "WCI": 0.47, "WSE": 1.56, "TCD": 6200.0, "KATEGORI_1": "Akresi Tinggi", "NAMA_TIT_1": "T29", "GEOM_IA": "Berbatu", "X": 109.14784837800001, "Y": -6.8477373120599996, "SKOR_SHORE": 1, "RASTERVALU": 4.47868, "SKOR_SLOPE": "3", "RASTERVA_1": -2.31378, "SKOR_ELEV": 5, "GEOM_LAP": "Pasir_Halus", "JENIS": "Buatan", "FOTO": "C:\\Kuliah\\TESIS\\Dokumentasi\\21april\\T29.jpg", "JENIS_PL": "Bangunan", "SKOR_GEOM": 3, "CVI": 3.35410196625, "KELAS_CVI": 2, "GABUNGAN": "Akresi Tinggi - Kelas 2" }, "geometry": { "type": "MultiLineString", "coordinates": [ [ [ 109.147870765922619, -6.847587922177105 ], [ 109.146062375600252, -6.847587924177912 ] ] ] } },
{ "type": "Feature", "properties": { "ID": 0, "TAHUN": 2025, "DATE": "2025-01-01", "JENIS_AKAB": "Natural", "NAMA_TITIK": "T02", "KATEGORI": "Abrasi Tinggi", "FID_1": 1, "LRR": -2.19, "LR2": 0.46, "LCI": 0.8, "LSE": 26.59, "EPR": -1.91, "EPRUNC": 0.38, "NSM": -70.81, "SCE": 167.28, "WLR": -2.19, "WR2": 0.46, "WCI": 0.8, "WSE": 2.66, "TCD": 200.0, "KATEGORI_1": "Abrasi Tinggi", "NAMA_TIT_1": "T02", "GEOM_IA": "Berlumpur", "X": 109.097350237, "Y": -6.8375450419100003, "SKOR_SHORE": 5, "RASTERVALU": 6.56471, "SKOR_SLOPE": "3", "RASTERVA_1": -1.78074, "SKOR_ELEV": 5, "GEOM_LAP": "Pasir_Halus", "JENIS": "Natural", "FOTO": "C:\\Kuliah\\TESIS\\Dokumentasi\\20 april\\T02.jpg", "JENIS_PL": "Pantai", "SKOR_GEOM": 3, "CVI": 7.5, "KELAS_CVI": 4, "GABUNGAN": "Abrasi Tinggi - Kelas 4" }, "geometry": { "type": "MultiLineString", "coordinates": [ [ [ 109.097342815219463, -6.837554344967867 ], [ 109.096797995180452, -6.837077627433695 ], [ 109.095928678797449, -6.836420685572175 ] ] ] } },
{ "type": "Feature", "properties": { "ID": 0, "TAHUN": 2025, "DATE": "2025-01-01", "JENIS_AKAB": "Natural", "NAMA_TITIK": "T03", "KATEGORI": "Abrasi Tinggi", "FID_1": 2, "LRR": -3.26, "LR2": 0.63, "LCI": 0.84, "LSE": 27.96, "EPR": -3.64, "EPRUNC": 0.38, "NSM": -134.79, "SCE": 202.25, "WLR": -3.26, "WR2": 0.63, "WCI": 0.84, "WSE": 2.8, "TCD": 400.0, "KATEGORI_1": "Abrasi Tinggi", "NAMA_TIT_1": "T03", "GEOM_IA": "Berlumpur", "X": 109.098658942, "Y": -6.8388322476700001, "SKOR_SHORE": 5, "RASTERVALU": 6.99672, "SKOR_SLOPE": "3", "RASTERVA_1": -1.58426, "SKOR_ELEV": 5, "GEOM_LAP": "Pasir_Halus", "JENIS": "Natural", "FOTO": "C:\\Kuliah\\TESIS\\Dokumentasi\\20 april\\T03.jpg", "JENIS_PL": "Pantai", "SKOR_GEOM": 3, "CVI": 7.5, "KELAS_CVI": 4, "GABUNGAN": "Abrasi Tinggi - Kelas 4" }, "geometry": { "type": "MultiLineString", "coordinates": [ [ [ 109.098658942347967, -6.838832247667066 ], [ 109.097342815219463, -6.837554344967867 ] ] ] } },
{ "type": "Feature", "properties": { "ID": 0, "TAHUN": 2025, "DATE": "2025-01-01", "JENIS_AKAB": "Natural", "NAMA_TITIK": "T01", "KATEGORI": "Abrasi Sedang", "FID_1": 0, "LRR": -0.96, "LR2": 0.14, "LCI": 0.82, "LSE": 25.45, "EPR": -0.15, "EPRUNC": 0.38, "NSM": -5.55, "SCE": 89.29, "WLR": -0.96, "WR2": 0.14, "WCI": 0.82, "WSE": 2.54, "TCD": 0.0, "KATEGORI_1": "Abrasi Sedang", "NAMA_TIT_1": "T01", "GEOM_IA": "Berlumpur", "X": 109.095928679, "Y": -6.8364206860300003, "SKOR_SHORE": 4, "RASTERVALU": 0.111227, "SKOR_SLOPE": "5", "RASTERVA_1": -2.91494, "SKOR_ELEV": 5, "GEOM_LAP": "Pasir_Halus", "JENIS": "Natural", "FOTO": "C:\\Kuliah\\TESIS\\Dokumentasi\\20 april\\T01.jpg", "JENIS_PL": "Pantai", "SKOR_GEOM": 3, "CVI": 8.6602540378399997, "KELAS_CVI": 4, "GABUNGAN": "Abrasi Sedang - Kelas 4" }, "geometry": { "type": "MultiLineString", "coordinates": [ [ [ 109.095928678797449, -6.836420685572175 ], [ 109.095576201357517, -6.836052620549349 ] ] ] } },
{ "type": "Feature", "properties": { "ID": 0, "TAHUN": 2025, "DATE": "2025-01-01", "JENIS_AKAB": "Natural", "NAMA_TITIK": "T04", "KATEGORI": "Abrasi Tinggi", "FID_1": 3, "LRR": -3.32, "LR2": 0.59, "LCI": 0.94, "LSE": 31.17, "EPR": -4.94, "EPRUNC": 0.38, "NSM": -182.73, "SCE": 242.7, "WLR": -3.32, "WR2": 0.59, "WCI": 0.94, "WSE": 3.12, "TCD": 600.0, "KATEGORI_1": "Abrasi Tinggi", "NAMA_TIT_1": "T04", "GEOM_IA": "Aluvial", "X": 109.10023286800001, "Y": -6.8397367554699997, "SKOR_SHORE": 5, "RASTERVALU": 6.89058, "SKOR_SLOPE": "3", "RASTERVA_1": -2.22393, "SKOR_ELEV": 5, "GEOM_LAP": "Pasir_Halus", "JENIS": "Natural", "FOTO": "C:\\Kuliah\\TESIS\\Dokumentasi\\20 april\\T04(2).jpg", "JENIS_PL": "Pantai", "SKOR_GEOM": 3, "CVI": 7.5, "KELAS_CVI": 4, "GABUNGAN": "Abrasi Tinggi - Kelas 4" }, "geometry": { "type": "MultiLineString", "coordinates": [ [ [ 109.100227418884387, -6.839757676037203 ], [ 109.098953951862228, -6.83896408953029 ], [ 109.098658942347967, -6.838832247667066 ] ] ] } },
{ "type": "Feature", "properties": { "ID": 0, "TAHUN": 2025, "DATE": "2025-01-01", "JENIS_AKAB": "Natural", "NAMA_TITIK": "T44", "KATEGORI": "Abrasi Tinggi", "FID_1": 42, "LRR": -2.33, "LR2": 0.5, "LCI": 0.79, "LSE": 26.21, "EPR": -5.51, "EPRUNC": 0.38, "NSM": -203.93, "SCE": 203.93, "WLR": -2.33, "WR2": 0.5, "WCI": 0.79, "WSE": 2.62, "TCD": 800.0, "KATEGORI_1": "Abrasi Tinggi", "NAMA_TIT_1": "T44", "GEOM_IA": "Aluvial", "X": 109.10137793200001, "Y": -6.84019684048, "SKOR_SHORE": 5, "RASTERVALU": 0.0133654, "SKOR_SLOPE": "5", "RASTERVA_1": -2.91714, "SKOR_ELEV": 5, "GEOM_LAP": "Aluvial", "JENIS": "Natural", "FOTO": "C:\\Kuliah\\TESIS\\Dokumentasi\\20 april\\T44.jpg", "JENIS_PL": "Muara", "SKOR_GEOM": 4, "CVI": 11.180339887500001, "KELAS_CVI": 5, "GABUNGAN": "Abrasi Tinggi - Kelas 5" }, "geometry": { "type": "MultiLineString", "coordinates": [ [ [ 109.101377931635028, -6.840196839572149 ], [ 109.100994729789122, -6.840071827020036 ], [ 109.100227418884387, -6.839757676037203 ] ] ] } },
{ "type": "Feature", "properties": { "ID": 0, "TAHUN": 2025, "DATE": "2025-01-01", "JENIS_AKAB": "Natural", "NAMA_TITIK": "T05", "KATEGORI": "Abrasi Sedang", "FID_1": 4, "LRR": -1.47, "LR2": 0.33, "LCI": 0.71, "LSE": 23.7, "EPR": -1.61, "EPRUNC": 1.0, "NSM": -59.7, "SCE": 137.96, "WLR": -4.18, "WR2": 0.53, "WCI": 1.34, "WSE": 3.5, "TCD": 1000.0, "KATEGORI_1": "Abrasi Sedang", "NAMA_TIT_1": "T05", "GEOM_IA": "Berlumpur", "X": 109.103446877, "Y": -6.8396785735899996, "SKOR_SHORE": 4, "RASTERVALU": 6.15341, "SKOR_SLOPE": "3", "RASTERVA_1": -2.46219, "SKOR_ELEV": 5, "GEOM_LAP": "Pasir_Halus", "JENIS": "Natural", "FOTO": "C:\\Kuliah\\TESIS\\Dokumentasi\\20 april\\T05(4).jpg", "JENIS_PL": "Pantai", "SKOR_GEOM": 3, "CVI": 6.7082039325, "KELAS_CVI": 3, "GABUNGAN": "Abrasi Sedang - Kelas 3" }, "geometry": { "type": "MultiLineString", "coordinates": [ [ [ 109.103446876780907, -6.839678574042448 ], [ 109.101377931635028, -6.840196839572217 ] ] ] } },
{ "type": "Feature", "properties": { "ID": 0, "TAHUN": 2025, "DATE": "2025-01-01", "JENIS_AKAB": "Natural", "NAMA_TITIK": "T06", "KATEGORI": "Abrasi Tinggi", "FID_1": 5, "LRR": -2.75, "LR2": 0.72, "LCI": 0.58, "LSE": 19.19, "EPR": -3.62, "EPRUNC": 0.38, "NSM": -133.98, "SCE": 153.96, "WLR": -2.75, "WR2": 0.72, "WCI": 0.58, "WSE": 1.92, "TCD": 1200.0, "KATEGORI_1": "Abrasi Tinggi", "NAMA_TIT_1": "T06", "GEOM_IA": "Berlumpur", "X": 109.1052524, "Y": -6.8409119731299999, "SKOR_SHORE": 5, "RASTERVALU": 4.22964, "SKOR_SLOPE": "3", "RASTERVA_1": -2.3357, "SKOR_ELEV": 5, "GEOM_LAP": "Pasir_Halus", "JENIS": "Buatan", "FOTO": "C:\\Kuliah\\TESIS\\Dokumentasi\\20 april\\T06.jpg", "JENIS_PL": "Pantai", "SKOR_GEOM": 3, "CVI": 7.5, "KELAS_CVI": 4, "GABUNGAN": "Abrasi Tinggi - Kelas 4" }, "geometry": { "type": "MultiLineString", "coordinates": [ [ [ 109.105252399610052, -6.840911973123624 ], [ 109.104295736213402, -6.840359444969903 ], [ 109.103446876780907, -6.839678574042448 ] ] ] } },
{ "type": "Feature", "properties": { "ID": 0, "TAHUN": 2025, "DATE": "2025-01-01", "JENIS_AKAB": "Natural", "NAMA_TITIK": "T07", "KATEGORI": "Abrasi Tinggi", "FID_1": 6, "LRR": -2.36, "LR2": 0.65, "LCI": 0.59, "LSE": 19.62, "EPR": -3.19, "EPRUNC": 0.38, "NSM": -118.04, "SCE": 145.35, "WLR": -2.36, "WR2": 0.65, "WCI": 0.59, "WSE": 1.96, "TCD": 1400.0, "KATEGORI_1": "Abrasi Tinggi", "NAMA_TIT_1": "T07", "GEOM_IA": "Aluvial", "X": 109.10679857300001, "Y": -6.8418785455500002, "SKOR_SHORE": 5, "RASTERVALU": 5.68255, "SKOR_SLOPE": "3", "RASTERVA_1": -2.10772, "SKOR_ELEV": 5, "GEOM_LAP": "Pasir_Halus", "JENIS": "Buatan", "FOTO": "C:\\Kuliah\\TESIS\\Dokumentasi\\20 april\\T07.jpg", "JENIS_PL": "Pantai", "SKOR_GEOM": 3, "CVI": 7.5, "KELAS_CVI": 4, "GABUNGAN": "Abrasi Tinggi - Kelas 4" }, "geometry": { "type": "MultiLineString", "coordinates": [ [ [ 109.106798572871142, -6.841878546002522 ], [ 109.105252399610052, -6.840911973123624 ] ] ] } },
{ "type": "Feature", "properties": { "ID": 0, "TAHUN": 2025, "DATE": "2025-01-01", "JENIS_AKAB": "Natural", "NAMA_TITIK": "T08", "KATEGORI": "Stabil", "FID_1": 7, "LRR": -0.36, "LR2": 0.02, "LCI": 0.84, "LSE": 27.92, "EPR": -1.95, "EPRUNC": 0.38, "NSM": -72.02, "SCE": 147.36, "WLR": -0.36, "WR2": 0.02, "WCI": 0.84, "WSE": 2.79, "TCD": 1600.0, "KATEGORI_1": "Stabil", "NAMA_TIT_1": "T08", "GEOM_IA": "Pasir_Kasar", "X": 109.108786409, "Y": -6.8418891963300004, "SKOR_SHORE": 3, "RASTERVALU": 7.29422, "SKOR_SLOPE": "3", "RASTERVA_1": -1.41285, "SKOR_ELEV": 5, "GEOM_LAP": "Bebatuan", "JENIS": "Buatan", "FOTO": "C:\\Kuliah\\TESIS\\Dokumentasi\\20 april\\T08(3).jpg", "JENIS_PL": "Pantai", "SKOR_GEOM": 1, "CVI": 3.35410196625, "KELAS_CVI": 2, "GABUNGAN": "Stabil - Kelas 2" }, "geometry": { "type": "MultiLineString", "coordinates": [ [ [ 109.108785978051728, -6.841887937180006 ], [ 109.108734227952155, -6.841905663265027 ], [ 109.107998142504655, -6.841951752729964 ], [ 109.106884338416037, -6.841692911246859 ], [ 109.106798572871142, -6.841878546002522 ] ] ] } },
{ "type": "Feature", "properties": { "ID": 0, "TAHUN": 2025, "DATE": "2025-01-01", "JENIS_AKAB": "Buatan", "NAMA_TITIK": "T10", "KATEGORI": "Abrasi Sedang", "FID_1": 9, "LRR": -1.2, "LR2": 0.32, "LCI": 0.59, "LSE": 19.69, "EPR": -2.01, "EPRUNC": 0.38, "NSM": -74.5, "SCE": 83.69, "WLR": -1.2, "WR2": 0.32, "WCI": 0.59, "WSE": 1.97, "TCD": 2000.0, "KATEGORI_1": "Abrasi Sedang", "NAMA_TIT_1": "T10", "GEOM_IA": "Berlumpur", "X": 109.112039749, "Y": -6.8434739321600002, "SKOR_SHORE": 4, "RASTERVALU": 6.23402, "SKOR_SLOPE": "3", "RASTERVA_1": -1.78507, "SKOR_ELEV": 5, "GEOM_LAP": "Pasir_Halus", "JENIS": "Buatan", "FOTO": "C:\\Kuliah\\TESIS\\Dokumentasi\\20 april\\T10.jpg", "JENIS_PL": "Pantai", "SKOR_GEOM": 3, "CVI": 6.7082039325, "KELAS_CVI": 3, "GABUNGAN": "Abrasi Sedang - Kelas 3" }, "geometry": { "type": "MultiLineString", "coordinates": [ [ [ 109.112039749210794, -6.84347393170537 ], [ 109.111048646547943, -6.842991128842451 ], [ 109.110462337257047, -6.842574945780814 ] ] ] } },
{ "type": "Feature", "properties": { "ID": 0, "TAHUN": 2025, "DATE": "2025-01-01", "JENIS_AKAB": "Buatan", "NAMA_TITIK": "T11", "KATEGORI": "Abrasi Sedang", "FID_1": 10, "LRR": -1.28, "LR2": 0.41, "LCI": 0.52, "LSE": 17.34, "EPR": -1.43, "EPRUNC": 0.38, "NSM": -52.98, "SCE": 83.09, "WLR": -1.28, "WR2": 0.41, "WCI": 0.52, "WSE": 1.73, "TCD": 2200.0, "KATEGORI_1": "Abrasi Sedang", "NAMA_TIT_1": "T11", "GEOM_IA": "Berlumpur", "X": 109.113489656, "Y": -6.84416778776, "SKOR_SHORE": 4, "RASTERVALU": 8.04452, "SKOR_SLOPE": "2", "RASTERVA_1": -1.92344, "SKOR_ELEV": 5, "GEOM_LAP": "Bebatuan", "JENIS": "Buatan", "FOTO": "C:\\Kuliah\\TESIS\\Dokumentasi\\20 april\\T11.jpg", "JENIS_PL": "Bangunan", "SKOR_GEOM": 1, "CVI": 3.16227766017, "KELAS_CVI": 2, "GABUNGAN": "Abrasi Sedang - Kelas 2" }, "geometry": { "type": "MultiLineString", "coordinates": [ [ [ 109.113489656248973, -6.844167787760559 ], [ 109.112039749210794, -6.84347393170537 ] ] ] } },
{ "type": "Feature", "properties": { "ID": 0, "TAHUN": 2025, "DATE": "2025-01-01", "JENIS_AKAB": "Buatan", "NAMA_TITIK": "T12", "KATEGORI": "Abrasi Sedang", "FID_1": 11, "LRR": -1.2, "LR2": 0.32, "LCI": 0.59, "LSE": 19.56, "EPR": -1.14, "EPRUNC": 0.38, "NSM": -42.35, "SCE": 105.41, "WLR": -1.2, "WR2": 0.32, "WCI": 0.59, "WSE": 1.96, "TCD": 2400.0, "KATEGORI_1": "Abrasi Sedang", "NAMA_TIT_1": "T12", "GEOM_IA": "Berlumpur", "X": 109.115127735, "Y": -6.8449500086099997, "SKOR_SHORE": 4, "RASTERVALU": 8.1766, "SKOR_SLOPE": "2", "RASTERVA_1": -2.15891, "SKOR_ELEV": 5, "GEOM_LAP": "Pasir_Halus", "JENIS": "Buatan", "FOTO": "C:\\Kuliah\\TESIS\\Dokumentasi\\20 april\\T12(2).jpg", "JENIS_PL": "Bangunan", "SKOR_GEOM": 3, "CVI": 5.4772255750500003, "KELAS_CVI": 3, "GABUNGAN": "Abrasi Sedang - Kelas 3" }, "geometry": { "type": "MultiLineString", "coordinates": [ [ [ 109.115127734754353, -6.844950008606982 ], [ 109.113787275826994, -6.844384783238964 ], [ 109.113489656248973, -6.844167787760559 ] ] ] } },
{ "type": "Feature", "properties": { "ID": 0, "TAHUN": 2025, "DATE": "2025-01-01", "JENIS_AKAB": "Buatan", "NAMA_TITIK": "T30", "KATEGORI": "Akresi Tinggi", "FID_1": 29, "LRR": 2.25, "LR2": 0.6, "LCI": 0.62, "LSE": 20.6, "EPR": 1.26, "EPRUNC": 0.38, "NSM": 46.61, "SCE": 128.44, "WLR": 2.25, "WR2": 0.6, "WCI": 0.62, "WSE": 2.06, "TCD": 6600.0, "KATEGORI_1": "Akresi Tinggi", "NAMA_TIT_1": "T30", "GEOM_IA": "Berbatu", "X": 109.15117479600001, "Y": -6.8475217718900003, "SKOR_SHORE": 1, "RASTERVALU": 6.79316, "SKOR_SLOPE": "3", "RASTERVA_1": -2.16183, "SKOR_ELEV": 5, "GEOM_LAP": "Pasir_Kasar", "JENIS": "Buatan", "FOTO": "C:\\Kuliah\\TESIS\\Dokumentasi\\21april\\T30.jpg", "JENIS_PL": "Pantai", "SKOR_GEOM": 2, "CVI": 2.7386127875300001, "KELAS_CVI": 1, "GABUNGAN": "Akresi Tinggi - Kelas 1" }, "geometry": { "type": "MultiLineString", "coordinates": [ [ [ 109.151060373455849, -6.847486726909248 ], [ 109.149346910000872, -6.847603886999924 ] ] ] } },
{ "type": "Feature", "properties": { "ID": 0, "TAHUN": 2025, "DATE": "2025-01-01", "JENIS_AKAB": "Buatan", "NAMA_TITIK": "T31", "KATEGORI": "Akresi Sedang", "FID_1": 30, "LRR": 1.12, "LR2": 0.28, "LCI": 0.61, "LSE": 20.21, "EPR": 1.24, "EPRUNC": 0.38, "NSM": 45.75, "SCE": 109.91, "WLR": 1.12, "WR2": 0.28, "WCI": 0.61, "WSE": 2.02, "TCD": 6800.0, "KATEGORI_1": "Akresi Sedang", "NAMA_TIT_1": "T31", "GEOM_IA": "Pasir_Kasar", "X": 109.15299080600001, "Y": -6.84745519278, "SKOR_SHORE": 2, "RASTERVALU": 12.9492, "SKOR_SLOPE": "1", "RASTERVA_1": -1.06007, "SKOR_ELEV": 5, "GEOM_LAP": "Pasir_Kasar", "JENIS": "Buatan", "FOTO": "C:\\Kuliah\\TESIS\\Dokumentasi\\21april\\T31.jpg", "JENIS_PL": "Pantai", "SKOR_GEOM": 2, "CVI": 2.2360679775, "KELAS_CVI": 1, "GABUNGAN": "Akresi Sedang - Kelas 1" }, "geometry": { "type": "MultiLineString", "coordinates": [ [ [ 109.152918406000751, -6.847454889999924 ], [ 109.151060373455877, -6.847486726909197 ] ] ] } },
{ "type": "Feature", "properties": { "ID": 0, "TAHUN": 2025, "DATE": "2025-01-01", "JENIS_AKAB": null, "NAMA_TITIK": "T32", "KATEGORI": "Stabil", "FID_1": 31, "LRR": 0.28, "LR2": 0.02, "LCI": 0.62, "LSE": 20.77, "EPR": 1.25, "EPRUNC": 0.38, "NSM": 46.16, "SCE": 104.92, "WLR": 0.28, "WR2": 0.02, "WCI": 0.62, "WSE": 2.08, "TCD": 7000.0, "KATEGORI_1": "Stabil", "NAMA_TIT_1": "T32", "GEOM_IA": "Pasir_Kasar", "X": 109.154751639, "Y": -6.8469683393, "SKOR_SHORE": 3, "RASTERVALU": 14.1756, "SKOR_SLOPE": "1", "RASTERVA_1": -0.866263, "SKOR_ELEV": 5, "GEOM_LAP": "Pasir_Kasar", "JENIS": "Buatan", "FOTO": "C:\\Kuliah\\TESIS\\Dokumentasi\\21april\\T32(2).jpg", "JENIS_PL": "Pantai", "SKOR_GEOM": 2, "CVI": 2.7386127875300001, "KELAS_CVI": 1, "GABUNGAN": "Stabil - Kelas 1" }, "geometry": { "type": "MultiLineString", "coordinates": [ [ [ 109.154696460000793, -6.846976509999862 ], [ 109.152918406000751, -6.847454889999924 ] ] ] } },
{ "type": "Feature", "properties": { "ID": 0, "TAHUN": 2025, "DATE": "2025-01-01", "JENIS_AKAB": null, "NAMA_TITIK": "T33", "KATEGORI": "Stabil", "FID_1": 32, "LRR": -0.19, "LR2": 0.01, "LCI": 0.63, "LSE": 21.04, "EPR": 0.14, "EPRUNC": 0.38, "NSM": 5.27, "SCE": 121.48, "WLR": -0.19, "WR2": 0.01, "WCI": 0.63, "WSE": 2.1, "TCD": 7200.0, "KATEGORI_1": "Stabil", "NAMA_TIT_1": "T33", "GEOM_IA": "Pasir_Kasar", "X": 109.15586771700001, "Y": -6.8464929220100004, "SKOR_SHORE": 3, "RASTERVALU": 12.0224, "SKOR_SLOPE": "1", "RASTERVA_1": -2.23983, "SKOR_ELEV": 5, "GEOM_LAP": "Pasir_Kasar", "JENIS": "Buatan", "FOTO": "C:\\Kuliah\\TESIS\\Dokumentasi\\21april\\T33(1).jpg", "JENIS_PL": "Pantai", "SKOR_GEOM": 2, "CVI": 2.7386127875300001, "KELAS_CVI": 1, "GABUNGAN": "Stabil - Kelas 1" }, "geometry": { "type": "MultiLineString", "coordinates": [ [ [ 109.155808312637859, -6.846552323183476 ], [ 109.154696460000793, -6.846976509999862 ] ] ] } },
{ "type": "Feature", "properties": { "ID": 0, "TAHUN": 2025, "DATE": "2025-01-01", "JENIS_AKAB": null, "NAMA_TITIK": "T34", "KATEGORI": "Stabil", "FID_1": 33, "LRR": 0.47, "LR2": 0.05, "LCI": 0.73, "LSE": 24.26, "EPR": 0.06, "EPRUNC": 0.38, "NSM": 2.09, "SCE": 115.86, "WLR": 0.47, "WR2": 0.05, "WCI": 0.73, "WSE": 2.43, "TCD": 7400.0, "KATEGORI_1": "Stabil", "NAMA_TIT_1": "T34", "GEOM_IA": "Pasir_Kasar", "X": 109.157270266, "Y": -6.8454864544599996, "SKOR_SHORE": 3, "RASTERVALU": 0.126396, "SKOR_SLOPE": "5", "RASTERVA_1": -2.93443, "SKOR_ELEV": 5, "GEOM_LAP": "Pasir_Kasar", "JENIS": "Buatan", "FOTO": "C:\\Kuliah\\TESIS\\Dokumentasi\\21april\\T34(1).jpg", "JENIS_PL": "Pantai", "SKOR_GEOM": 2, "CVI": 6.1237243569600004, "KELAS_CVI": 3, "GABUNGAN": "Stabil - Kelas 3" }, "geometry": { "type": "MultiLineString", "coordinates": [ [ [ 109.157231604027416, -6.845525265100333 ], [ 109.15662579310262, -6.846240443331552 ], [ 109.155808312637959, -6.846552323183444 ] ] ] } },
{ "type": "Feature", "properties": { "ID": 0, "TAHUN": 2025, "DATE": "2025-01-01", "JENIS_AKAB": null, "NAMA_TITIK": "T35", "KATEGORI": "Akresi Sedang", "FID_1": 34, "LRR": 1.06, "LR2": 0.16, "LCI": 0.81, "LSE": 26.97, "EPR": 1.28, "EPRUNC": 0.38, "NSM": 47.54, "SCE": 129.84, "WLR": 1.06, "WR2": 0.16, "WCI": 0.81, "WSE": 2.7, "TCD": 7600.0, "KATEGORI_1": "Akresi Sedang", "NAMA_TIT_1": "T35", "GEOM_IA": "Pasir_Kasar", "X": 109.1588002, "Y": -6.8444914218, "SKOR_SHORE": 2, "RASTERVALU": 0.000213398, "SKOR_SLOPE": "5", "RASTERVA_1": -2.93913, "SKOR_ELEV": 5, "GEOM_LAP": "Pasir_Kasar", "JENIS": "Buatan", "FOTO": "C:\\Kuliah\\TESIS\\Dokumentasi\\21april\\T35(1).jpg", "JENIS_PL": "Bangunan", "SKOR_GEOM": 2, "CVI": 5.0, "KELAS_CVI": 2, "GABUNGAN": "Akresi Sedang - Kelas 2" }, "geometry": { "type": "MultiLineString", "coordinates": [ [ [ 109.158813535104571, -6.844481269369339 ], [ 109.157482244605418, -6.845400816366119 ], [ 109.157262281000698, -6.845489049999895 ], [ 109.15723160402743, -6.845525265100249 ] ] ] } },
{ "type": "Feature", "properties": { "ID": 0, "TAHUN": 2025, "DATE": "2025-01-01", "JENIS_AKAB": null, "NAMA_TITIK": "T36", "KATEGORI": "Abrasi Tinggi", "FID_1": 35, "LRR": -4.93, "LR2": 0.65, "LCI": 1.23, "LSE": 41.14, "EPR": -3.93, "EPRUNC": 0.38, "NSM": -145.35, "SCE": 211.98, "WLR": -4.93, "WR2": 0.65, "WCI": 1.23, "WSE": 4.11, "TCD": 7800.0, "KATEGORI_1": "Abrasi Tinggi", "NAMA_TIT_1": "T36", "GEOM_IA": "Aluvial", "X": 109.16294351400001, "Y": -6.8453158406499997, "SKOR_SHORE": 5, "RASTERVALU": 0.000337772, "SKOR_SLOPE": "5", "RASTERVA_1": -2.94072, "SKOR_ELEV": 5, "GEOM_LAP": "Pasir_Halus", "JENIS": "Natural", "FOTO": "C:\\Kuliah\\TESIS\\Dokumentasi\\21april\\T36(5).jpg", "JENIS_PL": "Pantai", "SKOR_GEOM": 3, "CVI": 9.6824583655200005, "KELAS_CVI": 5, "GABUNGAN": "Abrasi Tinggi - Kelas 5" }, "geometry": { "type": "MultiLineString", "coordinates": [ [ [ 109.163052127000867, -6.84518349399995 ], [ 109.162338091452654, -6.845162464990657 ], [ 109.16007847878771, -6.84410098773832 ], [ 109.158816756922718, -6.844479043999892 ], [ 109.158813535104542, -6.844481269369322 ] ] ] } },
{ "type": "Feature", "properties": { "ID": 0, "TAHUN": 2025, "DATE": "2025-01-01", "JENIS_AKAB": null, "NAMA_TITIK": "T37", "KATEGORI": "Abrasi Tinggi", "FID_1": 36, "LRR": -4.54, "LR2": 0.71, "LCI": 0.97, "LSE": 32.37, "EPR": -4.66, "EPRUNC": 0.38, "NSM": -172.56, "SCE": 215.55, "WLR": -4.54, "WR2": 0.71, "WCI": 0.97, "WSE": 3.24, "TCD": 8000.0, "KATEGORI_1": "Abrasi Tinggi", "NAMA_TIT_1": "T37", "GEOM_IA": "Aluvial", "X": 109.164242728, "Y": -6.8466046676000003, "SKOR_SHORE": 5, "RASTERVALU": 0.000345365, "SKOR_SLOPE": "5", "RASTERVA_1": -2.94128, "SKOR_ELEV": 5, "GEOM_LAP": "Pasir_Halus", "JENIS": "Natural", "FOTO": "C:\\Kuliah\\TESIS\\Dokumentasi\\21april\\T37(1).jpg", "JENIS_PL": "Pantai", "SKOR_GEOM": 3, "CVI": 9.6824583655200005, "KELAS_CVI": 5, "GABUNGAN": "Abrasi Tinggi - Kelas 5" }, "geometry": { "type": "MultiLineString", "coordinates": [ [ [ 109.16458454120415, -6.846180232704516 ], [ 109.164385661675922, -6.846072548345699 ], [ 109.163052127000867, -6.84518349399995 ] ] ] } },
{ "type": "Feature", "properties": { "ID": 0, "TAHUN": 2025, "DATE": "2025-01-01", "JENIS_AKAB": null, "NAMA_TITIK": "T38", "KATEGORI": "Abrasi Tinggi", "FID_1": 37, "LRR": -4.04, "LR2": 0.72, "LCI": 0.85, "LSE": 28.18, "EPR": -4.97, "EPRUNC": 0.38, "NSM": -183.83, "SCE": 218.43, "WLR": -4.04, "WR2": 0.72, "WCI": 0.85, "WSE": 2.82, "TCD": 8200.0, "KATEGORI_1": "Abrasi Tinggi", "NAMA_TIT_1": "T38", "GEOM_IA": "Aluvial", "X": 109.165790887, "Y": -6.8472489208500003, "SKOR_SHORE": 5, "RASTERVALU": 0.000344178, "SKOR_SLOPE": "5", "RASTERVA_1": -2.94192, "SKOR_ELEV": 5, "GEOM_LAP": "Pasir_Halus", "JENIS": "Natural", "FOTO": "C:\\Kuliah\\TESIS\\Dokumentasi\\21april\\T38.jpg", "JENIS_PL": "Pantai", "SKOR_GEOM": 3, "CVI": 9.6824583655200005, "KELAS_CVI": 5, "GABUNGAN": "Abrasi Tinggi - Kelas 5" }, "geometry": { "type": "MultiLineString", "coordinates": [ [ [ 109.165846441000795, -6.847250080999963 ], [ 109.164584541204206, -6.8461802327045 ] ] ] } },
{ "type": "Feature", "properties": { "ID": 0, "TAHUN": 2025, "DATE": "2025-01-01", "JENIS_AKAB": null, "NAMA_TITIK": "T39", "KATEGORI": "Abrasi Tinggi", "FID_1": 38, "LRR": -3.6, "LR2": 0.69, "LCI": 0.81, "LSE": 27.1, "EPR": -5.28, "EPRUNC": 0.38, "NSM": -195.38, "SCE": 195.38, "WLR": -3.6, "WR2": 0.69, "WCI": 0.81, "WSE": 2.71, "TCD": 8400.0, "KATEGORI_1": "Abrasi Tinggi", "NAMA_TIT_1": "T39", "GEOM_IA": "Aluvial", "X": 109.16715931900001, "Y": -6.8484769117299997, "SKOR_SHORE": 5, "RASTERVALU": 0.000338703, "SKOR_SLOPE": "5", "RASTERVA_1": -2.9425, "SKOR_ELEV": 5, "GEOM_LAP": "Pasir_Halus", "JENIS": "Natural", "FOTO": "C:\\Kuliah\\TESIS\\Dokumentasi\\21april\\T39.jpg", "JENIS_PL": "Pantai", "SKOR_GEOM": 3, "CVI": 9.6824583655200005, "KELAS_CVI": 5, "GABUNGAN": "Abrasi Tinggi - Kelas 5" }, "geometry": { "type": "MultiLineString", "coordinates": [ [ [ 109.16721741300087, -6.848336922999911 ], [ 109.165846441000795, -6.847250080999963 ] ] ] } },
{ "type": "Feature", "properties": { "ID": 0, "TAHUN": 2025, "DATE": "2025-01-01", "JENIS_AKAB": null, "NAMA_TITIK": "T40", "KATEGORI": "Abrasi Tinggi", "FID_1": 39, "LRR": -2.39, "LR2": 0.6, "LCI": 0.66, "LSE": 21.92, "EPR": -3.87, "EPRUNC": 0.38, "NSM": -143.34, "SCE": 157.86, "WLR": -2.39, "WR2": 0.6, "WCI": 0.66, "WSE": 2.19, "TCD": 8600.0, "KATEGORI_1": "Abrasi Tinggi", "NAMA_TIT_1": "T40", "GEOM_IA": "Aluvial", "X": 109.168822224, "Y": -6.8492262865200004, "SKOR_SHORE": 5, "RASTERVALU": 1.31742, "SKOR_SLOPE": "5", "RASTERVA_1": -2.87668, "SKOR_ELEV": 5, "GEOM_LAP": "Tambak", "JENIS": "Buatan", "FOTO": "C:\\Kuliah\\TESIS\\Dokumentasi\\21april\\T41T42.jpg", "JENIS_PL": "Tambak", "SKOR_GEOM": 5, "CVI": 12.5, "KELAS_CVI": 5, "GABUNGAN": "Abrasi Tinggi - Kelas 5" }, "geometry": { "type": "MultiLineString", "coordinates": [ [ [ 109.16897387300088, -6.849085479999923 ], [ 109.16721741300087, -6.84833097434732 ] ] ] } },
{ "type": "Feature", "properties": { "ID": 0, "TAHUN": 2025, "DATE": "2025-01-01", "JENIS_AKAB": "Buatan", "NAMA_TITIK": "T13", "KATEGORI": "Akresi Sedang", "FID_1": 12, "LRR": -1.17, "LR2": 0.32, "LCI": 0.58, "LSE": 19.33, "EPR": -0.93, "EPRUNC": 0.38, "NSM": -34.4, "SCE": 87.13, "WLR": -1.17, "WR2": 0.32, "WCI": 0.58, "WSE": 1.93, "TCD": 2600.0, "KATEGORI_1": "Abrasi Sedang", "NAMA_TIT_1": "T13", "GEOM_IA": "Berlumpur", "X": 109.11673271399999, "Y": -6.8458194168600004, "SKOR_SHORE": 4, "RASTERVALU": 11.5898, "SKOR_SLOPE": "2", "RASTERVA_1": -2.34707, "SKOR_ELEV": 5, "GEOM_LAP": "Pasir_Kasar", "JENIS": "Buatan", "FOTO": "C:\\Kuliah\\TESIS\\Dokumentasi\\22 april\\T13.jpg", "JENIS_PL": "Bangunan", "SKOR_GEOM": 2, "CVI": 4.472135955, "KELAS_CVI": 2, "GABUNGAN": "Akresi Sedang - Kelas 2" }, "geometry": { "type": "MultiLineString", "coordinates": [ [ [ 109.116745638772358, -6.845739874869162 ], [ 109.115127734754353, -6.844950008606982 ] ] ] } },
{ "type": "Feature", "properties": { "ID": 0, "TAHUN": 2025, "DATE": "2025-01-01", "JENIS_AKAB": "Buatan", "NAMA_TITIK": "T14", "KATEGORI": "Abrasi Tinggi", "FID_1": 13, "LRR": -2.36, "LR2": 0.55, "LCI": 0.72, "LSE": 24.13, "EPR": -0.99, "EPRUNC": 0.38, "NSM": -36.59, "SCE": 126.18, "WLR": -2.36, "WR2": 0.55, "WCI": 0.72, "WSE": 2.41, "TCD": 2800.0, "KATEGORI_1": "Abrasi Tinggi", "NAMA_TIT_1": "T14", "GEOM_IA": "Berlumpur", "X": 109.118360177, "Y": -6.8466296230900001, "SKOR_SHORE": 5, "RASTERVALU": 6.05891, "SKOR_SLOPE": "3", "RASTERVA_1": -1.87579, "SKOR_ELEV": 5, "GEOM_LAP": "Bebatuan", "JENIS": "Buatan", "FOTO": "C:\\Kuliah\\TESIS\\Dokumentasi\\22 april\\T14.jpg", "JENIS_PL": "Bangunan", "SKOR_GEOM": 1, "CVI": 4.3301270189199998, "KELAS_CVI": 2, "GABUNGAN": "Abrasi Tinggi - Kelas 2" }, "geometry": { "type": "MultiLineString", "coordinates": [ [ [ 109.118359920276816, -6.846527972607859 ], [ 109.116745638772358, -6.845739874869162 ] ] ] } },
{ "type": "Feature", "properties": { "ID": 0, "TAHUN": 2025, "DATE": "2025-01-01", "JENIS_AKAB": "Buatan", "NAMA_TITIK": "T15", "KATEGORI": "Abrasi Tinggi", "FID_1": 14, "LRR": -2.82, "LR2": 0.73, "LCI": 0.58, "LSE": 19.24, "EPR": -2.29, "EPRUNC": 0.38, "NSM": -84.59, "SCE": 121.21, "WLR": -2.82, "WR2": 0.73, "WCI": 0.58, "WSE": 1.92, "TCD": 3000.0, "KATEGORI_1": "Abrasi Tinggi", "NAMA_TIT_1": "T15", "GEOM_IA": "Berlumpur", "X": 109.120093693, "Y": -6.84716054054, "SKOR_SHORE": 5, "RASTERVALU": 4.65041, "SKOR_SLOPE": "3", "RASTERVA_1": -2.53471, "SKOR_ELEV": 5, "GEOM_LAP": "Pasir_Kasar", "JENIS": "Buatan", "FOTO": "C:\\Kuliah\\TESIS\\Dokumentasi\\22 april\\T15(1).jpg", "JENIS_PL": "Bangunan", "SKOR_GEOM": 2, "CVI": 6.1237243569600004, "KELAS_CVI": 3, "GABUNGAN": "Abrasi Tinggi - Kelas 3" }, "geometry": { "type": "MultiLineString", "coordinates": [ [ [ 109.120074096279879, -6.847212145931898 ], [ 109.118840017030081, -6.846762357480978 ], [ 109.118359920276731, -6.846527972607858 ] ] ] } },
{ "type": "Feature", "properties": { "ID": 0, "TAHUN": 2025, "DATE": "2025-01-01", "JENIS_AKAB": "Buatan", "NAMA_TITIK": "T16", "KATEGORI": "Abrasi Tinggi", "FID_1": 15, "LRR": -2.75, "LR2": 0.74, "LCI": 0.55, "LSE": 18.28, "EPR": -2.74, "EPRUNC": 0.38, "NSM": -101.53, "SCE": 120.75, "WLR": -2.75, "WR2": 0.74, "WCI": 0.55, "WSE": 1.83, "TCD": 3200.0, "KATEGORI_1": "Abrasi Tinggi", "NAMA_TIT_1": "T16", "GEOM_IA": "Berlumpur", "X": 109.121324336, "Y": -6.8475635529599996, "SKOR_SHORE": 5, "RASTERVALU": 3.73856, "SKOR_SLOPE": "4", "RASTERVA_1": -2.71604, "SKOR_ELEV": 5, "GEOM_LAP": "Pasir_Kasar", "JENIS": "Buatan", "FOTO": "C:\\Kuliah\\TESIS\\Dokumentasi\\22 april\\T16(1).jpg", "JENIS_PL": "Bangunan", "SKOR_GEOM": 2, "CVI": 7.0710678118699999, "KELAS_CVI": 4, "GABUNGAN": "Abrasi Tinggi - Kelas 4" }, "geometry": { "type": "MultiLineString", "coordinates": [ [ [ 109.121294623588398, -6.847586151782217 ], [ 109.120901221248531, -6.847489618246183 ], [ 109.120074096279879, -6.847212145931898 ] ] ] } },
{ "type": "Feature", "properties": { "ID": 0, "TAHUN": 2025, "DATE": "2025-01-01", "JENIS_AKAB": "Buatan", "NAMA_TITIK": "T17", "KATEGORI": "Abrasi Tinggi", "FID_1": 16, "LRR": -2.26, "LR2": 0.64, "LCI": 0.57, "LSE": 18.99, "EPR": -2.05, "EPRUNC": 0.38, "NSM": -75.79, "SCE": 121.75, "WLR": -2.26, "WR2": 0.64, "WCI": 0.57, "WSE": 1.9, "TCD": 3400.0, "KATEGORI_1": "Abrasi Tinggi", "NAMA_TIT_1": "T17", "GEOM_IA": "Berlumpur", "X": 109.12307627200001, "Y": -6.8480926320300002, "SKOR_SHORE": 5, "RASTERVALU": 2.99225, "SKOR_SLOPE": "4", "RASTERVA_1": -2.74952, "SKOR_ELEV": 5, "GEOM_LAP": "Pasir_Kasar", "JENIS": "Buatan", "FOTO": "C:\\Kuliah\\TESIS\\Dokumentasi\\22 april\\T17(2).jpg", "JENIS_PL": "Bangunan", "SKOR_GEOM": 2, "CVI": 7.0710678118699999, "KELAS_CVI": 4, "GABUNGAN": "Abrasi Tinggi - Kelas 4" }, "geometry": { "type": "MultiLineString", "coordinates": [ [ [ 109.12306361368698, -6.848020228685516 ], [ 109.121294623588383, -6.847586151782183 ] ] ] } },
{ "type": "Feature", "properties": { "ID": 0, "TAHUN": 2025, "DATE": "2025-01-01", "JENIS_AKAB": "Buatan", "NAMA_TITIK": "T18", "KATEGORI": "Abrasi Sedang", "FID_1": 17, "LRR": -1.23, "LR2": 0.33, "LCI": 0.59, "LSE": 19.82, "EPR": -1.34, "EPRUNC": 0.38, "NSM": -49.46, "SCE": 129.96, "WLR": -1.23, "WR2": 0.33, "WCI": 0.59, "WSE": 1.98, "TCD": 3600.0, "KATEGORI_1": "Abrasi Sedang", "NAMA_TIT_1": "T18", "GEOM_IA": "Berlumpur", "X": 109.12486795300001, "Y": -6.8483438236999996, "SKOR_SHORE": 4, "RASTERVALU": 12.3825, "SKOR_SLOPE": "1", "RASTERVA_1": -1.92558, "SKOR_ELEV": 5, "GEOM_LAP": "Pasir_Kasar", "JENIS": "Buatan", "FOTO": "C:\\Kuliah\\TESIS\\Dokumentasi\\22 april\\T18.jpg", "JENIS_PL": "Bangunan", "SKOR_GEOM": 2, "CVI": 3.16227766017, "KELAS_CVI": 2, "GABUNGAN": "Abrasi Sedang - Kelas 2" }, "geometry": { "type": "MultiLineString", "coordinates": [ [ [ 109.124867945526447, -6.848343870559841 ], [ 109.12306361368698, -6.848020228685516 ] ] ] } },
{ "type": "Feature", "properties": { "ID": 0, "TAHUN": 2025, "DATE": "2025-01-01", "JENIS_AKAB": "Natural", "NAMA_TITIK": "T51", "KATEGORI": "Akresi Sedang", "FID_1": 44, "LRR": 0.72, "LR2": 0.19, "LCI": 0.51, "LSE": 16.84, "EPR": 1.65, "EPRUNC": 0.38, "NSM": 61.18, "SCE": 99.73, "WLR": 0.72, "WR2": 0.19, "WCI": 0.51, "WSE": 1.68, "TCD": 3800.0, "KATEGORI_1": "Akresi Sedang", "NAMA_TIT_1": "T51", "GEOM_IA": "Sungai", "X": 109.12668465500001, "Y": -6.8484200659300001, "SKOR_SHORE": 2, "RASTERVALU": 2.59289, "SKOR_SLOPE": "4", "RASTERVA_1": -2.65623, "SKOR_ELEV": 5, "GEOM_LAP": "Aluvial", "JENIS": "Natural", "FOTO": "C:\\Kuliah\\TESIS\\Dokumentasi\\22 april\\T51.jpg", "JENIS_PL": "Muara", "SKOR_GEOM": 4, "CVI": 6.32455532034, "KELAS_CVI": 3, "GABUNGAN": "Akresi Sedang - Kelas 3" }, "geometry": { "type": "MultiLineString", "coordinates": [ [ [ 109.126734990654541, -6.848068074349539 ], [ 109.126416811860111, -6.848279599300143 ], [ 109.125945678580891, -6.848408090194525 ], [ 109.125541170209942, -6.848403331272483 ], [ 109.124867945526447, -6.848343870559841 ] ] ] } },
{ "type": "Feature", "properties": { "ID": 0, "TAHUN": 2025, "DATE": "2025-01-01", "JENIS_AKAB": "Buatan", "NAMA_TITIK": "T19", "KATEGORI": "Stabil", "FID_1": 18, "LRR": 0.16, "LR2": 0.0, "LCI": 1.14, "LSE": 37.84, "EPR": 1.51, "EPRUNC": 0.38, "NSM": 55.88, "SCE": 138.66, "WLR": 0.16, "WR2": 0.0, "WCI": 1.14, "WSE": 3.78, "TCD": 4000.0, "KATEGORI_1": "Stabil", "NAMA_TIT_1": "T19", "GEOM_IA": "Berbatu", "X": 109.128267712, "Y": -6.8493429262300003, "SKOR_SHORE": 3, "RASTERVALU": 7.39251, "SKOR_SLOPE": "3", "RASTERVA_1": -0.816907, "SKOR_ELEV": 5, "GEOM_LAP": "Bebatuan", "JENIS": "Buatan", "FOTO": "C:\\Kuliah\\TESIS\\Dokumentasi\\22 april\\T19.jpg", "JENIS_PL": "Pelabuhan", "SKOR_GEOM": 1, "CVI": 3.35410196625, "KELAS_CVI": 2, "GABUNGAN": "Stabil - Kelas 2" }, "geometry": { "type": "MultiLineString", "coordinates": [ [ [ 109.128231716613797, -6.849344537356737 ], [ 109.128053881032258, -6.849324182681737 ], [ 109.12807767564226, -6.849074339276041 ], [ 109.128125264862334, -6.848229630619059 ], [ 109.126734990654541, -6.848068074349539 ] ] ] } },
{ "type": "Feature", "properties": { "ID": 0, "TAHUN": 2025, "DATE": "2025-01-01", "JENIS_AKAB": "Buatan", "NAMA_TITIK": "T20", "KATEGORI": "Abrasi Sedang", "FID_1": 19, "LRR": -1.24, "LR2": 0.42, "LCI": 0.49, "LSE": 16.34, "EPR": -0.53, "EPRUNC": 0.38, "NSM": -19.49, "SCE": 96.0, "WLR": -1.24, "WR2": 0.42, "WCI": 0.49, "WSE": 1.63, "TCD": 4200.0, "KATEGORI_1": "Abrasi Sedang", "NAMA_TIT_1": "T20", "GEOM_IA": "Berbatu", "X": 109.130005978, "Y": -6.8497189922099997, "SKOR_SHORE": 4, "RASTERVALU": 9.16314, "SKOR_SLOPE": "2", "RASTERVA_1": -0.713828, "SKOR_ELEV": 5, "GEOM_LAP": "Bebatuan", "JENIS": "Buatan", "FOTO": "C:\\Kuliah\\TESIS\\Dokumentasi\\22 april\\T20(1).jpg", "JENIS_PL": "Pelabuhan", "SKOR_GEOM": 1, "CVI": 3.16227766017, "KELAS_CVI": 2, "GABUNGAN": "Abrasi Sedang - Kelas 2" }, "geometry": { "type": "MultiLineString", "coordinates": [ [ [ 109.130028833666913, -6.849550231477322 ], [ 109.128231716613797, -6.849344537356737 ] ] ] } },
{ "type": "Feature", "properties": { "ID": 0, "TAHUN": 2025, "DATE": "2025-01-01", "JENIS_AKAB": "Buatan", "NAMA_TITIK": "T54", "KATEGORI": "Abrasi Sedang", "FID_1": 45, "LRR": -0.88, "LR2": 0.39, "LCI": 0.37, "LSE": 12.32, "EPR": -0.55, "EPRUNC": 0.38, "NSM": -20.45, "SCE": 66.09, "WLR": -0.88, "WR2": 0.39, "WCI": 0.37, "WSE": 1.23, "TCD": 4400.0, "KATEGORI_1": "Abrasi Sedang", "NAMA_TIT_1": "T54", "GEOM_IA": "Berlumpur", "X": 109.13182557099999, "Y": -6.8491659778100002, "SKOR_SHORE": 4, "RASTERVALU": 2.66467, "SKOR_SLOPE": "4", "RASTERVA_1": -2.773, "SKOR_ELEV": 5, "GEOM_LAP": "Aluvial", "JENIS": "Natural", "FOTO": "C:\\Kuliah\\TESIS\\Dokumentasi\\22 april\\T54.jpg", "JENIS_PL": "Muara", "SKOR_GEOM": 4, "CVI": 8.94427191, "KELAS_CVI": 4, "GABUNGAN": "Abrasi Sedang - Kelas 4" }, "geometry": { "type": "MultiLineString", "coordinates": [ [ [ 109.131787165902992, -6.849071392116906 ], [ 109.131502414039161, -6.848821942907061 ], [ 109.131014624532952, -6.848911172694891 ], [ 109.130672577013399, -6.848905224042307 ], [ 109.130088320192144, -6.849121928496161 ], [ 109.130028833666913, -6.849550231477322 ] ] ] } },
{ "type": "Feature", "properties": { "ID": 0, "TAHUN": 2025, "DATE": "2025-01-01", "JENIS_AKAB": "Buatan", "NAMA_TITIK": "T21", "KATEGORI": "Abrasi Tinggi", "FID_1": 20, "LRR": -2.12, "LR2": 0.73, "LCI": 0.43, "LSE": 14.44, "EPR": -1.12, "EPRUNC": 0.38, "NSM": -41.45, "SCE": 99.8, "WLR": -2.12, "WR2": 0.73, "WCI": 0.43, "WSE": 1.44, "TCD": 4600.0, "KATEGORI_1": "Abrasi Tinggi", "NAMA_TIT_1": "T21", "GEOM_IA": "Aluvial", "X": 109.133632706, "Y": -6.8492974815399998, "SKOR_SHORE": 5, "RASTERVALU": 5.1158, "SKOR_SLOPE": "3", "RASTERVA_1": -1.60024, "SKOR_ELEV": 5, "GEOM_LAP": "Tambak", "JENIS": "Buatan", "FOTO": "C:\\Kuliah\\TESIS\\Dokumentasi\\22 april\\T21.jpg", "JENIS_PL": "Tambak", "SKOR_GEOM": 5, "CVI": 9.6824583655200005, "KELAS_CVI": 5, "GABUNGAN": "Abrasi Tinggi - Kelas 5" }, "geometry": { "type": "MultiLineString", "coordinates": [ [ [ 109.133607178688109, -6.849050712650883 ], [ 109.132711449477469, -6.849352050865885 ], [ 109.131787165902992, -6.849071392116906 ] ] ] } },
{ "type": "Feature", "properties": { "ID": 0, "TAHUN": 2025, "DATE": "2025-01-01", "JENIS_AKAB": "Buatan", "NAMA_TITIK": "T22", "KATEGORI": "Abrasi Sedang", "FID_1": 21, "LRR": -0.72, "LR2": 0.07, "LCI": 0.86, "LSE": 28.6, "EPR": 0.93, "EPRUNC": 0.38, "NSM": 34.46, "SCE": 160.98, "WLR": -0.72, "WR2": 0.07, "WCI": 0.86, "WSE": 2.86, "TCD": 4800.0, "KATEGORI_1": "Abrasi Sedang", "NAMA_TIT_1": "T22", "GEOM_IA": "Berlumpur", "X": 109.135448811, "Y": -6.84893607306, "SKOR_SHORE": 4, "RASTERVALU": 5.00015, "SKOR_SLOPE": "3", "RASTERVA_1": -1.91193, "SKOR_ELEV": 5, "GEOM_LAP": "Tambak", "JENIS": "Buatan", "FOTO": "C:\\Kuliah\\TESIS\\Dokumentasi\\22 april\\T22.jpg", "JENIS_PL": "Tambak", "SKOR_GEOM": 5, "CVI": 8.6602540378399997, "KELAS_CVI": 4, "GABUNGAN": "Abrasi Sedang - Kelas 4" }, "geometry": { "type": "MultiLineString", "coordinates": [ [ [ 109.135578779000795, -6.848828309999863 ], [ 109.133607178688109, -6.849050712650849 ] ] ] } },
{ "type": "Feature", "properties": { "ID": 0, "TAHUN": 2025, "DATE": "2025-01-01", "JENIS_AKAB": "Buatan", "NAMA_TITIK": "T23", "KATEGORI": "Abrasi Sedang", "FID_1": 22, "LRR": -0.67, "LR2": 0.03, "LCI": 1.35, "LSE": 44.95, "EPR": 0.1, "EPRUNC": 0.38, "NSM": 3.8, "SCE": 215.67, "WLR": -0.67, "WR2": 0.03, "WCI": 1.35, "WSE": 4.5, "TCD": 5000.0, "KATEGORI_1": "Abrasi Sedang", "NAMA_TIT_1": "T23", "GEOM_IA": "Berlumpur", "X": 109.136364961, "Y": -6.8485424222300004, "SKOR_SHORE": 4, "RASTERVALU": 0.000934705, "SKOR_SLOPE": "5", "RASTERVA_1": -2.93062, "SKOR_ELEV": 5, "GEOM_LAP": "Tambak", "JENIS": "Buatan", "FOTO": "C:\\Kuliah\\TESIS\\Dokumentasi\\22 april\\T23.jpg", "JENIS_PL": "Tambak", "SKOR_GEOM": 5, "CVI": 11.180339887500001, "KELAS_CVI": 5, "GABUNGAN": "Abrasi Sedang - Kelas 5" }, "geometry": { "type": "MultiLineString", "coordinates": [ [ [ 109.136423912000836, -6.848436252999865 ], [ 109.135578779000795, -6.848828309999813 ] ] ] } },
{ "type": "Feature", "properties": { "ID": 0, "TAHUN": 2025, "DATE": "2025-01-01", "JENIS_AKAB": "Buatan", "NAMA_TITIK": "T24", "KATEGORI": "Akresi Tinggi", "FID_1": 23, "LRR": 2.42, "LR2": 0.49, "LCI": 0.84, "LSE": 27.98, "EPR": 3.24, "EPRUNC": 0.38, "NSM": 119.9, "SCE": 180.11, "WLR": 2.42, "WR2": 0.49, "WCI": 0.84, "WSE": 2.8, "TCD": 5200.0, "KATEGORI_1": "Akresi Tinggi", "NAMA_TIT_1": "T24", "GEOM_IA": "Pasir_Kasar", "X": 109.137727735, "Y": -6.8470883522300001, "SKOR_SHORE": 1, "RASTERVALU": 9.9777, "SKOR_SLOPE": "2", "RASTERVA_1": -0.50439, "SKOR_ELEV": 5, "GEOM_LAP": "Bebatuan", "JENIS": "Buatan", "FOTO": "C:\\Kuliah\\TESIS\\Dokumentasi\\22 april\\T24.jpg", "JENIS_PL": "Pelabuhan", "SKOR_GEOM": 1, "CVI": 1.58113883008, "KELAS_CVI": 1, "GABUNGAN": "Akresi Tinggi - Kelas 1" }, "geometry": { "type": "MultiLineString", "coordinates": [ [ [ 109.137430610139887, -6.84641006773415 ], [ 109.136787791851901, -6.846263934226823 ], [ 109.136934821576261, -6.847751569305949 ], [ 109.137053795278433, -6.847891213464317 ], [ 109.136423912000836, -6.848436252999865 ] ] ] } },
{ "type": "Feature", "properties": { "ID": 0, "TAHUN": 2025, "DATE": "2025-01-01", "JENIS_AKAB": "Buatan", "NAMA_TITIK": "T25", "KATEGORI": "Akresi Sedang", "FID_1": 24, "LRR": 1.85, "LR2": 0.63, "LCI": 0.48, "LSE": 15.91, "EPR": 2.16, "EPRUNC": 0.38, "NSM": 79.78, "SCE": 103.54, "WLR": 1.85, "WR2": 0.63, "WCI": 0.48, "WSE": 1.59, "TCD": 5400.0, "KATEGORI_1": "Akresi Sedang", "NAMA_TIT_1": "T25", "GEOM_IA": "Pasir_Kasar", "X": 109.14065717, "Y": -6.84749050937, "SKOR_SHORE": 2, "RASTERVALU": 0.0256981, "SKOR_SLOPE": "5", "RASTERVA_1": -2.93193, "SKOR_ELEV": 5, "GEOM_LAP": "Pasir_Halus", "JENIS": "Buatan", "FOTO": "C:\\Kuliah\\TESIS\\Dokumentasi\\21april\\T25.jpg", "JENIS_PL": "Pantai", "SKOR_GEOM": 3, "CVI": 6.1237243569600004, "KELAS_CVI": 3, "GABUNGAN": "Akresi Sedang - Kelas 3" }, "geometry": { "type": "MultiLineString", "coordinates": [ [ [ 109.140669431099042, -6.847146357094844 ], [ 109.137430610139887, -6.84641006773415 ] ] ] } },
{ "type": "Feature", "properties": { "ID": 0, "TAHUN": 2025, "DATE": "2025-01-01", "JENIS_AKAB": "Buatan", "NAMA_TITIK": "T26", "KATEGORI": "Akresi Sedang", "FID_1": 25, "LRR": 1.65, "LR2": 0.71, "LCI": 0.36, "LSE": 11.92, "EPR": 2.07, "EPRUNC": 0.38, "NSM": 76.66, "SCE": 81.32, "WLR": 1.65, "WR2": 0.71, "WCI": 0.36, "WSE": 1.19, "TCD": 5600.0, "KATEGORI_1": "Akresi Sedang", "NAMA_TIT_1": "T26", "GEOM_IA": "Pasir_Kasar", "X": 109.142459045, "Y": -6.8478206358599998, "SKOR_SHORE": 2, "RASTERVALU": 0.30887, "SKOR_SLOPE": "5", "RASTERVA_1": -2.92483, "SKOR_ELEV": 5, "GEOM_LAP": "Pasir_Halus", "JENIS": "Buatan", "FOTO": "C:\\Kuliah\\TESIS\\Dokumentasi\\21april\\T26.jpg", "JENIS_PL": "Pantai", "SKOR_GEOM": 3, "CVI": 6.1237243569600004, "KELAS_CVI": 3, "GABUNGAN": "Akresi Sedang - Kelas 3" }, "geometry": { "type": "MultiLineString", "coordinates": [ [ [ 109.142545762543207, -6.847467538521976 ], [ 109.141877520542451, -6.847420995123794 ], [ 109.140669431099042, -6.847146357094844 ] ] ] } },
{ "type": "Feature", "properties": { "ID": 0, "TAHUN": 2025, "DATE": "2025-01-01", "JENIS_AKAB": "Buatan", "NAMA_TITIK": "T27", "KATEGORI": "Akresi Tinggi", "FID_1": 26, "LRR": 2.13, "LR2": 0.8, "LCI": 0.36, "LSE": 11.85, "EPR": 2.37, "EPRUNC": 0.38, "NSM": 87.79, "SCE": 94.68, "WLR": 2.13, "WR2": 0.8, "WCI": 0.36, "WSE": 1.18, "TCD": 5800.0, "KATEGORI_1": "Akresi Tinggi", "NAMA_TIT_1": "T27", "GEOM_IA": "Pasir_Kasar", "X": 109.14426909399999, "Y": -6.8478080231399998, "SKOR_SHORE": 1, "RASTERVALU": 7.84006, "SKOR_SLOPE": "3", "RASTERVA_1": -2.49416, "SKOR_ELEV": 5, "GEOM_LAP": "Bebatuan", "JENIS": "Buatan", "FOTO": "C:\\Kuliah\\TESIS\\Dokumentasi\\21april\\T27(1).jpg", "JENIS_PL": "Bangunan", "SKOR_GEOM": 1, "CVI": 1.9364916731, "KELAS_CVI": 1, "GABUNGAN": "Akresi Tinggi - Kelas 1" }, "geometry": { "type": "MultiLineString", "coordinates": [ [ [ 109.144192316877451, -6.847582221876271 ], [ 109.142545762543179, -6.847467538522027 ] ] ] } },
{ "type": "Feature", "properties": { "ID": 0, "TAHUN": 2025, "DATE": "2025-01-01", "JENIS_AKAB": "Buatan", "NAMA_TITIK": "T28", "KATEGORI": "Akresi Tinggi", "FID_1": 27, "LRR": 2.46, "LR2": 0.8, "LCI": 0.41, "LSE": 13.83, "EPR": 2.09, "EPRUNC": 0.38, "NSM": 77.17, "SCE": 100.99, "WLR": 2.46, "WR2": 0.8, "WCI": 0.41, "WSE": 1.38, "TCD": 6000.0, "KATEGORI_1": "Akresi Tinggi", "NAMA_TIT_1": "T28", "GEOM_IA": null, "X": 109.14608065100001, "Y": -6.8477321056399996, "SKOR_SHORE": 1, "RASTERVALU": 0.146582, "SKOR_SLOPE": "5", "RASTERVA_1": -2.93183, "SKOR_ELEV": 5, "GEOM_LAP": "Bebatuan", "JENIS": "Buatan", "FOTO": "C:\\Kuliah\\TESIS\\Dokumentasi\\21april\\T28.jpg", "JENIS_PL": "Bangunan", "SKOR_GEOM": 1, "CVI": 2.5, "KELAS_CVI": 1, "GABUNGAN": "Akresi Tinggi - Kelas 1" }, "geometry": { "type": "MultiLineString", "coordinates": [ [ [ 109.146062375600252, -6.847587924177912 ], [ 109.144274215485225, -6.847587926156332 ], [ 109.144192316877451, -6.847582221876271 ] ] ] } },
{ "type": "Feature", "properties": { "ID": 0, "TAHUN": 2025, "DATE": "2025-01-01", "JENIS_AKAB": "Buatan", "NAMA_TITIK": "T45", "KATEGORI": "Akresi Tinggi", "FID_1": 43, "LRR": 2.7, "LR2": 0.67, "LCI": 0.64, "LSE": 21.44, "EPR": 1.45, "EPRUNC": 0.38, "NSM": 53.55, "SCE": 136.46, "WLR": 2.7, "WR2": 0.67, "WCI": 0.64, "WSE": 2.14, "TCD": 6400.0, "KATEGORI_1": "Akresi Tinggi", "NAMA_TIT_1": "T45", "GEOM_IA": "Berbatu", "X": 109.149363497, "Y": -6.8476242221600003, "SKOR_SHORE": 1, "RASTERVALU": 4.16291, "SKOR_SLOPE": "3", "RASTERVA_1": -2.83483, "SKOR_ELEV": 5, "GEOM_LAP": "Aluvial", "JENIS": "Buatan", "FOTO": "C:\\Kuliah\\TESIS\\Dokumentasi\\21april\\T45.jpg", "JENIS_PL": "Muara", "SKOR_GEOM": 4, "CVI": 3.8729833462099998, "KELAS_CVI": 2, "GABUNGAN": "Akresi Tinggi - Kelas 2" }, "geometry": { "type": "MultiLineString", "coordinates": [ [ [ 109.149346910000872, -6.847603886999924 ], [ 109.148157496099429, -6.847587921859876 ], [ 109.147870765922619, -6.847587922177105 ] ] ] } },
{ "type": "Feature", "properties": { "ID": 0, "TAHUN": 2025, "DATE": "2025-01-01", "JENIS_AKAB": "Natural", "NAMA_TITIK": "T41", "KATEGORI": "Abrasi Tinggi", "FID_1": 40, "LRR": -2.12, "LR2": 0.58, "LCI": 0.61, "LSE": 20.27, "EPR": -3.24, "EPRUNC": 0.38, "NSM": -119.96, "SCE": 132.22, "WLR": -2.12, "WR2": 0.58, "WCI": 0.61, "WSE": 2.03, "TCD": 8800.0, "KATEGORI_1": "Abrasi Tinggi", "NAMA_TIT_1": "T41", "GEOM_IA": "Aluvial", "X": 109.17029628900001, "Y": -6.8502826005199999, "SKOR_SHORE": 5, "RASTERVALU": 9.05717, "SKOR_SLOPE": "2", "RASTERVA_1": -1.62402, "SKOR_ELEV": 5, "GEOM_LAP": "Tambak", "JENIS": "Buatan", "FOTO": "C:\\Kuliah\\TESIS\\Dokumentasi\\21april\\T41T42.jpg", "JENIS_PL": "Tambak", "SKOR_GEOM": 5, "CVI": 7.9056941504199996, "KELAS_CVI": 4, "GABUNGAN": "Abrasi Tinggi - Kelas 4" }, "geometry": { "type": "MultiLineString", "coordinates": [ [ [ 109.170369974955051, -6.85015878888093 ], [ 109.16897387300088, -6.849085479999923 ] ] ] } },
{ "type": "Feature", "properties": { "ID": 0, "TAHUN": 2025, "DATE": "2025-01-01", "JENIS_AKAB": "Natural", "NAMA_TITIK": "T42", "KATEGORI": "Abrasi Tinggi", "FID_1": 41, "LRR": -1.48, "LR2": 0.46, "LCI": 0.72, "LSE": 20.45, "EPR": -2.12, "EPRUNC": 0.38, "NSM": -78.45, "SCE": 86.65, "WLR": -1.48, "WR2": 0.46, "WCI": 0.72, "WSE": 2.04, "TCD": 9000.0, "KATEGORI_1": "Abrasi Sedang", "NAMA_TIT_1": "T42", "GEOM_IA": "Aluvial", "X": 109.171836824, "Y": -6.8513654966599997, "SKOR_SHORE": 4, "RASTERVALU": 10.6361, "SKOR_SLOPE": "2", "RASTERVA_1": -1.41562, "SKOR_ELEV": 5, "GEOM_LAP": "Tambak", "JENIS": "Natural", "FOTO": "C:\\Kuliah\\TESIS\\Dokumentasi\\21april\\T41T42.jpg", "JENIS_PL": "Tambak", "SKOR_GEOM": 5, "CVI": 7.0710678118699999, "KELAS_CVI": 4, "GABUNGAN": "Abrasi Tinggi - Kelas 4" }, "geometry": { "type": "MultiLineString", "coordinates": [ [ [ 109.172219176575737, -6.851580436144098 ], [ 109.170369974955122, -6.85015878888093 ] ] ] } },
{ "type": "Feature", "properties": { "ID": 0, "TAHUN": 2025, "DATE": "2025-01-01", "JENIS_AKAB": "Natural", "NAMA_TITIK": "T09", "KATEGORI": "Stabil", "FID_1": 8, "LRR": -1.13, "LR2": 0.18, "LCI": 0.82, "LSE": 27.43, "EPR": -2.41, "EPRUNC": 0.38, "NSM": -89.24, "SCE": 121.9, "WLR": -1.13, "WR2": 0.18, "WCI": 0.82, "WSE": 2.74, "TCD": 1800.0, "KATEGORI_1": "Abrasi Sedang", "NAMA_TIT_1": "T09", "GEOM_IA": "Berlumpur", "X": 109.110462337, "Y": -6.8425749462300001, "SKOR_SHORE": 4, "RASTERVALU": 2.4778, "SKOR_SLOPE": "4", "RASTERVA_1": -2.67262, "SKOR_ELEV": 5, "GEOM_LAP": "Pasir_Halus", "JENIS": "Buatan", "FOTO": "C:\\Kuliah\\TESIS\\Dokumentasi\\20 april\\T09.jpg", "JENIS_PL": "Bangunan", "SKOR_GEOM": 3, "CVI": 7.7459666924099997, "KELAS_CVI": 4, "GABUNGAN": "Stabil - Kelas 4" }, "geometry": { "type": "MultiLineString", "coordinates": [ [ [ 109.110462337257047, -6.842574945780814 ], [ 109.10992554095327, -6.842296326228783 ], [ 109.109339801498493, -6.841698234714036 ], [ 109.108785978051728, -6.841887937180006 ] ] ] } }
]
}
