{
"type": "FeatureCollection",
"name": "GARIS_RF_2035",
"crs": { "type": "name", "properties": { "name": "urn:ogc:def:crs:OGC:1.3:CRS84" } },
"features": [
{ "type": "Feature", "properties": { "Id": 0, "SEGMENT": "T01-T02", "TR_AWAL": "T01", "TR_AKHIR": "T02", "ID_AWAL": 1, "ID_AKHIR": 2, "TAHUN": 2035, "JENIS": "NATURAL" }, "geometry": { "type": "MultiLineString", "coordinates": [ [ [ 109.095962839655996, -6.836371395289858 ], [ 109.097227783219338, -6.837721737412221 ] ] ] } },
{ "type": "Feature", "properties": { "Id": 0, "SEGMENT": "T02-T03", "TR_AWAL": "T02", "TR_AKHIR": "T03", "ID_AWAL": 2, "ID_AKHIR": 3, "TAHUN": 2035, "JENIS": "NATURAL" }, "geometry": { "type": "MultiLineString", "coordinates": [ [ [ 109.097227783219338, -6.837721737412221 ], [ 109.0985512611025, -6.838987625775454 ] ] ] } },
{ "type": "Feature", "properties": { "Id": 0, "SEGMENT": "T03-T04", "TR_AWAL": "T03", "TR_AKHIR": "T04", "ID_AWAL": 3, "ID_AKHIR": 4, "TAHUN": 2035, "JENIS": "NATURAL" }, "geometry": { "type": "MultiLineString", "coordinates": [ [ [ 109.0985512611025, -6.838987625775454 ], [ 109.100057029416163, -6.839990484902898 ] ] ] } },
{ "type": "Feature", "properties": { "Id": 0, "SEGMENT": "T04-T44", "TR_AWAL": "T04", "TR_AKHIR": "T44", "ID_AWAL": 4, "ID_AKHIR": 5, "TAHUN": 2035, "JENIS": "NATURAL" }, "geometry": { "type": "MultiLineString", "coordinates": [ [ [ 109.100057029416163, -6.839990484902898 ], [ 109.101287361449522, -6.840476886507603 ] ] ] } },
{ "type": "Feature", "properties": { "Id": 0, "SEGMENT": "T44-T05", "TR_AWAL": "T44", "TR_AKHIR": "T05", "ID_AWAL": 5, "ID_AKHIR": 6, "TAHUN": 2035, "JENIS": "NATURAL" }, "geometry": { "type": "MultiLineString", "coordinates": [ [ [ 109.101287361449522, -6.840476886507603 ], [ 109.103074089822442, -6.840831249602553 ] ] ] } },
{ "type": "Feature", "properties": { "Id": 0, "SEGMENT": "T05-T06", "TR_AWAL": "T05", "TR_AKHIR": "T06", "ID_AWAL": 6, "ID_AKHIR": 7, "TAHUN": 2035, "JENIS": "BUATAN" }, "geometry": { "type": "MultiLineString", "coordinates": [ [ [ 109.103074089822442, -6.840831249602553 ], [ 109.105033992203431, -6.841384688417619 ] ] ] } },
{ "type": "Feature", "properties": { "Id": 0, "SEGMENT": "T06-T07", "TR_AWAL": "T06", "TR_AKHIR": "T07", "ID_AWAL": 7, "ID_AKHIR": 8, "TAHUN": 2035, "JENIS": "BUATAN" }, "geometry": { "type": "MultiLineString", "coordinates": [ [ [ 109.105033992203431, -6.841384688417619 ], [ 109.106815061586687, -6.841842859461513 ] ] ] } },
{ "type": "Feature", "properties": { "Id": 0, "SEGMENT": "T07-T08", "TR_AWAL": "T07", "TR_AKHIR": "T08", "ID_AWAL": 8, "ID_AKHIR": 9, "TAHUN": 2035, "JENIS": "BUATAN" }, "geometry": { "type": "MultiLineString", "coordinates": [ [ [ 109.106815061586687, -6.841842859461513 ], [ 109.10877564209801, -6.841912501957553 ] ] ] } },
{ "type": "Feature", "properties": { "Id": 0, "SEGMENT": "T08-T09", "TR_AWAL": "T08", "TR_AKHIR": "T09", "ID_AWAL": 9, "ID_AKHIR": 10, "TAHUN": 2035, "JENIS": "BUATAN" }, "geometry": { "type": "MultiLineString", "coordinates": [ [ [ 109.10877564209801, -6.841912501957553 ], [ 109.110283768745248, -6.842961442252952 ] ] ] } },
{ "type": "Feature", "properties": { "Id": 0, "SEGMENT": "T09-T10", "TR_AWAL": "T09", "TR_AKHIR": "T10", "ID_AWAL": 10, "ID_AKHIR": 11, "TAHUN": 2035, "JENIS": "BUATAN" }, "geometry": { "type": "MultiLineString", "coordinates": [ [ [ 109.110283768745248, -6.842961442252952 ], [ 109.111899477421971, -6.843777542224994 ] ] ] } },
{ "type": "Feature", "properties": { "Id": 0, "SEGMENT": "T10-T11", "TR_AWAL": "T10", "TR_AKHIR": "T11", "ID_AWAL": 11, "ID_AKHIR": 12, "TAHUN": 2035, "JENIS": "BUATAN" }, "geometry": { "type": "MultiLineString", "coordinates": [ [ [ 109.111899477421971, -6.843777542224994 ], [ 109.113421369065918, -6.844347625548481 ] ] ] } },
{ "type": "Feature", "properties": { "Id": 0, "SEGMENT": "T11-T12", "TR_AWAL": "T11", "TR_AKHIR": "T12", "ID_AWAL": 12, "ID_AKHIR": 13, "TAHUN": 2035, "JENIS": "BUATAN" }, "geometry": { "type": "MultiLineString", "coordinates": [ [ [ 109.113421369065918, -6.844347625548481 ], [ 109.115072531678663, -6.845095391849989 ] ] ] } },
{ "type": "Feature", "properties": { "Id": 0, "SEGMENT": "T12-T13", "TR_AWAL": "T12", "TR_AKHIR": "T13", "ID_AWAL": 13, "ID_AKHIR": 14, "TAHUN": 2035, "JENIS": "BUATAN" }, "geometry": { "type": "MultiLineString", "coordinates": [ [ [ 109.115072531678663, -6.845095391849989 ], [ 109.116713156218864, -6.845870923426299 ] ] ] } },
{ "type": "Feature", "properties": { "Id": 0, "SEGMENT": "T13-T14", "TR_AWAL": "T13", "TR_AKHIR": "T14", "ID_AWAL": 14, "ID_AKHIR": 15, "TAHUN": 2035, "JENIS": "BUATAN" }, "geometry": { "type": "MultiLineString", "coordinates": [ [ [ 109.116713156218864, -6.845870923426299 ], [ 109.118324013168859, -6.846724863532335 ] ] ] } },
{ "type": "Feature", "properties": { "Id": 0, "SEGMENT": "T14-T15", "TR_AWAL": "T14", "TR_AKHIR": "T15", "ID_AWAL": 15, "ID_AKHIR": 16, "TAHUN": 2035, "JENIS": "BUATAN" }, "geometry": { "type": "MultiLineString", "coordinates": [ [ [ 109.118324013168859, -6.846724863532335 ], [ 109.119914671835318, -6.847632011994123 ] ] ] } },
{ "type": "Feature", "properties": { "Id": 0, "SEGMENT": "T15-T16", "TR_AWAL": "T15", "TR_AKHIR": "T16", "ID_AWAL": 16, "ID_AKHIR": 17, "TAHUN": 2035, "JENIS": "BUATAN" }, "geometry": { "type": "MultiLineString", "coordinates": [ [ [ 109.119914671835318, -6.847632011994123 ], [ 109.121239674446926, -6.848155533873548 ] ] ] } },
{ "type": "Feature", "properties": { "Id": 0, "SEGMENT": "T16-T17", "TR_AWAL": "T16", "TR_AKHIR": "T17", "ID_AWAL": 17, "ID_AKHIR": 18, "TAHUN": 2035, "JENIS": "BUATAN" }, "geometry": { "type": "MultiLineString", "coordinates": [ [ [ 109.121239674446926, -6.848155533873548 ], [ 109.123034057169434, -6.848387818997553 ] ] ] } },
{ "type": "Feature", "properties": { "Id": 0, "SEGMENT": "T17-T18", "TR_AWAL": "T17", "TR_AKHIR": "T18", "ID_AWAL": 18, "ID_AKHIR": 19, "TAHUN": 2035, "JENIS": "BUATAN" }, "geometry": { "type": "MultiLineString", "coordinates": [ [ [ 109.123034057169434, -6.848387818997553 ], [ 109.124837929295111, -6.848553767229546 ] ] ] } },
{ "type": "Feature", "properties": { "Id": 0, "SEGMENT": "T18-T51", "TR_AWAL": "T18", "TR_AKHIR": "T51", "ID_AWAL": 19, "ID_AKHIR": 20, "TAHUN": 2035, "JENIS": "NATURAL" }, "geometry": { "type": "MultiLineString", "coordinates": [ [ [ 109.124837929295111, -6.848553767229546 ], [ 109.126756257256901, -6.847919365868811 ] ] ] } },
{ "type": "Feature", "properties": { "Id": 0, "SEGMENT": "T51-T19", "TR_AWAL": "T51", "TR_AKHIR": "T19", "ID_AWAL": 20, "ID_AKHIR": 21, "TAHUN": 2035, "JENIS": "BUATAN" }, "geometry": { "type": "MultiLineString", "coordinates": [ [ [ 109.126756257256901, -6.847919365868811 ], [ 109.128343378119169, -6.848155470400451 ] ] ] } },
{ "type": "Feature", "properties": { "Id": 0, "SEGMENT": "T19-T20", "TR_AWAL": "T19", "TR_AKHIR": "T20", "ID_AWAL": 21, "ID_AKHIR": 22, "TAHUN": 2035, "JENIS": "BUATAN" }, "geometry": { "type": "MultiLineString", "coordinates": [ [ [ 109.128343378119169, -6.848155470400451 ], [ 109.13002015917192, -6.848940012348985 ] ] ] } },
{ "type": "Feature", "properties": { "Id": 0, "SEGMENT": "T20-T54", "TR_AWAL": "T20", "TR_AKHIR": "T54", "ID_AWAL": 22, "ID_AKHIR": 23, "TAHUN": 2035, "JENIS": "BUATAN" }, "geometry": { "type": "MultiLineString", "coordinates": [ [ [ 109.13002015917192, -6.848940012348985 ], [ 109.131830150006266, -6.848914423252412 ] ] ] } },
{ "type": "Feature", "properties": { "Id": 0, "SEGMENT": "T54-T21", "TR_AWAL": "T54", "TR_AKHIR": "T21", "ID_AWAL": 23, "ID_AKHIR": 24, "TAHUN": 2035, "JENIS": "BUATAN" }, "geometry": { "type": "MultiLineString", "coordinates": [ [ [ 109.131830150006266, -6.848914423252412 ], [ 109.133634233665845, -6.849213537713362 ] ] ] } },
{ "type": "Feature", "properties": { "Id": 0, "SEGMENT": "T21-T22", "TR_AWAL": "T21", "TR_AKHIR": "T22", "ID_AWAL": 24, "ID_AKHIR": 25, "TAHUN": 2035, "JENIS": "BUATAN" }, "geometry": { "type": "MultiLineString", "coordinates": [ [ [ 109.133634233665845, -6.849213537713362 ], [ 109.135456767809416, -6.848498739014625 ] ] ] } },
{ "type": "Feature", "properties": { "Id": 0, "SEGMENT": "T22-T23", "TR_AWAL": "T22", "TR_AKHIR": "T23", "ID_AWAL": 25, "ID_AKHIR": 26, "TAHUN": 2035, "JENIS": "BUATAN" }, "geometry": { "type": "MultiLineString", "coordinates": [ [ [ 109.135456767809416, -6.848498739014625 ], [ 109.1362372182097, -6.848227160391194 ] ] ] } },
{ "type": "Feature", "properties": { "Id": 0, "SEGMENT": "T23-T24", "TR_AWAL": "T23", "TR_AKHIR": "T24", "ID_AWAL": 26, "ID_AKHIR": 27, "TAHUN": 2035, "JENIS": "BUATAN" }, "geometry": { "type": "MultiLineString", "coordinates": [ [ [ 109.1362372182097, -6.848227160391194 ], [ 109.137364497554543, -6.846222223624088 ] ] ] } },
{ "type": "Feature", "properties": { "Id": 0, "SEGMENT": "T24-T25", "TR_AWAL": "T24", "TR_AKHIR": "T25", "ID_AWAL": 27, "ID_AKHIR": 28, "TAHUN": 2035, "JENIS": "BUATAN" }, "geometry": { "type": "MultiLineString", "coordinates": [ [ [ 109.137364497554543, -6.846222223624088 ], [ 109.140663572130904, -6.846985223423743 ] ] ] } },
{ "type": "Feature", "properties": { "Id": 0, "SEGMENT": "T25-T26", "TR_AWAL": "T25", "TR_AKHIR": "T26", "ID_AWAL": 28, "ID_AKHIR": 29, "TAHUN": 2035, "JENIS": "BUATAN" }, "geometry": { "type": "MultiLineString", "coordinates": [ [ [ 109.140663572130904, -6.846985223423743 ], [ 109.142473846483497, -6.847317621015094 ] ] ] } },
{ "type": "Feature", "properties": { "Id": 0, "SEGMENT": "T26-T27", "TR_AWAL": "T26", "TR_AKHIR": "T27", "ID_AWAL": 29, "ID_AKHIR": 30, "TAHUN": 2035, "JENIS": "BUATAN" }, "geometry": { "type": "MultiLineString", "coordinates": [ [ [ 109.142473846483497, -6.847317621015094 ], [ 109.144277181537745, -6.847438770759323 ] ] ] } },
{ "type": "Feature", "properties": { "Id": 0, "SEGMENT": "T27-T28", "TR_AWAL": "T27", "TR_AKHIR": "T28", "ID_AWAL": 30, "ID_AKHIR": 31, "TAHUN": 2035, "JENIS": "BUATAN" }, "geometry": { "type": "MultiLineString", "coordinates": [ [ [ 109.144277181537745, -6.847438770759323 ], [ 109.146091450077336, -6.847378417467142 ] ] ] } },
{ "type": "Feature", "properties": { "Id": 0, "SEGMENT": "T28-T29", "TR_AWAL": "T28", "TR_AKHIR": "T29", "ID_AWAL": 31, "ID_AKHIR": 32, "TAHUN": 2035, "JENIS": "BUATAN" }, "geometry": { "type": "MultiLineString", "coordinates": [ [ [ 109.146091450077336, -6.847378417467142 ], [ 109.147836182068147, -6.847384269344055 ] ] ] } },
{ "type": "Feature", "properties": { "Id": 0, "SEGMENT": "T29-T45", "TR_AWAL": "T29", "TR_AKHIR": "T45", "ID_AWAL": 32, "ID_AKHIR": 33, "TAHUN": 2035, "JENIS": "BUATAN" }, "geometry": { "type": "MultiLineString", "coordinates": [ [ [ 109.147836182068147, -6.847384269344055 ], [ 109.149321349761365, -6.847303178864438 ] ] ] } },
{ "type": "Feature", "properties": { "Id": 0, "SEGMENT": "T45-T30", "TR_AWAL": "T45", "TR_AKHIR": "T30", "ID_AWAL": 33, "ID_AKHIR": 34, "TAHUN": 2035, "JENIS": "BUATAN" }, "geometry": { "type": "MultiLineString", "coordinates": [ [ [ 109.149321349761365, -6.847303178864438 ], [ 109.151128760613915, -6.847263726441346 ] ] ] } },
{ "type": "Feature", "properties": { "Id": 0, "SEGMENT": "T30-T31", "TR_AWAL": "T30", "TR_AKHIR": "T31", "ID_AWAL": 34, "ID_AKHIR": 35, "TAHUN": 2035, "JENIS": "BUATAN" }, "geometry": { "type": "MultiLineString", "coordinates": [ [ [ 109.151128760613915, -6.847263726441346 ], [ 109.152960900586876, -6.847217924929303 ] ] ] } },
{ "type": "Feature", "properties": { "Id": 0, "SEGMENT": "T31-T32", "TR_AWAL": "T31", "TR_AKHIR": "T32", "ID_AWAL": 35, "ID_AKHIR": 36, "TAHUN": 2035, "JENIS": "BUATAN" }, "geometry": { "type": "MultiLineString", "coordinates": [ [ [ 109.152960900586876, -6.847217924929303 ], [ 109.154726269415761, -6.846775113998265 ] ] ] } },
{ "type": "Feature", "properties": { "Id": 0, "SEGMENT": "T32-T33", "TR_AWAL": "T32", "TR_AKHIR": "T33", "ID_AWAL": 36, "ID_AKHIR": 37, "TAHUN": 2035, "JENIS": "BUATAN" }, "geometry": { "type": "MultiLineString", "coordinates": [ [ [ 109.154726269415761, -6.846775113998265 ], [ 109.155859888295666, -6.846474315486901 ] ] ] } },
{ "type": "Feature", "properties": { "Id": 0, "SEGMENT": "T33-T34", "TR_AWAL": "T33", "TR_AKHIR": "T34", "ID_AWAL": 37, "ID_AKHIR": 38, "TAHUN": 2035, "JENIS": "BUATAN" }, "geometry": { "type": "MultiLineString", "coordinates": [ [ [ 109.155859888295666, -6.846474315486901 ], [ 109.157288911520283, -6.845525631305803 ] ] ] } },
{ "type": "Feature", "properties": { "Id": 0, "SEGMENT": "T34-T35", "TR_AWAL": "T34", "TR_AKHIR": "T35", "ID_AWAL": 38, "ID_AKHIR": 39, "TAHUN": 2035, "JENIS": "BUATAN" }, "geometry": { "type": "MultiLineString", "coordinates": [ [ [ 109.157288911520283, -6.845525631305803 ], [ 109.158681075005887, -6.844241117100661 ] ] ] } },
{ "type": "Feature", "properties": { "Id": 0, "SEGMENT": "T35-T36", "TR_AWAL": "T35", "TR_AKHIR": "T36", "ID_AWAL": 39, "ID_AKHIR": 40, "TAHUN": 2035, "JENIS": "BUATAN" }, "geometry": { "type": "MultiLineString", "coordinates": [ [ [ 109.158681075005887, -6.844241117100661 ], [ 109.162927839583503, -6.845337370052704 ] ] ] } },
{ "type": "Feature", "properties": { "Id": 0, "SEGMENT": "T36-T37", "TR_AWAL": "T36", "TR_AKHIR": "T37", "ID_AWAL": 40, "ID_AKHIR": 41, "TAHUN": 2035, "JENIS": "NATURAL" }, "geometry": { "type": "MultiLineString", "coordinates": [ [ [ 109.162927839583503, -6.845337370052704 ], [ 109.164330359790412, -6.846484301937485 ] ] ] } },
{ "type": "Feature", "properties": { "Id": 0, "SEGMENT": "T37-T38", "TR_AWAL": "T37", "TR_AKHIR": "T38", "ID_AWAL": 41, "ID_AKHIR": 42, "TAHUN": 2035, "JENIS": "NATURAL" }, "geometry": { "type": "MultiLineString", "coordinates": [ [ [ 109.164330359790412, -6.846484301937485 ], [ 109.165678302476067, -6.847431913090089 ] ] ] } },
{ "type": "Feature", "properties": { "Id": 0, "SEGMENT": "T38-T39", "TR_AWAL": "T38", "TR_AKHIR": "T39", "ID_AWAL": 42, "ID_AKHIR": 43, "TAHUN": 2035, "JENIS": "NATURAL" }, "geometry": { "type": "MultiLineString", "coordinates": [ [ [ 109.165678302476067, -6.847431913090089 ], [ 109.167004477256754, -6.848728588034654 ] ] ] } },
{ "type": "Feature", "properties": { "Id": 0, "SEGMENT": "T39-T40", "TR_AWAL": "T39", "TR_AKHIR": "T40", "ID_AWAL": 43, "ID_AKHIR": 44, "TAHUN": 2035, "JENIS": "NATURAL" }, "geometry": { "type": "MultiLineString", "coordinates": [ [ [ 109.167004477256754, -6.848728588034654 ], [ 109.1685461785097, -6.849674963107515 ] ] ] } },
{ "type": "Feature", "properties": { "Id": 0, "SEGMENT": "T40-T41", "TR_AWAL": "T40", "TR_AKHIR": "T41", "ID_AWAL": 44, "ID_AKHIR": 45, "TAHUN": 2035, "JENIS": "NATURAL" }, "geometry": { "type": "MultiLineString", "coordinates": [ [ [ 109.1685461785097, -6.849674963107515 ], [ 109.170116845319882, -6.850574266102612 ] ] ] } },
{ "type": "Feature", "properties": { "Id": 0, "SEGMENT": "T41-T42", "TR_AWAL": "T41", "TR_AKHIR": "T42", "ID_AWAL": 45, "ID_AKHIR": 46, "TAHUN": 2035, "JENIS": "NATURAL" }, "geometry": { "type": "MultiLineString", "coordinates": [ [ [ 109.170116845319882, -6.850574266102612 ], [ 109.171759029798096, -6.851482060155637 ] ] ] } }
]
}
