{
"type": "FeatureCollection",
"name": "PEMBAGIAN_SEL",
"crs": { "type": "name", "properties": { "name": "urn:ogc:def:crs:OGC:1.3:CRS84" } },
"features": [
{ "type": "Feature", "properties": { "Id": 0, "Sel_Sedime": "Sel Barat" }, "geometry": { "type": "MultiPolygon", "coordinates": [ [ [ [ 109.095330103065322, -6.817794033906559 ], [ 109.127748560200672, -6.820552269552391 ], [ 109.12604511333241, -6.858461712855915 ], [ 109.092310671567887, -6.854979809090703 ], [ 109.095330103065322, -6.817794033906559 ] ] ] ] } },
{ "type": "Feature", "properties": { "Id": 0, "Sel_Sedime": "Sel Tengah" }, "geometry": { "type": "MultiPolygon", "coordinates": [ [ [ [ 109.12604511333241, -6.8584617128559 ], [ 109.127748560200672, -6.820552269552391 ], [ 109.14178552865242, -6.820546727547457 ], [ 109.142630681469242, -6.858873061554664 ], [ 109.12604511333241, -6.8584617128559 ] ] ] ] } },
{ "type": "Feature", "properties": { "Id": 0, "Sel_Sedime": "Sel Timur" }, "geometry": { "type": "MultiPolygon", "coordinates": [ [ [ [ 109.141785528652434, -6.820546727547457 ], [ 109.172411523719489, -6.822960254466802 ], [ 109.172176769958753, -6.859512806299528 ], [ 109.142630681469242, -6.858873061554664 ], [ 109.141785528652434, -6.820546727547457 ] ] ] ] } }
]
}
