{
"type": "FeatureCollection",
"name": "SHORELINE_2025",
"crs": { "type": "name", "properties": { "name": "urn:ogc:def:crs:OGC:1.3:CRS84" } },
"features": [
{ "type": "Feature", "properties": { "OBJECTID_1": 2462, "OBJECTID": 37, "ID": 0, "TAHUN": 2025, "DATE": "2025-01-01", "NAMA_TITIK": "T41", "SHAPE_LENG": 200.043617568, "TRANSECTID": 45, "TRANSORDER": 45, "SHORELINEI": "2025-01-01", "BASELINEID": 1, "DISTANCE": 205.65, "INTERSECTX": 297801.228546998, "INTERSECTY": 9242402.2610599902, "UNCERTAINT": 10, "NAMA_TITI2": "T41", "D_TAHUN": null, "LRR": -2.12, "SKOR_SHORE": 5, "RASTERVALU": 9.05717, "SKOR_SLOPE": 2, "RASTERVA_1": -1.62402, "SKOR_ELEV": 5, "GEOM_LAP": "Tambak", "SKOR_GEOM": 5, "KATEGORI": "Abrasi Tinggi", "GELOMBANG": 0.25286520228666398, "PASUT": 0.888, "SLR": 4.69, "SKOR_GEL": 2, "SKOR_PASUT": 2, "SKOR_SLR": 5, "CVI": 43.301270189219998, "KELAS_CVI": 3, "KELAS_CV_1": "Sedang", "LAHAN": "Tambak", "JENIS": "Natural", "SKOR_LAHAN": 3 }, "geometry": { "type": "MultiLineString", "coordinates": [ [ [ 109.170216414770408, -6.850412427164565 ], [ 109.168655416982276, -6.849497409014738 ] ] ] } },
{ "type": "Feature", "properties": { "OBJECTID_1": 2463, "OBJECTID": 37, "ID": 0, "TAHUN": 2025, "DATE": "2025-01-01", "NAMA_TITIK": "T42", "SHAPE_LENG": 256.65481116699999, "TRANSECTID": 46, "TRANSORDER": 46, "SHORELINEI": "2025-01-01", "BASELINEID": 1, "DISTANCE": 212.71, "INTERSECTX": 297980.921829, "INTERSECTY": 9242297.7908100002, "UNCERTAINT": 10, "NAMA_TITI2": "T42", "D_TAHUN": null, "LRR": -1.48, "SKOR_SHORE": 4, "RASTERVALU": 10.6361, "SKOR_SLOPE": 2, "RASTERVA_1": -1.41562, "SKOR_ELEV": 5, "GEOM_LAP": "Tambak", "SKOR_GEOM": 5, "KATEGORI": "Abrasi Sedang", "GELOMBANG": 0.25286520228666398, "PASUT": 0.888, "SLR": 4.69, "SKOR_GEL": 2, "SKOR_PASUT": 2, "SKOR_SLR": 5, "CVI": 38.729833462069998, "KELAS_CVI": 3, "KELAS_CV_1": "Sedang", "LAHAN": "Tambak", "JENIS": "Natural", "SKOR_LAHAN": 3 }, "geometry": { "type": "MultiLineString", "coordinates": [ [ [ 109.172219176137546, -6.851586384748003 ], [ 109.170216414770408, -6.850412427164565 ] ] ] } },
{ "type": "Feature", "properties": { "OBJECTID_1": 2464, "OBJECTID": 37, "ID": 0, "TAHUN": 2025, "DATE": "2025-01-01", "NAMA_TITIK": "T18", "SHAPE_LENG": 200.09508559299999, "TRANSECTID": 19, "TRANSORDER": 19, "SHORELINEI": "2025-01-01", "BASELINEID": 1, "DISTANCE": 201.18, "INTERSECTX": 292785.75002500002, "INTERSECTY": 9242599.7685800008, "UNCERTAINT": 10, "NAMA_TITI2": "T18", "D_TAHUN": null, "LRR": -1.23, "SKOR_SHORE": 4, "RASTERVALU": 12.3825, "SKOR_SLOPE": 1, "RASTERVA_1": -1.92558, "SKOR_ELEV": 5, "GEOM_LAP": "Pasir_Kasar", "SKOR_GEOM": 2, "KATEGORI": "Abrasi Sedang", "GELOMBANG": 0.25286520228666398, "PASUT": 0.888, "SLR": 4.69, "SKOR_GEL": 2, "SKOR_PASUT": 2, "SKOR_SLR": 5, "CVI": 22.360679775000001, "KELAS_CVI": 1, "KELAS_CV_1": "Sangat Rendah", "LAHAN": "Bangunan", "JENIS": "Buatan", "SKOR_LAHAN": 5 }, "geometry": { "type": "MultiLineString", "coordinates": [ [ [ 109.124852511575583, -6.84845179775358 ], [ 109.124834435752575, -6.848454755149778 ], [ 109.124512378173961, -6.848407272137002 ], [ 109.12443904615273, -6.848396460089458 ], [ 109.124209774116267, -6.848362656802894 ], [ 109.124027075647049, -6.848335720340462 ], [ 109.123699326198903, -6.848287397274773 ], [ 109.123289911019782, -6.848227033090765 ], [ 109.123070872720675, -6.848194738472685 ], [ 109.123061858911825, -6.848193409463351 ] ] ] } },
{ "type": "Feature", "properties": { "OBJECTID_1": 2465, "OBJECTID": 37, "ID": 0, "TAHUN": 2025, "DATE": "2025-01-01", "NAMA_TITIK": "T20", "SHAPE_LENG": 258.65526344400001, "TRANSECTID": 22, "TRANSORDER": 22, "SHORELINEI": "2025-01-01", "BASELINEID": 1, "DISTANCE": 215.61, "INTERSECTX": 293357.36766300001, "INTERSECTY": 9242558.8293399904, "UNCERTAINT": 10, "NAMA_TITI2": "T20", "D_TAHUN": null, "LRR": -1.24, "SKOR_SHORE": 4, "RASTERVALU": 9.16314, "SKOR_SLOPE": 2, "RASTERVA_1": -0.713828, "SKOR_ELEV": 5, "GEOM_LAP": "Bebatuan", "SKOR_GEOM": 1, "KATEGORI": "Abrasi Sedang", "GELOMBANG": 0.25286520228666398, "PASUT": 0.888, "SLR": 4.69, "SKOR_GEL": 2, "SKOR_PASUT": 2, "SKOR_SLR": 5, "CVI": 22.360679775000001, "KELAS_CVI": 1, "KELAS_CV_1": "Sangat Rendah", "LAHAN": "Pelabuhan", "JENIS": "Buatan", "SKOR_LAHAN": 5 }, "geometry": { "type": "MultiLineString", "coordinates": [ [ [ 109.130021941342605, -6.848842085267994 ], [ 109.129570299101033, -6.84889000774962 ], [ 109.12951304290344, -6.848896083063468 ], [ 109.129293761274312, -6.848919349876762 ], [ 109.129275036968153, -6.848921336594516 ], [ 109.129079001900308, -6.848942136919014 ], [ 109.12897551956722, -6.848953117018779 ], [ 109.128877834619487, -6.848963482256725 ], [ 109.128771979396078, -6.84897471436429 ], [ 109.128605959338088, -6.848992329477686 ], [ 109.128553076072933, -6.848997940702838 ], [ 109.128546085119737, -6.848970112376168 ], [ 109.128545601420214, -6.848968186503281 ], [ 109.128495117433829, -6.848767233203601 ], [ 109.128470136896212, -6.84866779732342 ], [ 109.128469662102034, -6.848665907650473 ], [ 109.128451149635652, -6.848592214944495 ], [ 109.128450767478725, -6.848590695421602 ], [ 109.128442149054152, -6.848556388090028 ], [ 109.128441589640985, -6.84855415994287 ], [ 109.128436482721227, -6.848533831481791 ], [ 109.12842925749797, -6.848505070085985 ], [ 109.128421233224728, -6.84847313027321 ], [ 109.128413516274719, -6.848442414041394 ], [ 109.128411217135493, -6.848433262523089 ], [ 109.128410606052071, -6.848430829841325 ], [ 109.128408644530381, -6.848423020462922 ], [ 109.128398682784095, -6.848383368107648 ], [ 109.128383271160615, -6.848322023432137 ], [ 109.128382403531035, -6.84831856898833 ], [ 109.128352027481782, -6.848197656187725 ], [ 109.128342984152809, -6.848161658287745 ] ] ] } },
{ "type": "Feature", "properties": { "OBJECTID_1": 2466, "OBJECTID": 37, "ID": 0, "TAHUN": 2025, "DATE": "2025-01-01", "NAMA_TITIK": "T54", "SHAPE_LENG": 205.91194667799999, "TRANSECTID": 23, "TRANSORDER": 23, "SHORELINEI": "2025-01-01", "BASELINEID": 1, "DISTANCE": 218.29, "INTERSECTX": 293557.385538998, "INTERSECTY": 9242558.6494699903, "UNCERTAINT": 10, "NAMA_TITI2": "T54", "D_TAHUN": null, "LRR": -0.88, "SKOR_SHORE": 3, "RASTERVALU": 2.66467, "SKOR_SLOPE": 4, "RASTERVA_1": -2.773, "SKOR_ELEV": 5, "GEOM_LAP": "Aluvial", "SKOR_GEOM": 4, "KATEGORI": "Stabil", "GELOMBANG": 0.25286520228666398, "PASUT": 0.888, "SLR": 4.69, "SKOR_GEL": 2, "SKOR_PASUT": 2, "SKOR_SLR": 5, "CVI": 48.989794855660001, "KELAS_CVI": 3, "KELAS_CV_1": "Tinggi", "LAHAN": "Muara", "JENIS": "Buatan", "SKOR_LAHAN": 4 }, "geometry": { "type": "MultiLineString", "coordinates": [ [ [ 109.131831309488348, -6.848850749220369 ], [ 109.131780924383932, -6.848822051489864 ], [ 109.131735800651967, -6.848796350612467 ], [ 109.131711492221314, -6.848782505166325 ], [ 109.131693014710848, -6.848771980661694 ], [ 109.13168438206354, -6.848767063883646 ], [ 109.131663325770944, -6.848755070987755 ], [ 109.131660098908995, -6.848753233000046 ], [ 109.131651142223248, -6.848748131423012 ], [ 109.131612636509772, -6.84872619937315 ], [ 109.13160956399453, -6.848724449686096 ], [ 109.131592894431449, -6.848714955685138 ], [ 109.131558312406597, -6.848695258530912 ], [ 109.131545108001887, -6.848687737254975 ], [ 109.131544571848423, -6.848687431382102 ], [ 109.131543154738637, -6.848686623907424 ], [ 109.131536894176733, -6.84868305808186 ], [ 109.131534342476016, -6.848681604262257 ], [ 109.13152136849375, -6.848682980538108 ], [ 109.131485191388393, -6.848686818960079 ], [ 109.131480664611033, -6.848687299535696 ], [ 109.131472487091358, -6.84868816735092 ], [ 109.131442351721162, -6.848691364724144 ], [ 109.131362245335879, -6.848699864909032 ], [ 109.131356837095993, -6.848700438797985 ], [ 109.131330014001676, -6.848703284678336 ], [ 109.131301417119928, -6.848706318952019 ], [ 109.131200123032897, -6.848717067569147 ], [ 109.131181085595244, -6.848719087504824 ], [ 109.131174389548946, -6.848719798332187 ], [ 109.131143937430537, -6.848723029714952 ], [ 109.131087471281106, -6.848729021503226 ], [ 109.131039550079649, -6.848734106220258 ], [ 109.130894386449967, -6.848749509502176 ], [ 109.130568816043706, -6.848784056646116 ], [ 109.130344438370997, -6.848807864704035 ], [ 109.130257406081995, -6.848817099930334 ], [ 109.130210437839651, -6.848822084292538 ], [ 109.130134406650697, -6.848830151667927 ], [ 109.130041173352353, -6.848840044438913 ], [ 109.130021941342605, -6.848842085267994 ] ] ] } },
{ "type": "Feature", "properties": { "OBJECTID_1": 2468, "OBJECTID": 37, "ID": 0, "TAHUN": 2025, "DATE": "2025-01-01", "NAMA_TITIK": "T21", "SHAPE_LENG": 219.98355813399999, "TRANSECTID": 24, "TRANSORDER": 24, "SHORELINEI": "2025-01-01", "BASELINEID": 1, "DISTANCE": 200.93, "INTERSECTX": 293757.11687500001, "INTERSECTY": 9242538.4323200006, "UNCERTAINT": 10, "NAMA_TITI2": "T21", "D_TAHUN": null, "LRR": -2.12, "SKOR_SHORE": 5, "RASTERVALU": 5.1158, "SKOR_SLOPE": 3, "RASTERVA_1": -1.60024, "SKOR_ELEV": 5, "GEOM_LAP": "Tambak", "SKOR_GEOM": 5, "KATEGORI": "Abrasi Tinggi", "GELOMBANG": 0.25286520228666398, "PASUT": 0.888, "SLR": 4.69, "SKOR_GEL": 2, "SKOR_PASUT": 2, "SKOR_SLR": 5, "CVI": 53.03300858899, "KELAS_CVI": 4, "KELAS_CV_1": "Tinggi", "LAHAN": "Tambak", "JENIS": "Buatan", "SKOR_LAHAN": 3 }, "geometry": { "type": "MultiLineString", "coordinates": [ [ [ 109.133637380776648, -6.849040556458733 ], [ 109.133525935830832, -6.84907804745281 ], [ 109.133372527587809, -6.849129655283333 ], [ 109.133363486734638, -6.849132696927485 ], [ 109.133331567931009, -6.84914343518675 ], [ 109.133330303425183, -6.84914386064179 ], [ 109.133314526996344, -6.849149168096068 ], [ 109.13329296155851, -6.849156423166295 ], [ 109.133247515441951, -6.849171711808613 ], [ 109.133229677396415, -6.849177712857538 ], [ 109.13314833235502, -6.849205078665721 ], [ 109.133078729279518, -6.849228493811551 ], [ 109.132838372590498, -6.849309352262285 ], [ 109.132833319999577, -6.849311052289151 ], [ 109.132755390727738, -6.849337268577058 ], [ 109.132711449133268, -6.849352051266872 ], [ 109.132658814576757, -6.849322071841387 ], [ 109.132509151878494, -6.849236828177875 ], [ 109.132283945326819, -6.849108557060985 ], [ 109.132210280681804, -6.849066600195629 ], [ 109.132202552450622, -6.849062197774113 ], [ 109.132116725019017, -6.849013313177966 ], [ 109.132057012202083, -6.848979302695904 ], [ 109.132042589241166, -6.84897108774426 ], [ 109.131978540251964, -6.848934607489761 ], [ 109.131975611252926, -6.848932938829985 ], [ 109.131956802466732, -6.848922225889379 ], [ 109.131920375451941, -6.848901478213115 ], [ 109.131880495921379, -6.848878764188417 ], [ 109.131858500895717, -6.84886623601967 ], [ 109.131836595226872, -6.848853759733107 ], [ 109.13183155951539, -6.848850891236933 ], [ 109.131831309488348, -6.848850749220369 ] ] ] } },
{ "type": "Feature", "properties": { "OBJECTID_1": 2470, "OBJECTID": 37, "ID": 0, "TAHUN": 2025, "DATE": "2025-01-01", "NAMA_TITIK": "T22", "SHAPE_LENG": 212.360736019, "TRANSECTID": 25, "TRANSORDER": 25, "SHORELINEI": "2025-01-01", "BASELINEID": 1, "DISTANCE": 272.32, "INTERSECTX": 293958.117279, "INTERSECTY": 9242606.9587600008, "UNCERTAINT": 10, "NAMA_TITI2": "T22", "D_TAHUN": null, "LRR": -0.72, "SKOR_SHORE": 3, "RASTERVALU": 5.00015, "SKOR_SLOPE": 3, "RASTERVA_1": -1.91193, "SKOR_ELEV": 5, "GEOM_LAP": "Tambak", "SKOR_GEOM": 5, "KATEGORI": "Stabil", "GELOMBANG": 0.25286520228666398, "PASUT": 0.888, "SLR": 4.69, "SKOR_GEL": 2, "SKOR_PASUT": 2, "SKOR_SLR": 5, "CVI": 41.079191812890002, "KELAS_CVI": 3, "KELAS_CV_1": "Sedang", "LAHAN": "Tambak", "JENIS": "Buatan", "SKOR_LAHAN": 3 }, "geometry": { "type": "MultiLineString", "coordinates": [ [ [ 109.135458053984138, -6.848428053124275 ], [ 109.133637380776648, -6.849040556458733 ] ] ] } },
{ "type": "Feature", "properties": { "OBJECTID_1": 2471, "OBJECTID": 37, "ID": 0, "TAHUN": 2025, "DATE": "2025-01-01", "NAMA_TITIK": "T40", "SHAPE_LENG": 201.96811917599999, "TRANSECTID": 44, "TRANSORDER": 44, "SHORELINEI": "2025-01-01", "BASELINEID": 1, "DISTANCE": 201.47, "INTERSECTX": 297628.288325998, "INTERSECTY": 9242502.8052200004, "UNCERTAINT": 10, "NAMA_TITI2": "T40", "D_TAHUN": null, "LRR": -2.39, "SKOR_SHORE": 5, "RASTERVALU": 1.31742, "SKOR_SLOPE": 5, "RASTERVA_1": -2.87668, "SKOR_ELEV": 5, "GEOM_LAP": "Tambak", "SKOR_GEOM": 5, "KATEGORI": "Abrasi Tinggi", "GELOMBANG": 0.25286520228666398, "PASUT": 0.888, "SLR": 4.69, "SKOR_GEL": 2, "SKOR_PASUT": 2, "SKOR_SLR": 5, "CVI": 68.465319688150004, "KELAS_CVI": 4, "KELAS_CV_1": "Tinggi", "LAHAN": "Tambak", "JENIS": "Natural", "SKOR_LAHAN": 3 }, "geometry": { "type": "MultiLineString", "coordinates": [ [ [ 109.168655416982276, -6.849497409014738 ], [ 109.167631475385932, -6.848897197004849 ], [ 109.16717919457902, -6.848444608124874 ] ] ] } },
{ "type": "Feature", "properties": { "OBJECTID_1": 2473, "OBJECTID": 37, "ID": 0, "TAHUN": 2025, "DATE": "2025-01-01", "NAMA_TITIK": "T15", "SHAPE_LENG": 201.873790004, "TRANSECTID": 16, "TRANSORDER": 16, "SHORELINEI": "2025-01-01", "BASELINEID": 1, "DISTANCE": 234.12, "INTERSECTX": 292248.47811500001, "INTERSECTY": 9242712.1262100004, "UNCERTAINT": 10, "NAMA_TITI2": "T15", "D_TAHUN": null, "LRR": -2.82, "SKOR_SHORE": 5, "RASTERVALU": 4.65041, "SKOR_SLOPE": 3, "RASTERVA_1": -2.53471, "SKOR_ELEV": 5, "GEOM_LAP": "Pasir_Kasar", "SKOR_GEOM": 2, "KATEGORI": "Abrasi Tinggi", "GELOMBANG": 0.25286520228666398, "PASUT": 0.888, "SLR": 4.69, "SKOR_GEL": 2, "SKOR_PASUT": 2, "SKOR_SLR": 5, "CVI": 43.301270189219998, "KELAS_CVI": 3, "KELAS_CV_1": "Sedang", "LAHAN": "Bangunan", "JENIS": "Buatan", "SKOR_LAHAN": 5 }, "geometry": { "type": "MultiLineString", "coordinates": [ [ [ 109.119996323528639, -6.84741696992063 ], [ 109.119995828012691, -6.847416684991034 ], [ 109.119986003731867, -6.847411191972353 ], [ 109.11998485468223, -6.847410548260895 ], [ 109.119976100953139, -6.847405647111311 ], [ 109.119931591243599, -6.847380727989861 ], [ 109.119877197717457, -6.847350274926685 ], [ 109.119838939650819, -6.847328855713116 ], [ 109.119695875191468, -6.84724875831375 ], [ 109.11947038700562, -6.847122514617465 ], [ 109.119403401236355, -6.847084243099188 ], [ 109.119107232497058, -6.846915029027349 ], [ 109.119094169312461, -6.846907565890325 ], [ 109.11894377892186, -6.846821641510137 ], [ 109.118942254449109, -6.846820770296434 ], [ 109.118869901981014, -6.84677943263031 ], [ 109.118840017252353, -6.846762357902933 ], [ 109.118775283326158, -6.846731897737842 ], [ 109.118533322174443, -6.846618043587663 ], [ 109.118399334290146, -6.846554996172282 ], [ 109.118390187468052, -6.846550691994369 ], [ 109.118390153153669, -6.846550676489936 ] ] ] } },
{ "type": "Feature", "properties": { "OBJECTID_1": 2475, "OBJECTID": 37, "ID": 0, "TAHUN": 2025, "DATE": "2025-01-01", "NAMA_TITIK": "T16", "SHAPE_LENG": 154.31989563400001, "TRANSECTID": 17, "TRANSORDER": 17, "SHORELINEI": "2025-01-01", "BASELINEID": 1, "DISTANCE": 202.36, "INTERSECTX": 292389.718907998, "INTERSECTY": 9242655.9891199805, "UNCERTAINT": 10, "NAMA_TITI2": "T16", "D_TAHUN": null, "LRR": -2.75, "SKOR_SHORE": 5, "RASTERVALU": 3.73856, "SKOR_SLOPE": 4, "RASTERVA_1": -2.71604, "SKOR_ELEV": 5, "GEOM_LAP": "Pasir_Kasar", "SKOR_GEOM": 2, "KATEGORI": "Abrasi Tinggi", "GELOMBANG": 0.25286520228666398, "PASUT": 0.888, "SLR": 4.69, "SKOR_GEL": 2, "SKOR_PASUT": 2, "SKOR_SLR": 5, "CVI": 50.0, "KELAS_CVI": 3, "KELAS_CV_1": "Sedang", "LAHAN": "Bangunan", "JENIS": "Buatan", "SKOR_LAHAN": 5 }, "geometry": { "type": "MultiLineString", "coordinates": [ [ [ 109.121271998616024, -6.847929509258706 ], [ 109.120783012855, -6.847857411127091 ], [ 109.120429723699445, -6.847659616360731 ], [ 109.120331532522556, -6.84760464212983 ], [ 109.120160815711515, -6.847509062923953 ], [ 109.120155554263036, -6.847506117498092 ], [ 109.120120587169083, -6.847486540218688 ], [ 109.119996323528639, -6.84741696992063 ] ] ] } },
{ "type": "Feature", "properties": { "OBJECTID_1": 2476, "OBJECTID": 37, "ID": 0, "TAHUN": 2025, "DATE": "2025-01-01", "NAMA_TITIK": "T17", "SHAPE_LENG": 200.001986147, "TRANSECTID": 18, "TRANSORDER": 18, "SHORELINEI": "2025-01-01", "BASELINEID": 1, "DISTANCE": 201.47, "INTERSECTX": 292587.692132, "INTERSECTY": 9242627.5741799902, "UNCERTAINT": 10, "NAMA_TITI2": "T17", "D_TAHUN": null, "LRR": -2.26, "SKOR_SHORE": 5, "RASTERVALU": 2.99225, "SKOR_SLOPE": 4, "RASTERVA_1": -2.74952, "SKOR_ELEV": 5, "GEOM_LAP": "Pasir_Kasar", "SKOR_GEOM": 2, "KATEGORI": "Abrasi Tinggi", "GELOMBANG": 0.25286520228666398, "PASUT": 0.888, "SLR": 4.69, "SKOR_GEL": 2, "SKOR_PASUT": 2, "SKOR_SLR": 5, "CVI": 50.0, "KELAS_CVI": 3, "KELAS_CV_1": "Sedang", "LAHAN": "Bangunan", "JENIS": "Buatan", "SKOR_LAHAN": 5 }, "geometry": { "type": "MultiLineString", "coordinates": [ [ [ 109.123061858911825, -6.848193409463351 ], [ 109.123035708018918, -6.848189553394412 ], [ 109.122905948061202, -6.848170421574636 ], [ 109.122844175005937, -6.848161313522722 ], [ 109.12282153199979, -6.848157974743349 ], [ 109.122782189494274, -6.848152173893278 ], [ 109.122727081416926, -6.84814404933174 ], [ 109.122645315267832, -6.848131993460346 ], [ 109.122608958985282, -6.848126633722677 ], [ 109.122606121941061, -6.848126215782904 ], [ 109.122588426137654, -6.84812360605883 ], [ 109.122544055078606, -6.84811706405368 ], [ 109.122511927242371, -6.848112327496946 ], [ 109.12234801889177, -6.848088159956948 ], [ 109.122304420843179, -6.848081732159084 ], [ 109.122279853941322, -6.848078110080794 ], [ 109.122267817760815, -6.848076335268272 ], [ 109.122232765198831, -6.84807116684819 ], [ 109.122228336050199, -6.848070513941687 ], [ 109.122225916698966, -6.848070157304201 ], [ 109.122208517442417, -6.848067592123957 ], [ 109.121271998616024, -6.847929509258706 ] ] ] } },
{ "type": "Feature", "properties": { "OBJECTID_1": 2477, "OBJECTID": 37, "ID": 0, "TAHUN": 2025, "DATE": "2025-01-01", "NAMA_TITIK": "T51", "SHAPE_LENG": 217.410688002, "TRANSECTID": 20, "TRANSORDER": 20, "SHORELINEI": "2025-01-01", "BASELINEID": 1, "DISTANCE": 285.18, "INTERSECTX": 292995.40751200001, "INTERSECTY": 9242655.4432699904, "UNCERTAINT": 10, "NAMA_TITI2": "T51", "D_TAHUN": null, "LRR": 0.72, "SKOR_SHORE": 3, "RASTERVALU": 2.59289, "SKOR_SLOPE": 4, "RASTERVA_1": -2.65623, "SKOR_ELEV": 5, "GEOM_LAP": "Aluvial", "SKOR_GEOM": 4, "KATEGORI": "Stabil", "GELOMBANG": 0.25286520228666398, "PASUT": 0.888, "SLR": 4.69, "SKOR_GEL": 2, "SKOR_PASUT": 2, "SKOR_SLR": 5, "CVI": 48.989794855660001, "KELAS_CVI": 3, "KELAS_CV_1": "Sedang", "LAHAN": "Muara", "JENIS": "Natural", "SKOR_LAHAN": 4 }, "geometry": { "type": "MultiLineString", "coordinates": [ [ [ 109.126751041612209, -6.84795583140787 ], [ 109.12662710980112, -6.847994640002272 ], [ 109.126508241870141, -6.848031863469805 ], [ 109.126453151294726, -6.84804911468167 ], [ 109.126258296836539, -6.848110132373832 ], [ 109.126223002629899, -6.848121185175179 ], [ 109.126216775784158, -6.848123135515683 ], [ 109.126215504149087, -6.848123533799359 ], [ 109.126204736010919, -6.848126905807378 ], [ 109.126054369716499, -6.848173992439975 ], [ 109.126021640513372, -6.848184241509347 ], [ 109.1259965818777, -6.848192088379379 ], [ 109.125981584012251, -6.848196784711654 ], [ 109.125968413895819, -6.84820090862387 ], [ 109.125951485933726, -6.848206209524133 ], [ 109.125799524628235, -6.848253796155872 ], [ 109.125792930060172, -6.848255860784406 ], [ 109.12573424010678, -6.848274239777639 ], [ 109.125719583696764, -6.848278828936525 ], [ 109.125659249853982, -6.848297722286135 ], [ 109.125656500079288, -6.848298583141903 ], [ 109.125649013372566, -6.848300927280992 ], [ 109.12563811661721, -6.848304339458323 ], [ 109.125620700463017, -6.848309793951072 ], [ 109.125607422561018, -6.848313951788181 ], [ 109.125578960207619, -6.848322864887214 ], [ 109.125543500238535, -6.848333968518912 ], [ 109.125541514893811, -6.848334590048946 ], [ 109.125511483826514, -6.848343994295546 ], [ 109.125419242741501, -6.848359084257533 ], [ 109.125412211192653, -6.848360234909665 ], [ 109.125350567475579, -6.848370319604427 ], [ 109.125296651401371, -6.848379139723217 ], [ 109.125253136908725, -6.848386259060355 ], [ 109.125218624572142, -6.848391905424866 ], [ 109.125200576813853, -6.84839485752078 ], [ 109.124852511575583, -6.84845179775358 ] ] ] } },
{ "type": "Feature", "properties": { "OBJECTID_1": 2478, "OBJECTID": 37, "ID": 0, "TAHUN": 2025, "DATE": "2025-01-01", "NAMA_TITIK": "T19", "SHAPE_LENG": 203.202059128, "TRANSECTID": 21, "TRANSORDER": 21, "SHORELINEI": "2025-01-01", "BASELINEID": 1, "DISTANCE": 287.77, "INTERSECTX": 293171.47596800001, "INTERSECTY": 9242633.3640700001, "UNCERTAINT": 10, "NAMA_TITI2": "T19", "D_TAHUN": null, "LRR": 0.16, "SKOR_SHORE": 3, "RASTERVALU": 7.39251, "SKOR_SLOPE": 3, "RASTERVA_1": -0.816907, "SKOR_ELEV": 5, "GEOM_LAP": "Bebatuan", "SKOR_GEOM": 1, "KATEGORI": "Stabil", "GELOMBANG": 0.25286520228666398, "PASUT": 0.888, "SLR": 4.69, "SKOR_GEL": 2, "SKOR_PASUT": 2, "SKOR_SLR": 5, "CVI": 23.717082451260001, "KELAS_CVI": 1, "KELAS_CV_1": "Sangat Rendah", "LAHAN": "Pelabuhan", "JENIS": "Buatan", "SKOR_LAHAN": 5 }, "geometry": { "type": "MultiLineString", "coordinates": [ [ [ 109.128342984152809, -6.848161658287745 ], [ 109.128301297722345, -6.84799572277522 ], [ 109.128268523679083, -6.847865264779656 ], [ 109.127062387270158, -6.847858333765268 ], [ 109.127009007628416, -6.847875049241465 ], [ 109.126798659965971, -6.847940919851871 ], [ 109.126751041612209, -6.84795583140787 ] ] ] } },
{ "type": "Feature", "properties": { "OBJECTID_1": 2479, "OBJECTID": 37, "ID": 0, "TAHUN": 2025, "DATE": "2025-01-01", "NAMA_TITIK": "T23", "SHAPE_LENG": 88.333923787299995, "TRANSECTID": 26, "TRANSORDER": 26, "SHORELINEI": "2025-01-01", "BASELINEID": 1, "DISTANCE": 269.85, "INTERSECTX": 294041.72579200001, "INTERSECTY": 9242635.4631399903, "UNCERTAINT": 10, "NAMA_TITI2": "T23", "D_TAHUN": null, "LRR": -0.6, "SKOR_SHORE": 3, "RASTERVALU": 0.000935, "SKOR_SLOPE": 5, "RASTERVA_1": -2.93062, "SKOR_ELEV": 5, "GEOM_LAP": "Tambak", "SKOR_GEOM": 5, "KATEGORI": "Stabil", "GELOMBANG": 0.25286520228666398, "PASUT": 0.888, "SLR": 4.69, "SKOR_GEL": 2, "SKOR_PASUT": 2, "SKOR_SLR": 5, "CVI": 53.03300858899, "KELAS_CVI": 4, "KELAS_CV_1": "Tinggi", "LAHAN": "Tambak", "JENIS": "Buatan", "SKOR_LAHAN": 3 }, "geometry": { "type": "MultiLineString", "coordinates": [ [ [ 109.13621538333804, -6.848173272783078 ], [ 109.135611484585212, -6.848376436455318 ], [ 109.135480444565715, -6.848420520858902 ], [ 109.135458053984138, -6.848428053124275 ] ] ] } },
{ "type": "Feature", "properties": { "OBJECTID_1": 2480, "OBJECTID": 37, "ID": 0, "TAHUN": 2025, "DATE": "2025-01-01", "NAMA_TITIK": "T25", "SHAPE_LENG": 363.938508426, "TRANSECTID": 28, "TRANSORDER": 28, "SHORELINEI": "2025-01-01", "BASELINEID": 1, "DISTANCE": 285.42, "INTERSECTX": 294533.20539900003, "INTERSECTY": 9242751.0502499901, "UNCERTAINT": 10, "NAMA_TITI2": "T25", "D_TAHUN": null, "LRR": 1.85, "SKOR_SHORE": 2, "RASTERVALU": 0.025698, "SKOR_SLOPE": 5, "RASTERVA_1": -2.93193, "SKOR_ELEV": 5, "GEOM_LAP": "Pasir_Halus", "SKOR_GEOM": 3, "KATEGORI": "Akresi Sedang", "GELOMBANG": 0.25286520228666398, "PASUT": 0.888, "SLR": 4.69, "SKOR_GEL": 2, "SKOR_PASUT": 2, "SKOR_SLR": 5, "CVI": 27.386127875260001, "KELAS_CVI": 2, "KELAS_CV_1": "Rendah", "LAHAN": "Pantai", "JENIS": "Buatan", "SKOR_LAHAN": 2 }, "geometry": { "type": "MultiLineString", "coordinates": [ [ [ 109.140665396503977, -6.847145445443195 ], [ 109.138342694421439, -6.846617420023094 ], [ 109.137455156715134, -6.846415650978089 ] ] ] } },
{ "type": "Feature", "properties": { "OBJECTID_1": 2481, "OBJECTID": 37, "ID": 0, "TAHUN": 2025, "DATE": "2025-01-01", "NAMA_TITIK": "T26", "SHAPE_LENG": 202.80276187800001, "TRANSECTID": 29, "TRANSORDER": 29, "SHORELINEI": "2025-01-01", "BASELINEID": 1, "DISTANCE": 255.15, "INTERSECTX": 294732.561732998, "INTERSECTY": 9242716.7985800002, "UNCERTAINT": 10, "NAMA_TITI2": "T26", "D_TAHUN": null, "LRR": 1.65, "SKOR_SHORE": 2, "RASTERVALU": 0.30887, "SKOR_SLOPE": 5, "RASTERVA_1": -2.92483, "SKOR_ELEV": 5, "GEOM_LAP": "Pasir_Halus", "SKOR_GEOM": 3, "KATEGORI": "Akresi Sedang", "GELOMBANG": 0.25286520228666398, "PASUT": 0.888, "SLR": 4.69, "SKOR_GEL": 2, "SKOR_PASUT": 2, "SKOR_SLR": 5, "CVI": 27.386127875260001, "KELAS_CVI": 2, "KELAS_CV_1": "Rendah", "LAHAN": "Pantai", "JENIS": "Buatan", "SKOR_LAHAN": 2 }, "geometry": { "type": "MultiLineString", "coordinates": [ [ [ 109.142467591755462, -6.847462094826262 ], [ 109.142146809469764, -6.847439751548089 ], [ 109.141950467047025, -6.847426076085878 ], [ 109.141877520775807, -6.847420994933384 ], [ 109.141744663614134, -6.847390793070385 ], [ 109.140665396503977, -6.847145445443195 ] ] ] } },
{ "type": "Feature", "properties": { "OBJECTID_1": 2483, "OBJECTID": 37, "ID": 0, "TAHUN": 2025, "DATE": "2025-01-01", "NAMA_TITIK": "T27", "SHAPE_LENG": 200.209020987, "TRANSECTID": 30, "TRANSORDER": 30, "SHORELINEI": "2025-01-01", "BASELINEID": 1, "DISTANCE": 245.99, "INTERSECTX": 294932.339236998, "INTERSECTY": 9242703.6532300003, "UNCERTAINT": 10, "NAMA_TITI2": "T27", "D_TAHUN": null, "LRR": 2.13, "SKOR_SHORE": 1, "RASTERVALU": 7.84006, "SKOR_SLOPE": 3, "RASTERVA_1": -2.49416, "SKOR_ELEV": 5, "GEOM_LAP": "Bebatuan", "SKOR_GEOM": 1, "KATEGORI": "Akresi Tinggi", "GELOMBANG": 0.25286520228666398, "PASUT": 0.888, "SLR": 4.69, "SKOR_GEL": 2, "SKOR_PASUT": 2, "SKOR_SLR": 5, "CVI": 13.693063937630001, "KELAS_CVI": 1, "KELAS_CV_1": "Sangat Rendah", "LAHAN": "Bangunan", "JENIS": "Buatan", "SKOR_LAHAN": 5 }, "geometry": { "type": "MultiLineString", "coordinates": [ [ [ 109.144274334436943, -6.847587922797668 ], [ 109.144274215932981, -6.847587922340132 ], [ 109.144248555934041, -6.847586138858227 ], [ 109.144109417021255, -6.847576448129185 ], [ 109.143899725623356, -6.847561843068632 ], [ 109.143842566993214, -6.847557862025445 ], [ 109.143832465972409, -6.847557158475555 ], [ 109.143802857472778, -6.84755509661802 ], [ 109.143494094029251, -6.847533591743556 ], [ 109.142467591755462, -6.847462094826262 ] ] ] } },
{ "type": "Feature", "properties": { "OBJECTID_1": 2484, "OBJECTID": 37, "ID": 0, "TAHUN": 2025, "DATE": "2025-01-01", "NAMA_TITIK": "T28", "SHAPE_LENG": 200.057190706, "TRANSECTID": 31, "TRANSORDER": 31, "SHORELINEI": "2025-01-01", "BASELINEID": 1, "DISTANCE": 250.76, "INTERSECTX": 295132.394462, "INTERSECTY": 9242704.4254599903, "UNCERTAINT": 10, "NAMA_TITI2": "T28", "D_TAHUN": null, "LRR": 2.46, "SKOR_SHORE": 1, "RASTERVALU": 0.146582, "SKOR_SLOPE": 5, "RASTERVA_1": -2.93183, "SKOR_ELEV": 5, "GEOM_LAP": "Bebatuan", "SKOR_GEOM": 1, "KATEGORI": "Akresi Tinggi", "GELOMBANG": 0.25286520228666398, "PASUT": 0.888, "SLR": 4.69, "SKOR_GEL": 2, "SKOR_PASUT": 2, "SKOR_SLR": 5, "CVI": 17.677669529660001, "KELAS_CVI": 1, "KELAS_CV_1": "Sangat Rendah", "LAHAN": "Bangunan", "JENIS": "Buatan", "SKOR_LAHAN": 5 }, "geometry": { "type": "MultiLineString", "coordinates": [ [ [ 109.146084086915266, -6.847587924077475 ], [ 109.145844694263346, -6.847587926476701 ], [ 109.145719678773332, -6.847587923385063 ], [ 109.144490208458635, -6.847587922611098 ], [ 109.144351319731456, -6.847587924374176 ], [ 109.144274334436943, -6.847587922797668 ] ] ] } },
{ "type": "Feature", "properties": { "OBJECTID_1": 2486, "OBJECTID": 37, "ID": 0, "TAHUN": 2025, "DATE": "2025-01-01", "NAMA_TITIK": "T29", "SHAPE_LENG": 195.10465348100001, "TRANSECTID": 32, "TRANSORDER": 32, "SHORELINEI": "2025-01-01", "BASELINEID": 1, "DISTANCE": 255.45, "INTERSECTX": 295327.49761700002, "INTERSECTY": 9242705.1785700005, "UNCERTAINT": 10, "NAMA_TITI2": "T29", "D_TAHUN": null, "LRR": 2.53, "SKOR_SHORE": 1, "RASTERVALU": 4.47868, "SKOR_SLOPE": 3, "RASTERVA_1": -2.31378, "SKOR_ELEV": 5, "GEOM_LAP": "Pasir_Halus", "SKOR_GEOM": 3, "KATEGORI": "Akresi Tinggi", "GELOMBANG": 0.25286520228666398, "PASUT": 0.888, "SLR": 4.69, "SKOR_GEL": 2, "SKOR_PASUT": 2, "SKOR_SLR": 5, "CVI": 23.717082451260001, "KELAS_CVI": 1, "KELAS_CV_1": "Sangat Rendah", "LAHAN": "Bangunan", "JENIS": "Buatan", "SKOR_LAHAN": 5 }, "geometry": { "type": "MultiLineString", "coordinates": [ [ [ 109.14784903964069, -6.847587919492272 ], [ 109.146084086915266, -6.847587924077475 ] ] ] } },
{ "type": "Feature", "properties": { "OBJECTID_1": 2488, "OBJECTID": 37, "ID": 0, "TAHUN": 2025, "DATE": "2025-01-01", "NAMA_TITIK": "T45", "SHAPE_LENG": 166.21438568400001, "TRANSECTID": 33, "TRANSORDER": 33, "SHORELINEI": "2025-01-01", "BASELINEID": 1, "DISTANCE": 240.03, "INTERSECTX": 295493.538527, "INTERSECTY": 9242712.0739300009, "UNCERTAINT": 10, "NAMA_TITI2": "T45", "D_TAHUN": null, "LRR": 2.7, "SKOR_SHORE": 1, "RASTERVALU": 4.16291, "SKOR_SLOPE": 3, "RASTERVA_1": -2.83483, "SKOR_ELEV": 5, "GEOM_LAP": "Aluvial", "SKOR_GEOM": 4, "KATEGORI": "Akresi Tinggi", "GELOMBANG": 0.25286520228666398, "PASUT": 0.888, "SLR": 4.69, "SKOR_GEL": 2, "SKOR_PASUT": 2, "SKOR_SLR": 5, "CVI": 24.494897427830001, "KELAS_CVI": 2, "KELAS_CV_1": "Rendah", "LAHAN": "Muara", "JENIS": "Buatan", "SKOR_LAHAN": 4 }, "geometry": { "type": "MultiLineString", "coordinates": [ [ [ 109.149351306797328, -6.847531366534704 ], [ 109.149351247082436, -6.847531369017198 ], [ 109.149296958687344, -6.847533941122004 ], [ 109.149183353977264, -6.847539322727718 ], [ 109.149085801174749, -6.847543944256657 ], [ 109.149036019553122, -6.847546302226347 ], [ 109.148941124126097, -6.847550798337605 ], [ 109.148753995181963, -6.847559663325696 ], [ 109.148638029892851, -6.847565156861849 ], [ 109.148569028703236, -6.847568425359516 ], [ 109.148157496204689, -6.847587919086682 ], [ 109.14784903964069, -6.847587919492272 ] ] ] } },
{ "type": "Feature", "properties": { "OBJECTID_1": 2490, "OBJECTID": 37, "ID": 0, "TAHUN": 2025, "DATE": "2025-01-01", "NAMA_TITIK": "T30", "SHAPE_LENG": 200.692675055, "TRANSECTID": 34, "TRANSORDER": 34, "SHORELINEI": "2025-01-01", "BASELINEID": 1, "DISTANCE": 223.37, "INTERSECTX": 295693.96794900001, "INTERSECTY": 9242722.3484300002, "UNCERTAINT": 10, "NAMA_TITI2": "T30", "D_TAHUN": null, "LRR": 2.25, "SKOR_SHORE": 1, "RASTERVALU": 6.79316, "SKOR_SLOPE": 3, "RASTERVA_1": -2.16183, "SKOR_ELEV": 5, "GEOM_LAP": "Pasir_Kasar", "SKOR_GEOM": 2, "KATEGORI": "Akresi Tinggi", "GELOMBANG": 0.25286520228666398, "PASUT": 0.888, "SLR": 4.69, "SKOR_GEL": 2, "SKOR_PASUT": 2, "SKOR_SLR": 5, "CVI": 12.247448713920001, "KELAS_CVI": 1, "KELAS_CV_1": "Sangat Rendah", "LAHAN": "Pantai", "JENIS": "Buatan", "SKOR_LAHAN": 2 }, "geometry": { "type": "MultiLineString", "coordinates": [ [ [ 109.151164776474261, -6.847445449561763 ], [ 109.149351306797328, -6.847531366534704 ] ] ] } },
{ "type": "Feature", "properties": { "OBJECTID_1": 2491, "OBJECTID": 37, "ID": 0, "TAHUN": 2025, "DATE": "2025-01-01", "NAMA_TITIK": "T31", "SHAPE_LENG": 200.87424209900001, "TRANSECTID": 35, "TRANSORDER": 35, "SHORELINEI": "2025-01-01", "BASELINEID": 1, "DISTANCE": 211.68, "INTERSECTX": 295893.73214600002, "INTERSECTY": 9242737.5456399806, "UNCERTAINT": 10, "NAMA_TITI2": "T31", "D_TAHUN": null, "LRR": 1.12, "SKOR_SHORE": 2, "RASTERVALU": 12.9492, "SKOR_SLOPE": 1, "RASTERVA_1": -1.06007, "SKOR_ELEV": 5, "GEOM_LAP": "Pasir_Kasar", "SKOR_GEOM": 2, "KATEGORI": "Akresi Sedang", "GELOMBANG": 0.25286520228666398, "PASUT": 0.888, "SLR": 4.69, "SKOR_GEL": 2, "SKOR_PASUT": 2, "SKOR_SLR": 5, "CVI": 10.0, "KELAS_CVI": 1, "KELAS_CV_1": "Sangat Rendah", "LAHAN": "Pantai", "JENIS": "Buatan", "SKOR_LAHAN": 2 }, "geometry": { "type": "MultiLineString", "coordinates": [ [ [ 109.15297240015272, -6.847314993970083 ], [ 109.15294468356808, -6.847323145900954 ], [ 109.152915526994008, -6.847331721764066 ], [ 109.152856413250248, -6.847349108196934 ], [ 109.152790797823656, -6.847368407212121 ], [ 109.151867272526232, -6.847412165458107 ], [ 109.151860883787535, -6.847412468192515 ], [ 109.151317737009933, -6.847438202611041 ], [ 109.151164776474261, -6.847445449561763 ] ] ] } },
{ "type": "Feature", "properties": { "OBJECTID_1": 2492, "OBJECTID": 37, "ID": 0, "TAHUN": 2025, "DATE": "2025-01-01", "NAMA_TITIK": "T38", "SHAPE_LENG": 180.99226727499999, "TRANSECTID": 42, "TRANSORDER": 42, "SHORELINEI": "2025-01-01", "BASELINEID": 1, "DISTANCE": 263.01, "INTERSECTX": 297318.787323998, "INTERSECTY": 9242763.5643899906, "UNCERTAINT": 10, "NAMA_TITI2": "T38", "D_TAHUN": null, "LRR": -4.04, "SKOR_SHORE": 5, "RASTERVALU": 0.000344, "SKOR_SLOPE": 5, "RASTERVA_1": -2.94192, "SKOR_ELEV": 5, "GEOM_LAP": "Pasir_Halus", "SKOR_GEOM": 3, "KATEGORI": "Abrasi Tinggi", "GELOMBANG": 0.25286520228666398, "PASUT": 0.888, "SLR": 4.69, "SKOR_GEL": 2, "SKOR_PASUT": 2, "SKOR_SLR": 5, "CVI": 43.301270189219998, "KELAS_CVI": 3, "KELAS_CV_1": "Sedang", "LAHAN": "Pantai", "JENIS": "Natural", "SKOR_LAHAN": 2 }, "geometry": { "type": "MultiLineString", "coordinates": [ [ [ 109.165864598690845, -6.847129113970626 ], [ 109.165320777727572, -6.8465849182733 ], [ 109.165316863871965, -6.846581001934221 ], [ 109.165307611388315, -6.84657174249651 ], [ 109.165270245951376, -6.846551511511434 ], [ 109.164781785544037, -6.846287032545642 ], [ 109.164632454937035, -6.846206176786507 ], [ 109.164561010264862, -6.846167492182499 ] ] ] } },
{ "type": "Feature", "properties": { "OBJECTID_1": 2493, "OBJECTID": 37, "ID": 0, "TAHUN": 2025, "DATE": "2025-01-01", "NAMA_TITIK": "T39", "SHAPE_LENG": 205.637396483, "TRANSECTID": 43, "TRANSORDER": 43, "SHORELINEI": "2025-01-01", "BASELINEID": 1, "DISTANCE": 215.19, "INTERSECTX": 297464.66040499799, "INTERSECTY": 9242618.6237400007, "UNCERTAINT": 10, "NAMA_TITI2": "T39", "D_TAHUN": null, "LRR": -3.6, "SKOR_SHORE": 5, "RASTERVALU": 0.000339, "SKOR_SLOPE": 5, "RASTERVA_1": -2.9425, "SKOR_ELEV": 5, "GEOM_LAP": "Pasir_Halus", "SKOR_GEOM": 3, "KATEGORI": "Abrasi Tinggi", "GELOMBANG": 0.25286520228666398, "PASUT": 0.888, "SLR": 4.69, "SKOR_GEL": 2, "SKOR_PASUT": 2, "SKOR_SLR": 5, "CVI": 43.301270189219998, "KELAS_CVI": 3, "KELAS_CV_1": "Sedang", "LAHAN": "Pantai", "JENIS": "Natural", "SKOR_LAHAN": 2 }, "geometry": { "type": "MultiLineString", "coordinates": [ [ [ 109.16717919457902, -6.848444608124874 ], [ 109.167093879468666, -6.848359234831033 ], [ 109.16643158961034, -6.847696493341795 ], [ 109.165864598690845, -6.847129113970626 ] ] ] } },
{ "type": "Feature", "properties": { "OBJECTID_1": 2494, "OBJECTID": 37, "ID": 0, "TAHUN": 2025, "DATE": "2025-01-01", "NAMA_TITIK": "T13", "SHAPE_LENG": 200.599004783, "TRANSECTID": 14, "TRANSORDER": 14, "SHORELINEI": "2025-01-01", "BASELINEID": 1, "DISTANCE": 276.19, "INTERSECTX": 291888.72473800002, "INTERSECTY": 9242891.98092, "UNCERTAINT": 10, "NAMA_TITI2": "T13", "D_TAHUN": null, "LRR": -1.17, "SKOR_SHORE": 4, "RASTERVALU": 11.5898, "SKOR_SLOPE": 2, "RASTERVA_1": -2.34707, "SKOR_ELEV": 5, "GEOM_LAP": "Pasir_Kasar", "SKOR_GEOM": 2, "KATEGORI": "Abrasi Sedang", "GELOMBANG": 0.25286520228666398, "PASUT": 0.888, "SLR": 4.69, "SKOR_GEL": 2, "SKOR_PASUT": 2, "SKOR_SLR": 5, "CVI": 31.622776601679998, "KELAS_CVI": 2, "KELAS_CV_1": "Rendah", "LAHAN": "Bangunan", "JENIS": "Buatan", "SKOR_LAHAN": 5 }, "geometry": { "type": "MultiLineString", "coordinates": [ [ [ 109.11674838479054, -6.845778145747412 ], [ 109.115106622911412, -6.845005609911384 ] ] ] } },
{ "type": "Feature", "properties": { "OBJECTID_1": 2496, "OBJECTID": 37, "ID": 0, "TAHUN": 2025, "DATE": "2025-01-01", "NAMA_TITIK": "T14", "SHAPE_LENG": 200.598962546, "TRANSECTID": 15, "TRANSORDER": 15, "SHORELINEI": "2025-01-01", "BASELINEID": 1, "DISTANCE": 260.7, "INTERSECTX": 292070.549061, "INTERSECTY": 9242807.2467999905, "UNCERTAINT": 10, "NAMA_TITI2": "T14", "D_TAHUN": null, "LRR": -2.36, "SKOR_SHORE": 5, "RASTERVALU": 6.05891, "SKOR_SLOPE": 3, "RASTERVA_1": -1.87579, "SKOR_ELEV": 5, "GEOM_LAP": "Bebatuan", "SKOR_GEOM": 1, "KATEGORI": "Abrasi Tinggi", "GELOMBANG": 0.25286520228666398, "PASUT": 0.888, "SLR": 4.69, "SKOR_GEL": 2, "SKOR_PASUT": 2, "SKOR_SLR": 5, "CVI": 30.618621784790001, "KELAS_CVI": 2, "KELAS_CV_1": "Rendah", "LAHAN": "Bangunan", "JENIS": "Buatan", "SKOR_LAHAN": 5 }, "geometry": { "type": "MultiLineString", "coordinates": [ [ [ 109.118390153153669, -6.846550676489936 ], [ 109.118309047120107, -6.846512512335035 ], [ 109.118270238597816, -6.846494250795131 ], [ 109.118225325274395, -6.846473117361247 ], [ 109.118219045300791, -6.84647016250846 ], [ 109.118203674491411, -6.846462929913829 ], [ 109.118200166557358, -6.84646127881115 ], [ 109.118172450706552, -6.846448236804708 ], [ 109.117998159168536, -6.846366223919467 ], [ 109.117930200963301, -6.846334246581857 ], [ 109.117741812784956, -6.846245600927904 ], [ 109.117677471808634, -6.846215325727551 ], [ 109.117509214837895, -6.846136152686483 ], [ 109.117306718384668, -6.846040868725908 ], [ 109.117235921443722, -6.846007555654771 ], [ 109.117038113195591, -6.845914477047211 ], [ 109.116890267456412, -6.845844908739651 ], [ 109.11674838479054, -6.845778145747412 ] ] ] } },
{ "type": "Feature", "properties": { "OBJECTID_1": 2498, "OBJECTID": 37, "ID": 0, "TAHUN": 2025, "DATE": "2025-01-01", "NAMA_TITIK": "T24", "SHAPE_LENG": 359.07449253800002, "TRANSECTID": 27, "TRANSORDER": 27, "SHORELINEI": "2025-01-01", "BASELINEID": 1, "DISTANCE": 398.59, "INTERSECTX": 294178.02103300003, "INTERSECTY": 9242830.3929699901, "UNCERTAINT": 10, "NAMA_TITI2": "T24", "D_TAHUN": null, "LRR": 2.42, "SKOR_SHORE": 1, "RASTERVALU": 9.9777, "SKOR_SLOPE": 2, "RASTERVA_1": -0.50439, "SKOR_ELEV": 5, "GEOM_LAP": "Bebatuan", "SKOR_GEOM": 1, "KATEGORI": "Akresi Tinggi", "GELOMBANG": 0.25286520228666398, "PASUT": 0.888, "SLR": 4.69, "SKOR_GEL": 2, "SKOR_PASUT": 2, "SKOR_SLR": 5, "CVI": 10.0, "KELAS_CVI": 1, "KELAS_CV_1": "Sangat Rendah", "LAHAN": "Muara", "JENIS": "Natural", "SKOR_LAHAN": 4 }, "geometry": { "type": "MultiLineString", "coordinates": [ [ [ 109.137455156715134, -6.846415650978089 ], [ 109.137189453197266, -6.846355246914989 ], [ 109.137165652880157, -6.846349836567859 ], [ 109.136787791686729, -6.846263934163298 ], [ 109.136853853313568, -6.846932343784091 ], [ 109.136856285355378, -6.846956946572886 ], [ 109.136862444647534, -6.847019260791963 ], [ 109.136863538792909, -6.84703033254319 ], [ 109.136866101399704, -6.847056256778673 ], [ 109.136867607271682, -6.847071492760965 ], [ 109.136869638879617, -6.847092051612528 ], [ 109.136872626259191, -6.847122274845763 ], [ 109.13687488940576, -6.847145176303186 ], [ 109.136879469672294, -6.84719152371625 ], [ 109.136881190561823, -6.84720893045486 ], [ 109.136882509275452, -6.847222276070755 ], [ 109.136885568022024, -6.847253223792548 ], [ 109.136888780849475, -6.847285727222977 ], [ 109.13690158422169, -6.847415272417713 ], [ 109.136919651181486, -6.847598071647106 ], [ 109.136921391199465, -6.847615677369823 ], [ 109.136922487089933, -6.847626765402571 ], [ 109.136922699478021, -6.84762891444941 ], [ 109.136923704829357, -6.847639089859503 ], [ 109.136926999449742, -6.847672428123762 ], [ 109.136930623110899, -6.847709092166093 ], [ 109.13693482126375, -6.847751569307819 ], [ 109.136941083474767, -6.84775891887981 ], [ 109.136943398707871, -6.847761636641321 ], [ 109.136950988282294, -6.847770544661602 ], [ 109.13696909592052, -6.847791797819274 ], [ 109.13698707478386, -6.847812900391196 ], [ 109.136989791651345, -6.847816088955278 ], [ 109.136990671459913, -6.847817121270697 ], [ 109.137053795152482, -6.847891213850948 ], [ 109.136951714743574, -6.847925555913263 ], [ 109.136942198372779, -6.847928757633897 ], [ 109.136923932847267, -6.847934902753684 ], [ 109.136922912912269, -6.847935245987609 ], [ 109.136886782226469, -6.847947401252346 ], [ 109.13685731191616, -6.847957314764281 ], [ 109.136795443728943, -6.847978128596751 ], [ 109.136773710785462, -6.847985440162937 ], [ 109.136772727988344, -6.847985770882565 ], [ 109.136768342087009, -6.847987246605269 ], [ 109.136726200485327, -6.848001423704621 ], [ 109.136701537265665, -6.848009721166814 ], [ 109.136690277221874, -6.848013509233549 ], [ 109.136686236431757, -6.848014868755883 ], [ 109.136659034242399, -6.848024020724403 ], [ 109.136656622995176, -6.84802483142575 ], [ 109.136644424539114, -6.848028935012368 ], [ 109.136633285870019, -6.848032682862077 ], [ 109.136617804779704, -6.848037891230828 ], [ 109.136593243010495, -6.848046153818535 ], [ 109.136576912278542, -6.848051647310366 ], [ 109.136481003067445, -6.848083912877462 ], [ 109.136301559710404, -6.848144281379751 ], [ 109.13621538333804, -6.848173272783078 ] ] ] } },
{ "type": "Feature", "properties": { "OBJECTID_1": 2499, "OBJECTID": 37, "ID": 0, "TAHUN": 2025, "DATE": "2025-01-01", "NAMA_TITIK": "T32", "SHAPE_LENG": 202.449680169, "TRANSECTID": 36, "TRANSORDER": 36, "SHORELINEI": "2025-01-01", "BASELINEID": 1, "DISTANCE": 243.08, "INTERSECTX": 296087.72584600002, "INTERSECTY": 9242795.4449199904, "UNCERTAINT": 10, "NAMA_TITI2": "T32", "D_TAHUN": null, "LRR": 0.28, "SKOR_SHORE": 3, "RASTERVALU": 14.1756, "SKOR_SLOPE": 1, "RASTERVA_1": -0.866263, "SKOR_ELEV": 5, "GEOM_LAP": "Pasir_Kasar", "SKOR_GEOM": 2, "KATEGORI": "Stabil", "GELOMBANG": 0.25286520228666398, "PASUT": 0.888, "SLR": 4.69, "SKOR_GEL": 2, "SKOR_PASUT": 2, "SKOR_SLR": 5, "CVI": 12.247448713920001, "KELAS_CVI": 1, "KELAS_CV_1": "Sangat Rendah", "LAHAN": "Pantai", "JENIS": "Buatan", "SKOR_LAHAN": 2 }, "geometry": { "type": "MultiLineString", "coordinates": [ [ [ 109.154729307551335, -6.846798250197084 ], [ 109.154683088545156, -6.846811844684263 ], [ 109.15443189709309, -6.846885726217633 ], [ 109.154336018492529, -6.846913926304298 ], [ 109.154322423758913, -6.84691792466703 ], [ 109.154134719328454, -6.846973132395349 ], [ 109.154007606593638, -6.8470105188086 ], [ 109.153852425887038, -6.847056160705468 ], [ 109.153841184938756, -6.847059466477689 ], [ 109.153614546466699, -6.847126125491911 ], [ 109.153563881578592, -6.847141027345937 ], [ 109.153173790958164, -6.847255760766809 ], [ 109.153155056635967, -6.847261270961401 ], [ 109.153142485276973, -6.847264968521475 ], [ 109.153001220727631, -6.847306517171694 ], [ 109.15297240015272, -6.847314993970083 ] ] ] } },
{ "type": "Feature", "properties": { "OBJECTID_1": 2500, "OBJECTID": 37, "ID": 0, "TAHUN": 2025, "DATE": "2025-01-01", "NAMA_TITIK": "T34", "SHAPE_LENG": 194.66165744, "TRANSECTID": 38, "TRANSORDER": 38, "SHORELINEI": "2025-01-01", "BASELINEID": 1, "DISTANCE": 289.04, "INTERSECTX": 296372.33662000002, "INTERSECTY": 9242932.6943500005, "UNCERTAINT": 10, "NAMA_TITI2": "T34", "D_TAHUN": null, "LRR": 0.47, "SKOR_SHORE": 3, "RASTERVALU": 0.126396, "SKOR_SLOPE": 5, "RASTERVA_1": -2.93443, "SKOR_ELEV": 5, "GEOM_LAP": "Pasir_Kasar", "SKOR_GEOM": 2, "KATEGORI": "Stabil", "GELOMBANG": 0.25286520228666398, "PASUT": 0.888, "SLR": 4.69, "SKOR_GEL": 2, "SKOR_PASUT": 2, "SKOR_SLR": 5, "CVI": 27.386127875260001, "KELAS_CVI": 2, "KELAS_CV_1": "Rendah", "LAHAN": "Pantai", "JENIS": "Buatan", "SKOR_LAHAN": 2 }, "geometry": { "type": "MultiLineString", "coordinates": [ [ [ 109.157308699917763, -6.845567210788299 ], [ 109.157243795325158, -6.845631196081157 ], [ 109.157057487375283, -6.84581486506685 ], [ 109.156955328548776, -6.845915575793631 ], [ 109.156938517586838, -6.845932148510275 ], [ 109.156930683730195, -6.845939871517274 ], [ 109.156927889619396, -6.845942626583674 ], [ 109.156903147633074, -6.845967018676101 ], [ 109.156896865655668, -6.845973211490227 ], [ 109.156761300928494, -6.846106855933841 ], [ 109.156735950522688, -6.846131847840451 ], [ 109.156625793335436, -6.84624044357657 ], [ 109.156623453136646, -6.846241131698415 ], [ 109.156605041271263, -6.84624654744596 ], [ 109.156547305177554, -6.846263529205891 ], [ 109.156522480404547, -6.846270830815364 ], [ 109.156483335493022, -6.846282344165642 ], [ 109.156324054275657, -6.846329193665478 ], [ 109.15629153781093, -6.84633875776778 ], [ 109.156275269617097, -6.846343542492207 ], [ 109.156225006935955, -6.846358325962639 ], [ 109.156185466244935, -6.846369956209717 ], [ 109.156151296964111, -6.846380006720262 ], [ 109.156110434928777, -6.846392025194812 ], [ 109.156068020606028, -6.846404500632955 ], [ 109.156016934682256, -6.846419525943475 ], [ 109.155897262942474, -6.84645472451698 ], [ 109.15587481096226, -6.846461328149403 ], [ 109.155857113647016, -6.8464665332269 ], [ 109.15585666897104, -6.846466664430189 ] ] ] } },
{ "type": "Feature", "properties": { "OBJECTID_1": 2501, "OBJECTID": 37, "ID": 0, "TAHUN": 2025, "DATE": "2025-01-01", "NAMA_TITIK": "T33", "SHAPE_LENG": 129.906804384, "TRANSECTID": 37, "TRANSORDER": 37, "SHORELINEI": "2025-01-01", "BASELINEID": 1, "DISTANCE": 268.43, "INTERSECTX": 296212.20669800002, "INTERSECTY": 9242832.5974199902, "UNCERTAINT": 10, "NAMA_TITI2": "T33", "D_TAHUN": null, "LRR": -0.19, "SKOR_SHORE": 3, "RASTERVALU": 12.0224, "SKOR_SLOPE": 1, "RASTERVA_1": -2.23983, "SKOR_ELEV": 5, "GEOM_LAP": "Pasir_Kasar", "SKOR_GEOM": 2, "KATEGORI": "Stabil", "GELOMBANG": 0.25286520228666398, "PASUT": 0.888, "SLR": 4.69, "SKOR_GEL": 2, "SKOR_PASUT": 2, "SKOR_SLR": 5, "CVI": 12.247448713920001, "KELAS_CVI": 1, "KELAS_CV_1": "Sangat Rendah", "LAHAN": "Pantai", "JENIS": "Buatan", "SKOR_LAHAN": 2 }, "geometry": { "type": "MultiLineString", "coordinates": [ [ [ 109.15585666897104, -6.846466664430189 ], [ 109.155796117178596, -6.846484474329588 ], [ 109.155771371183931, -6.846491752688604 ], [ 109.155751822717846, -6.846497502187643 ], [ 109.155531744181317, -6.846562233561079 ], [ 109.155383020934195, -6.846605976789301 ], [ 109.155374375592075, -6.846608519520208 ], [ 109.155363774043039, -6.84661163791705 ], [ 109.154927746585443, -6.84673988454268 ], [ 109.154919679044426, -6.846742257694619 ], [ 109.154778790520581, -6.846783696279712 ], [ 109.154729307551335, -6.846798250197084 ] ] ] } },
{ "type": "Feature", "properties": { "OBJECTID_1": 2503, "OBJECTID": 37, "ID": 0, "TAHUN": 2025, "DATE": "2025-01-01", "NAMA_TITIK": "T37", "SHAPE_LENG": 221.73918243, "TRANSECTID": 41, "TRANSORDER": 41, "SHORELINEI": "2025-01-01", "BASELINEID": 1, "DISTANCE": 275.77, "INTERSECTX": 297174.27979300002, "INTERSECTY": 9242869.3706800006, "UNCERTAINT": 10, "NAMA_TITI2": "T37", "D_TAHUN": null, "LRR": -4.54, "SKOR_SHORE": 5, "RASTERVALU": 0.000345, "SKOR_SLOPE": 5, "RASTERVA_1": -2.94128, "SKOR_ELEV": 5, "GEOM_LAP": "Pasir_Halus", "SKOR_GEOM": 3, "KATEGORI": "Abrasi Tinggi", "GELOMBANG": 0.25286520228666398, "PASUT": 0.888, "SLR": 4.69, "SKOR_GEL": 2, "SKOR_PASUT": 2, "SKOR_SLR": 5, "CVI": 43.301270189219998, "KELAS_CVI": 3, "KELAS_CV_1": "Sedang", "LAHAN": "Pantai", "JENIS": "Natural", "SKOR_LAHAN": 2 }, "geometry": { "type": "MultiLineString", "coordinates": [ [ [ 109.164561010264862, -6.846167492182499 ], [ 109.16444113599249, -6.846102584999799 ], [ 109.164385662128979, -6.84607254805165 ], [ 109.164244258476913, -6.845876092771706 ], [ 109.164138518732983, -6.84572918535952 ], [ 109.164080085099911, -6.845648002994289 ], [ 109.163739700586831, -6.84517509859768 ], [ 109.163736780577167, -6.845171041383829 ], [ 109.163730078502354, -6.845161729284388 ], [ 109.163645261427732, -6.845043890536197 ], [ 109.163550831309948, -6.8449126960658 ], [ 109.163450740396073, -6.844933309894059 ], [ 109.16336373980927, -6.84495122780444 ], [ 109.16331903314547, -6.844960435758365 ], [ 109.163282274472948, -6.844968006820149 ], [ 109.163181667504745, -6.844988727112618 ] ] ] } },
{ "type": "Feature", "properties": { "OBJECTID_1": 2504, "OBJECTID": 37, "ID": 0, "TAHUN": 2025, "DATE": "2025-01-01", "NAMA_TITIK": "T11", "SHAPE_LENG": 178.74754234599999, "TRANSECTID": 12, "TRANSORDER": 12, "SHORELINEI": "2025-01-01", "BASELINEID": 1, "DISTANCE": 304.49, "INTERSECTX": 291524.133521999, "INTERSECTY": 9243058.9358600006, "UNCERTAINT": 10, "NAMA_TITI2": "T11", "D_TAHUN": null, "LRR": -1.28, "SKOR_SHORE": 4, "RASTERVALU": 8.04452, "SKOR_SLOPE": 2, "RASTERVA_1": -1.92344, "SKOR_ELEV": 5, "GEOM_LAP": "Bebatuan", "SKOR_GEOM": 1, "KATEGORI": "Abrasi Sedang", "GELOMBANG": 0.25286520228666398, "PASUT": 0.888, "SLR": 4.69, "SKOR_GEL": 2, "SKOR_PASUT": 2, "SKOR_SLR": 5, "CVI": 22.360679775000001, "KELAS_CVI": 1, "KELAS_CV_1": "Sangat Rendah", "LAHAN": "Bangunan", "JENIS": "Buatan", "SKOR_LAHAN": 5 }, "geometry": { "type": "MultiLineString", "coordinates": [ [ [ 109.113456252521914, -6.844255761214812 ], [ 109.113407665643649, -6.844236823609799 ], [ 109.113238000446259, -6.844170693119668 ], [ 109.113233536738321, -6.844168953252014 ], [ 109.113219872841157, -6.84416362770037 ], [ 109.113180599979458, -6.844148320509745 ], [ 109.113084473113929, -6.844110853502327 ], [ 109.1130653989417, -6.844103419098626 ], [ 109.112852714482955, -6.844020520906997 ], [ 109.112848427807819, -6.844018850444574 ], [ 109.112823637178664, -6.844009187540983 ], [ 109.112810951480199, -6.844004242838027 ], [ 109.112793848137613, -6.843997577431264 ], [ 109.112791145711483, -6.843996523468397 ], [ 109.11263593673668, -6.843936027073809 ], [ 109.112595742640607, -6.843920360909562 ], [ 109.112263503141051, -6.843790863135808 ], [ 109.111949811423003, -6.843668595029334 ] ] ] } },
{ "type": "Feature", "properties": { "OBJECTID_1": 2505, "OBJECTID": 37, "ID": 0, "TAHUN": 2025, "DATE": "2025-01-01", "NAMA_TITIK": "T12", "SHAPE_LENG": 200.482857561, "TRANSECTID": 13, "TRANSORDER": 13, "SHORELINEI": "2025-01-01", "BASELINEID": 1, "DISTANCE": 291.68, "INTERSECTX": 291706.900413998, "INTERSECTY": 9242976.7150400002, "UNCERTAINT": 10, "NAMA_TITI2": "T12", "D_TAHUN": null, "LRR": -1.2, "SKOR_SHORE": 4, "RASTERVALU": 8.1766, "SKOR_SLOPE": 2, "RASTERVA_1": -2.15891, "SKOR_ELEV": 5, "GEOM_LAP": "Pasir_Halus", "SKOR_GEOM": 3, "KATEGORI": "Abrasi Sedang", "GELOMBANG": 0.25286520228666398, "PASUT": 0.888, "SLR": 4.69, "SKOR_GEL": 2, "SKOR_PASUT": 2, "SKOR_SLR": 5, "CVI": 38.729833462069998, "KELAS_CVI": 3, "KELAS_CV_1": "Sedang", "LAHAN": "Bangunan", "JENIS": "Buatan", "SKOR_LAHAN": 5 }, "geometry": { "type": "MultiLineString", "coordinates": [ [ [ 109.115106622911412, -6.845005609911384 ], [ 109.114384640633887, -6.844665877416596 ], [ 109.113973678862934, -6.844472496630308 ], [ 109.113906529441778, -6.844440899056782 ], [ 109.113876569180803, -6.844426801086299 ], [ 109.113813408036521, -6.844397079831892 ], [ 109.113787276222169, -6.844384783421482 ], [ 109.113731955806912, -6.844363220980076 ], [ 109.113717126744447, -6.844357440615831 ], [ 109.113461217518463, -6.844257696529755 ], [ 109.113456252521914, -6.844255761214812 ] ] ] } },
{ "type": "Feature", "properties": { "OBJECTID_1": 2506, "OBJECTID": 37, "ID": 0, "TAHUN": 2025, "DATE": "2025-01-01", "NAMA_TITIK": "T35", "SHAPE_LENG": 208.61411553, "TRANSECTID": 39, "TRANSORDER": 39, "SHORELINEI": "2025-01-01", "BASELINEID": 1, "DISTANCE": 346.94, "INTERSECTX": 296527.54318699799, "INTERSECTY": 9243071.4874900002, "UNCERTAINT": 10, "NAMA_TITI2": "T35", "D_TAHUN": null, "LRR": 1.06, "SKOR_SHORE": 2, "RASTERVALU": 0.000213, "SKOR_SLOPE": 5, "RASTERVA_1": -2.93913, "SKOR_ELEV": 5, "GEOM_LAP": "Pasir_Kasar", "SKOR_GEOM": 2, "KATEGORI": "Akresi Sedang", "GELOMBANG": 0.25286520228666398, "PASUT": 0.888, "SLR": 4.69, "SKOR_GEL": 2, "SKOR_PASUT": 2, "SKOR_SLR": 5, "CVI": 35.355339059329999, "KELAS_CVI": 2, "KELAS_CV_1": "Rendah", "LAHAN": "Bangunan", "JENIS": "Buatan", "SKOR_LAHAN": 5 }, "geometry": { "type": "MultiLineString", "coordinates": [ [ [ 109.158717530481866, -6.844317716826033 ], [ 109.158696763900096, -6.844321024237672 ], [ 109.15866861138727, -6.844345956745938 ], [ 109.158662626879732, -6.844351256534358 ], [ 109.158657573678269, -6.844355731691606 ], [ 109.158543724584433, -6.844456556392239 ], [ 109.158468368574745, -6.844523292104515 ], [ 109.158400826998758, -6.844583106658508 ], [ 109.158383355450653, -6.844598579289664 ], [ 109.15837722570339, -6.844604007809336 ], [ 109.158342118306777, -6.844635098910391 ], [ 109.158295197090695, -6.844676652735382 ], [ 109.158277347023144, -6.844692460253057 ], [ 109.158239844171433, -6.844725673238336 ], [ 109.158210747598801, -6.844751441137579 ], [ 109.15812254107712, -6.844829556846705 ], [ 109.158047140475574, -6.844896332072642 ], [ 109.157699078583121, -6.845204575114561 ], [ 109.157647910994143, -6.845249889188527 ], [ 109.157609111852452, -6.845284249014316 ], [ 109.157552183921666, -6.845334663884982 ], [ 109.157477485737274, -6.845400816001846 ], [ 109.15747120286656, -6.845407009728262 ], [ 109.157396982520581, -6.845480178917172 ], [ 109.1573875078128, -6.845489519491172 ], [ 109.157308699917763, -6.845567210788299 ] ] ] } },
{ "type": "Feature", "properties": { "OBJECTID_1": 2507, "OBJECTID": 37, "ID": 0, "TAHUN": 2025, "DATE": "2025-01-01", "NAMA_TITIK": "T36", "SHAPE_LENG": 523.55350387600004, "TRANSECTID": 40, "TRANSORDER": 40, "SHORELINEI": "2025-01-01", "BASELINEID": 1, "DISTANCE": 291.48, "INTERSECTX": 297021.30557700002, "INTERSECTY": 9242999.1610499807, "UNCERTAINT": 10, "NAMA_TITI2": "T36", "D_TAHUN": null, "LRR": -4.93, "SKOR_SHORE": 5, "RASTERVALU": 0.000338, "SKOR_SLOPE": 5, "RASTERVA_1": -2.94072, "SKOR_ELEV": 5, "GEOM_LAP": "Pasir_Halus", "SKOR_GEOM": 3, "KATEGORI": "Abrasi Tinggi", "GELOMBANG": 0.25286520228666398, "PASUT": 0.888, "SLR": 4.69, "SKOR_GEL": 2, "SKOR_PASUT": 2, "SKOR_SLR": 5, "CVI": 43.301270189219998, "KELAS_CVI": 3, "KELAS_CV_1": "Sedang", "LAHAN": "Pantai", "JENIS": "Buatan", "SKOR_LAHAN": 2 }, "geometry": { "type": "MultiLineString", "coordinates": [ [ [ 109.163181667504745, -6.844988727112618 ], [ 109.16295749499929, -6.845034897209629 ], [ 109.162900023016931, -6.845046733529239 ], [ 109.162822952200898, -6.845062606114293 ], [ 109.162755894459849, -6.845076416612057 ], [ 109.16268846281038, -6.845090304331465 ], [ 109.162684510994026, -6.845091118333817 ], [ 109.162532821007972, -6.845122360131095 ], [ 109.162338091074758, -6.845162465288698 ], [ 109.161198605626026, -6.844627181220336 ], [ 109.160839924034235, -6.844458686109099 ], [ 109.160823154383849, -6.844450808334994 ], [ 109.160771447588573, -6.844426518678026 ], [ 109.16063302012958, -6.844361491002049 ], [ 109.16058085734204, -6.84433698711092 ], [ 109.160536409807975, -6.844316106710526 ], [ 109.160522271515759, -6.844309465016683 ], [ 109.160472809618241, -6.844286230020188 ], [ 109.160446931409638, -6.844274073329141 ], [ 109.160409240143096, -6.844256367003164 ], [ 109.160329460001307, -6.844218889629394 ], [ 109.160196367617303, -6.844156367766488 ], [ 109.160151836144081, -6.844135448139721 ], [ 109.160151116453036, -6.844135109947959 ], [ 109.160119328127166, -6.844120176602109 ], [ 109.160099500943858, -6.844110863080353 ], [ 109.160091525644248, -6.844107116525306 ], [ 109.160091167153965, -6.844106947886642 ], [ 109.160087626490622, -6.844105284272926 ], [ 109.160084059638592, -6.844103608805076 ], [ 109.160083546733247, -6.844103368148051 ], [ 109.160080792580956, -6.844102074626927 ], [ 109.160078479093173, -6.844100988032996 ], [ 109.160056894236618, -6.844104425287092 ], [ 109.160026367133284, -6.844109286712767 ], [ 109.159995445373198, -6.844114210820644 ], [ 109.15990837275298, -6.844128076356245 ], [ 109.159872047987534, -6.844133861323307 ], [ 109.159780052103173, -6.844148511780272 ], [ 109.159754668217431, -6.844152553821604 ], [ 109.159710488321906, -6.844159589890003 ], [ 109.159700503310873, -6.844161180044912 ], [ 109.159672268113852, -6.844165676804891 ], [ 109.159668796759249, -6.844166229515348 ], [ 109.159633757345105, -6.844171809620054 ], [ 109.159590232800085, -6.844178740591166 ], [ 109.159529494496837, -6.844188413048808 ], [ 109.159512108755152, -6.844191181909233 ], [ 109.159376390085967, -6.844212795031964 ], [ 109.159081362011449, -6.844259777076733 ], [ 109.159010773562869, -6.844271018420744 ], [ 109.158879242235201, -6.844291964792075 ], [ 109.158856991165507, -6.84429550793439 ], [ 109.158717530481866, -6.844317716826033 ] ] ] } },
{ "type": "Feature", "properties": { "OBJECTID_1": 2508, "OBJECTID": 37, "ID": 0, "TAHUN": 2025, "DATE": "2025-01-01", "NAMA_TITIK": "T09", "SHAPE_LENG": 239.49518340700001, "TRANSECTID": 10, "TRANSORDER": 10, "SHORELINEI": "2025-01-01", "BASELINEID": 1, "DISTANCE": 306.18, "INTERSECTX": 291177.110392, "INTERSECTY": 9243210.0039300006, "UNCERTAINT": 10, "NAMA_TITI2": "T09", "D_TAHUN": null, "LRR": -1.13, "SKOR_SHORE": 4, "RASTERVALU": 2.4778, "SKOR_SLOPE": 4, "RASTERVA_1": -2.67262, "SKOR_ELEV": 5, "GEOM_LAP": "Pasir_Halus", "SKOR_GEOM": 3, "KATEGORI": "Abrasi Sedang", "GELOMBANG": 0.25286520228666398, "PASUT": 0.888, "SLR": 4.69, "SKOR_GEL": 2, "SKOR_PASUT": 2, "SKOR_SLR": 5, "CVI": 54.772255750520003, "KELAS_CVI": 4, "KELAS_CV_1": "Tinggi", "LAHAN": "Bangunan", "JENIS": "Buatan", "SKOR_LAHAN": 5 }, "geometry": { "type": "MultiLineString", "coordinates": [ [ [ 109.1103224965007, -6.84287761694793 ], [ 109.110306008337673, -6.842866132211128 ], [ 109.110257297129365, -6.84283220263621 ], [ 109.110211141651163, -6.84280005336929 ], [ 109.109847892688578, -6.842547035319067 ], [ 109.109733735105863, -6.842467519508594 ], [ 109.109699130570291, -6.842399942421952 ], [ 109.109657427933499, -6.842318503485728 ], [ 109.109648429393047, -6.842300930888218 ], [ 109.109647287517859, -6.842298701359103 ], [ 109.109646593596835, -6.842297346067104 ], [ 109.109645952637138, -6.842296094957176 ], [ 109.109645715644973, -6.842295632020005 ], [ 109.109642218207739, -6.842288802107546 ], [ 109.109641935430474, -6.842288250386609 ], [ 109.109636488190276, -6.842277612791253 ], [ 109.109614710001054, -6.84223508415107 ], [ 109.109567037684357, -6.842141988430201 ], [ 109.109542754028226, -6.842094566786463 ], [ 109.109533395517403, -6.842076291176417 ], [ 109.109497637485873, -6.842006461007689 ], [ 109.109476437438431, -6.841965060270058 ], [ 109.10943516126946, -6.84188445389676 ], [ 109.109421692206382, -6.841858150716838 ], [ 109.109415044747394, -6.841845170347934 ], [ 109.10941228432803, -6.841839779075947 ], [ 109.1094110742293, -6.841837416372921 ], [ 109.10938464240445, -6.841785800206984 ], [ 109.109358519387442, -6.841734788303295 ], [ 109.109354629660629, -6.841727192866946 ], [ 109.109351740872597, -6.841721550648977 ], [ 109.109341333861963, -6.841701227605029 ], [ 109.109341228833443, -6.841701021956816 ], [ 109.109339801494968, -6.841698234367343 ], [ 109.109339462701413, -6.841698355092056 ], [ 109.109330739714949, -6.841701337858374 ], [ 109.109266159568975, -6.841723459208588 ], [ 109.109245985236328, -6.841730369669444 ], [ 109.109232147085649, -6.841735109829346 ], [ 109.109230535637352, -6.84173566224197 ], [ 109.109207466317528, -6.841743563991666 ], [ 109.109169474585784, -6.841756576845957 ], [ 109.109129150372212, -6.841770389716062 ], [ 109.109073750660258, -6.84178936642586 ], [ 109.109062135380725, -6.841793345007225 ], [ 109.109032255225799, -6.841803579728286 ], [ 109.109030268771832, -6.841804259955182 ], [ 109.10901025204538, -6.841811116776594 ], [ 109.108995449199924, -6.841816186756568 ], [ 109.108980006844718, -6.841821476635641 ], [ 109.10894203050421, -6.841834484104353 ], [ 109.108875723851455, -6.841857196228519 ], [ 109.108831281786081, -6.84187241958204 ], [ 109.108794189514313, -6.841885124919875 ], [ 109.10879064233869, -6.841886339673479 ], [ 109.108787181215675, -6.841887524929405 ] ] ] } },
{ "type": "Feature", "properties": { "OBJECTID_1": 2509, "OBJECTID": 37, "ID": 0, "TAHUN": 2025, "DATE": "2025-01-01", "NAMA_TITIK": "T10", "SHAPE_LENG": 201.308259937, "TRANSECTID": 11, "TRANSORDER": 11, "SHORELINEI": "2025-01-01", "BASELINEID": 1, "DISTANCE": 302.17, "INTERSECTX": 291357.347725, "INTERSECTY": 9243123.2250399906, "UNCERTAINT": 10, "NAMA_TITI2": "T10", "D_TAHUN": null, "LRR": -1.2, "SKOR_SHORE": 4, "RASTERVALU": 6.23402, "SKOR_SLOPE": 3, "RASTERVA_1": -1.78507, "SKOR_ELEV": 5, "GEOM_LAP": "Pasir_Halus", "SKOR_GEOM": 3, "KATEGORI": "Abrasi Sedang", "GELOMBANG": 0.25286520228666398, "PASUT": 0.888, "SLR": 4.69, "SKOR_GEL": 2, "SKOR_PASUT": 2, "SKOR_SLR": 5, "CVI": 30.0, "KELAS_CVI": 2, "KELAS_CV_1": "Rendah", "LAHAN": "Pantai", "JENIS": "Buatan", "SKOR_LAHAN": 2 }, "geometry": { "type": "MultiLineString", "coordinates": [ [ [ 109.111949811423003, -6.843668595029334 ], [ 109.111814376836264, -6.843615805944652 ], [ 109.11171547195606, -6.843577255524142 ], [ 109.110833286277085, -6.843233403574755 ], [ 109.110759653709238, -6.843182115554907 ], [ 109.1103224965007, -6.84287761694793 ] ] ] } },
{ "type": "Feature", "properties": { "OBJECTID_1": 2510, "OBJECTID": 37, "ID": 0, "TAHUN": 2025, "DATE": "2025-01-01", "NAMA_TITIK": "T06", "SHAPE_LENG": 228.64907067799999, "TRANSECTID": 7, "TRANSORDER": 7, "SHORELINEI": "2025-01-01", "BASELINEID": 1, "DISTANCE": 236.56, "INTERSECTX": 290602.46093900001, "INTERSECTY": 9243396.0816200003, "UNCERTAINT": 10, "NAMA_TITI2": "T06", "D_TAHUN": null, "LRR": -2.75, "SKOR_SHORE": 5, "RASTERVALU": 4.22964, "SKOR_SLOPE": 3, "RASTERVA_1": -2.3357, "SKOR_ELEV": 5, "GEOM_LAP": "Pasir_Halus", "SKOR_GEOM": 3, "KATEGORI": "Abrasi Tinggi", "GELOMBANG": 0.25286520228666398, "PASUT": 0.888, "SLR": 4.69, "SKOR_GEL": 2, "SKOR_PASUT": 2, "SKOR_SLR": 5, "CVI": 33.541019662499998, "KELAS_CVI": 2, "KELAS_CV_1": "Rendah", "LAHAN": "Pantai", "JENIS": "Buatan", "SKOR_LAHAN": 2 }, "geometry": { "type": "MultiLineString", "coordinates": [ [ [ 109.105130952127297, -6.841174828385713 ], [ 109.105036834013021, -6.841149324974078 ], [ 109.105005448360174, -6.841140820165893 ], [ 109.104156900000959, -6.840331120999942 ], [ 109.103432829016867, -6.839722009451589 ] ] ] } },
{ "type": "Feature", "properties": { "OBJECTID_1": 2512, "OBJECTID": 37, "ID": 0, "TAHUN": 2025, "DATE": "2025-01-01", "NAMA_TITIK": "T07", "SHAPE_LENG": 202.85127099300001, "TRANSECTID": 8, "TRANSORDER": 8, "SHORELINEI": "2025-01-01", "BASELINEID": 1, "DISTANCE": 270.46, "INTERSECTX": 290798.452001, "INTERSECTY": 9243343.7736600004, "UNCERTAINT": 10, "NAMA_TITI2": "T07", "D_TAHUN": null, "LRR": -2.36, "SKOR_SHORE": 5, "RASTERVALU": 5.68255, "SKOR_SLOPE": 3, "RASTERVA_1": -2.10772, "SKOR_ELEV": 5, "GEOM_LAP": "Pasir_Halus", "SKOR_GEOM": 3, "KATEGORI": "Abrasi Tinggi", "GELOMBANG": 0.25286520228666398, "PASUT": 0.888, "SLR": 4.69, "SKOR_GEL": 2, "SKOR_PASUT": 2, "SKOR_SLR": 5, "CVI": 33.541019662499998, "KELAS_CVI": 2, "KELAS_CV_1": "Rendah", "LAHAN": "Pantai", "JENIS": "Buatan", "SKOR_LAHAN": 2 }, "geometry": { "type": "MultiLineString", "coordinates": [ [ [ 109.106901982233907, -6.841654727732896 ], [ 109.105130952127297, -6.841174828385713 ] ] ] } },
{ "type": "Feature", "properties": { "OBJECTID_1": 2514, "OBJECTID": 37, "ID": 0, "TAHUN": 2025, "DATE": "2025-01-01", "NAMA_TITIK": "T08", "SHAPE_LENG": 213.272400836, "TRANSECTID": 9, "TRANSORDER": 9, "SHORELINEI": "2025-01-01", "BASELINEID": 1, "DISTANCE": 334.45, "INTERSECTX": 291006.95599500003, "INTERSECTY": 9243318.8454100005, "UNCERTAINT": 10, "NAMA_TITI2": "T08", "D_TAHUN": null, "LRR": -0.36, "SKOR_SHORE": 3, "RASTERVALU": 7.29422, "SKOR_SLOPE": 3, "RASTERVA_1": -1.41285, "SKOR_ELEV": 5, "GEOM_LAP": "Bebatuan", "SKOR_GEOM": 1, "KATEGORI": "Stabil", "GELOMBANG": 0.25286520228666398, "PASUT": 0.888, "SLR": 4.69, "SKOR_GEL": 2, "SKOR_PASUT": 2, "SKOR_SLR": 5, "CVI": 23.717082451260001, "KELAS_CVI": 1, "KELAS_CV_1": "Sangat Rendah", "LAHAN": "Bangunan", "JENIS": "Buatan", "SKOR_LAHAN": 5 }, "geometry": { "type": "MultiLineString", "coordinates": [ [ [ 109.108787181215675, -6.841887524929405 ], [ 109.108763491401405, -6.841895639394896 ], [ 109.108734228097831, -6.841905663146773 ], [ 109.1086812229467, -6.841908981715122 ], [ 109.10864877978706, -6.841911013191845 ], [ 109.108645897941685, -6.841911193534184 ], [ 109.108565897539606, -6.841916203336599 ], [ 109.108562986740608, -6.841916385372797 ], [ 109.108491796556279, -6.841920843030931 ], [ 109.108441247082737, -6.841924008486576 ], [ 109.108346639307101, -6.841929931834738 ], [ 109.108343813560253, -6.841930108779323 ], [ 109.108342464477602, -6.841930192981867 ], [ 109.108065834461854, -6.841947514729319 ], [ 109.108040643425184, -6.841949091887078 ], [ 109.107998142316589, -6.841951752807112 ], [ 109.107960228681037, -6.841941479343941 ], [ 109.107910510014506, -6.841928007681329 ], [ 109.107871701789392, -6.841917492005681 ], [ 109.10781214892431, -6.841901354278389 ], [ 109.107805426815574, -6.841899533157778 ], [ 109.107756415707897, -6.841886252321785 ], [ 109.107616159630666, -6.841848247402167 ], [ 109.107611313460666, -6.84184693454163 ], [ 109.107567811798987, -6.841835147270668 ], [ 109.107360138651302, -6.841778874221721 ], [ 109.107328960710134, -6.841770426415971 ], [ 109.107181846185, -6.841730562656203 ], [ 109.107147797422385, -6.841721336850617 ], [ 109.10713740839239, -6.841718522131348 ], [ 109.107056698922349, -6.841696652133914 ], [ 109.106902312961054, -6.841654817638155 ], [ 109.106901982233907, -6.841654727732896 ] ] ] } },
{ "type": "Feature", "properties": { "OBJECTID_1": 2516, "OBJECTID": 37, "ID": 0, "TAHUN": 2025, "DATE": "2025-01-01", "NAMA_TITIK": "T04", "SHAPE_LENG": 200.41883173799999, "TRANSECTID": 4, "TRANSORDER": 4, "SHORELINEI": "2025-01-01", "BASELINEID": 1, "DISTANCE": 215.32, "INTERSECTX": 290059.06913000002, "INTERSECTY": 9243551.1198800001, "UNCERTAINT": 10, "NAMA_TITI2": "T04", "D_TAHUN": null, "LRR": -3.32, "SKOR_SHORE": 5, "RASTERVALU": 6.89058, "SKOR_SLOPE": 3, "RASTERVA_1": -2.22393, "SKOR_ELEV": 5, "GEOM_LAP": "Pasir_Halus", "SKOR_GEOM": 3, "KATEGORI": "Abrasi Tinggi", "GELOMBANG": 0.25286520228666398, "PASUT": 0.888, "SLR": 4.69, "SKOR_GEL": 2, "SKOR_PASUT": 2, "SKOR_SLR": 5, "CVI": 33.541019662499998, "KELAS_CVI": 2, "KELAS_CV_1": "Rendah", "LAHAN": "Pantai", "JENIS": "Natural", "SKOR_LAHAN": 2 }, "geometry": { "type": "MultiLineString", "coordinates": [ [ [ 109.100221098555906, -6.839753738928196 ], [ 109.098953952293343, -6.838964089486826 ], [ 109.0987134252087, -6.838753629484383 ] ] ] } },
{ "type": "Feature", "properties": { "OBJECTID_1": 2517, "OBJECTID": 37, "ID": 0, "TAHUN": 2025, "DATE": "2025-01-01", "NAMA_TITIK": "T44", "SHAPE_LENG": 139.85629694799999, "TRANSECTID": 5, "TRANSORDER": 5, "SHORELINEI": "2025-01-01", "BASELINEID": 1, "DISTANCE": 194.32, "INTERSECTX": 290183.672379, "INTERSECTY": 9243491.7168300003, "UNCERTAINT": 10, "NAMA_TITI2": "T44", "D_TAHUN": null, "LRR": -2.33, "SKOR_SHORE": 5, "RASTERVALU": 0.013365, "SKOR_SLOPE": 5, "RASTERVA_1": -2.91714, "SKOR_ELEV": 5, "GEOM_LAP": "Aluvial", "SKOR_GEOM": 4, "KATEGORI": "Abrasi Tinggi", "GELOMBANG": 0.25286520228666398, "PASUT": 0.888, "SLR": 4.69, "SKOR_GEL": 2, "SKOR_PASUT": 2, "SKOR_SLR": 5, "CVI": 70.710678118649994, "KELAS_CVI": 4, "KELAS_CV_1": "Tinggi", "LAHAN": "Muara", "JENIS": "Natural", "SKOR_LAHAN": 4 }, "geometry": { "type": "MultiLineString", "coordinates": [ [ [ 109.101346104816741, -6.840295252756311 ], [ 109.100957545000099, -6.840212668836735 ], [ 109.100558362782152, -6.839963911331855 ], [ 109.100221098555906, -6.839753738928196 ] ] ] } },
{ "type": "Feature", "properties": { "OBJECTID_1": 2518, "OBJECTID": 37, "ID": 0, "TAHUN": 2025, "DATE": "2025-01-01", "NAMA_TITIK": "T05", "SHAPE_LENG": 201.067896899, "TRANSECTID": 6, "TRANSORDER": 6, "SHORELINEI": "2025-01-01", "BASELINEID": 1, "DISTANCE": 215.02, "INTERSECTX": 290380.506525998, "INTERSECTY": 9243450.6719799805, "UNCERTAINT": 10, "NAMA_TITI2": "T05", "D_TAHUN": null, "LRR": -1.47, "SKOR_SHORE": 4, "RASTERVALU": 6.15341, "SKOR_SLOPE": 3, "RASTERVA_1": -2.46219, "SKOR_ELEV": 5, "GEOM_LAP": "Pasir_Halus", "SKOR_GEOM": 3, "KATEGORI": "Abrasi Sedang", "GELOMBANG": 0.25286520228666398, "PASUT": 0.888, "SLR": 4.69, "SKOR_GEL": 2, "SKOR_PASUT": 2, "SKOR_SLR": 5, "CVI": 42.426406871189997, "KELAS_CVI": 3, "KELAS_CV_1": "Sedang", "LAHAN": "Muara", "JENIS": "Natural", "SKOR_LAHAN": 4 }, "geometry": { "type": "MultiLineString", "coordinates": [ [ [ 109.103436567146417, -6.839710452381862 ], [ 109.101346104816741, -6.840295252756311 ] ] ] } },
{ "type": "Feature", "properties": { "OBJECTID_1": 2519, "OBJECTID": 37, "ID": 0, "TAHUN": 2025, "DATE": "2025-01-01", "NAMA_TITIK": "T03", "SHAPE_LENG": 201.29064730299999, "TRANSECTID": 3, "TRANSORDER": 3, "SHORELINEI": "2025-01-01", "BASELINEID": 1, "DISTANCE": 211.35, "INTERSECTX": 289891.961912998, "INTERSECTY": 9243661.0786600001, "UNCERTAINT": 10, "NAMA_TITI2": "T03", "D_TAHUN": null, "LRR": -3.26, "SKOR_SHORE": 5, "RASTERVALU": 6.99672, "SKOR_SLOPE": 3, "RASTERVA_1": -1.58426, "SKOR_ELEV": 5, "GEOM_LAP": "Pasir_Halus", "SKOR_GEOM": 3, "KATEGORI": "Abrasi Tinggi", "GELOMBANG": 0.25286520228666398, "PASUT": 0.888, "SLR": 4.69, "SKOR_GEL": 2, "SKOR_PASUT": 2, "SKOR_SLR": 5, "CVI": 33.541019662499998, "KELAS_CVI": 2, "KELAS_CV_1": "Rendah", "LAHAN": "Pantai", "JENIS": "Natural", "SKOR_LAHAN": 2 }, "geometry": { "type": "MultiLineString", "coordinates": [ [ [ 109.0987134252087, -6.838753629484383 ], [ 109.098427063423884, -6.838503063487528 ], [ 109.097704004966673, -6.837870387754755 ], [ 109.097343420755081, -6.837554876601388 ] ] ] } },
{ "type": "Feature", "properties": { "OBJECTID_1": 2520, "OBJECTID": 37, "ID": 0, "TAHUN": 2025, "DATE": "2025-01-01", "NAMA_TITIK": "T01", "SHAPE_LENG": 49.258549956300001, "TRANSECTID": 1, "TRANSORDER": 1, "SHORELINEI": "2025-01-01", "BASELINEID": 1, "DISTANCE": 267.54, "INTERSECTX": 289594.058370999, "INTERSECTY": 9243933.86369, "UNCERTAINT": 10, "NAMA_TITI2": "T01", "D_TAHUN": null, "LRR": -0.96, "SKOR_SHORE": 3, "RASTERVALU": 0.111227, "SKOR_SLOPE": 5, "RASTERVA_1": -2.91494, "SKOR_ELEV": 5, "GEOM_LAP": "Pasir_Halus", "SKOR_GEOM": 3, "KATEGORI": "Stabil", "GELOMBANG": 0.25286520228666398, "PASUT": 0.888, "SLR": 4.69, "SKOR_GEL": 2, "SKOR_PASUT": 2, "SKOR_SLR": 5, "CVI": 33.541019662499998, "KELAS_CVI": 2, "KELAS_CV_1": "Sedang", "LAHAN": "Pantai", "JENIS": "Natural", "SKOR_LAHAN": 2 }, "geometry": { "type": "MultiLineString", "coordinates": [ [ [ 109.096028446612948, -6.836276725694234 ], [ 109.095924501992769, -6.836168545995821 ], [ 109.095875285897108, -6.836117324948703 ], [ 109.095761303002917, -6.835998698274109 ], [ 109.095719809157785, -6.835955513693552 ] ] ] } },
{ "type": "Feature", "properties": { "OBJECTID_1": 2521, "OBJECTID": 37, "ID": 0, "TAHUN": 2025, "DATE": "2025-01-01", "NAMA_TITIK": "T02", "SHAPE_LENG": 202.95791283299999, "TRANSECTID": 2, "TRANSORDER": 2, "SHORELINEI": "2025-01-01", "BASELINEID": 1, "DISTANCE": 234.1, "INTERSECTX": 289739.986149, "INTERSECTY": 9243793.0683399905, "UNCERTAINT": 10, "NAMA_TITI2": "T02", "D_TAHUN": null, "LRR": -2.19, "SKOR_SHORE": 5, "RASTERVALU": 6.56471, "SKOR_SLOPE": 3, "RASTERVA_1": -1.78074, "SKOR_ELEV": 5, "GEOM_LAP": "Pasir_Halus", "SKOR_GEOM": 3, "KATEGORI": "Abrasi Tinggi", "GELOMBANG": 0.25286520228666398, "PASUT": 0.888, "SLR": 4.69, "SKOR_GEL": 2, "SKOR_PASUT": 2, "SKOR_SLR": 5, "CVI": 33.541019662499998, "KELAS_CVI": 2, "KELAS_CV_1": "Rendah", "LAHAN": "Pantai", "JENIS": "Natural", "SKOR_LAHAN": 2 }, "geometry": { "type": "MultiLineString", "coordinates": [ [ [ 109.097343420755081, -6.837554876601388 ], [ 109.096797994801165, -6.837077627068475 ], [ 109.096528571115527, -6.836797227470674 ], [ 109.096348020099569, -6.836609320253218 ], [ 109.096028446612948, -6.836276725694234 ] ] ] } }
]
}
